{"type": "Feature","bbox": [39.4966,50.9753,39.6662,51.0434],"geometry": {"type": "MultiPolygon","coordinates": [[[[39.6571,51.0176,138.4301],[39.6021,51.0434,141.8979],[39.5113,51.041,135.41],[39.4966,50.9878,120.7157],[39.6662,50.9753,128.2173],[39.6571,51.0176,138.4301]]]]}
,"properties": {"GID_2": "RUS.79.14_1","GID_0": "RUS","country": "Russia","GID_1": "RUS.79_1","province": "Voronezh","NL_NAME_1": "Воронежскаяобласть","county": "Liski","VARNAME_2": "NA","NL_NAME_2": "Лиски","TYPE_2": "Gorsovet","ENGTYPE_2": "District","CC_2": "NA","HASC_2": "RU.VR.LG","name": "Liski.county","area_km2": 68.55582,"hist_schema_id": "Elevation0-9000","hist_area_km2": {"100": 3.26936,"125": 23.01695,"150": 31.87992,"175": 10.3896}}}