{"type": "Feature","bbox": [45.0889,42.6112,45.7918,43.0064],"geometry": {"type": "MultiPolygon","coordinates": [[[[45.2623,42.6112,3223.9922],[45.2424,42.6353,3413.3911],[45.2621,42.6454,2411.96],[45.2855,42.6612,3413.8098],[45.3476,42.6645,2332.1162],[45.3881,42.6545,3177.8462],[45.4339,42.6522,2718.3921],[45.4758,42.6551,1515.0911],[45.5084,42.6553,2749.6848],[45.5345,42.6607,2425.5889],[45.5637,42.6636,1615.7694],[45.6017,42.6797,1711.7793],[45.6258,42.701,1619.8159],[45.672,42.7228,1693.616],[45.7191,42.7791,1564.7079],[45.743,42.8113,875.6558],[45.7555,42.8486,1011.7576],[45.7589,42.883,1657.9413],[45.7855,42.9047,599.3979],[45.7918,42.9653,545.2961],[45.7869,42.988,537.6625],[45.7808,43.0026,688.9672],[45.775,42.9737,496.2033],[45.764,42.9609,499.6498],[45.7478,42.949,1296.8389],[45.735,42.9363,955.6797],[45.7356,42.9208,814.2093],[45.7317,42.9052,1204.9806],[45.7142,42.8922,794.9215],[45.6918,42.8894,892.0109],[45.675,42.8975,679.9461],[45.6557,42.9146,945.9259],[45.6459,42.9323,831.1877],[45.6527,42.9494,903.8787],[45.6511,42.9753,679.5436],[45.6535,42.9938,799.4351],[45.6498,43.004,664.8259],[45.6364,43.0064,655.8433],[45.6131,42.9827,654.9862],[45.5954,42.9737,763.1866],[45.5794,42.9714,612.7986],[45.5606,42.9715,597.0519],[45.5487,42.9651,604.0175],[45.5533,42.9446,745.9281],[45.5489,42.9255,814.849],[45.5201,42.9082,1035.3379],[45.5431,42.9024,887.84],[45.5486,42.8823,888.7518],[45.5302,42.8583,1740.0542],[45.501,42.8125,1680.5449],[45.5079,42.7982,1830.8693],[45.5061,42.7824,1929.6992],[45.4948,42.7713,1829.2548],[45.4753,42.7656,1895.2836],[45.4502,42.7708,1459.2654],[45.4287,42.7824,1999.3181],[45.3734,42.7886,1909.2299],[45.2832,42.7925,1756.3899],[45.2199,42.7901,2385.7168],[45.1487,42.8052,1945.1006],[45.1542,42.7878,2537.4631],[45.1591,42.7616,2721.3228],[45.1327,42.7338,2351.9683],[45.1001,42.7091,3267.9697],[45.0889,42.6959,3120.9998],[45.1305,42.7035,2772.4785],[45.1562,42.7016,3072.9421],[45.1672,42.6978,3109.1299],[45.1765,42.6907,2539.1094],[45.1866,42.6786,1525.6798],[45.2069,42.6637,2437.0674],[45.231,42.6392,3062.4075],[45.2623,42.6112,3223.9922]]]]}
,"properties": {"GID_2": "RUS.10.7_1","GID_0": "RUS","country": "Russia","GID_1": "RUS.10_1","province": "Chechnya","NL_NAME_1": "РеспубликаЧечено-Ингушская","county": "Itum-Kalinskiyrayon","VARNAME_2": "NA","NL_NAME_2": "Итум-Калинскийрайон","TYPE_2": "Raion","ENGTYPE_2": "District","CC_2": "R42021","HASC_2": "RU.CN.IT","name": "Itum-Kalinskiyrayon.county","area_km2": 941.0006,"hist_schema_id": "Elevation0-9000","hist_area_km2": {"425": 0.1241,"450": 0.1706,"475": 0.4655,"500": 2.0031,"525": 2.1893,"550": 3.1984,"575": 5.2483,"600": 6.6771,"625": 8.3538,"650": 9.1304,"675": 11.6937,"700": 12.6266,"725": 14.0713,"750": 14.8503,"775": 15.2711,"800": 16.656,"825": 15.8808,"850": 16.0377,"875": 16.3823,"900": 17.0833,"925": 15.8268,"950": 15.3312,"975": 15.2861,"1000": 13.9978,"1025": 13.5635,"1050": 13.706,"1075": 13.3498,"1100": 13.1785,"1125": 13.9908,"1150": 13.5544,"1175": 12.9646,"1200": 12.856,"1225": 14.6006,"1250": 12.9506,"1275": 13.7136,"1300": 13.3095,"1325": 13.8696,"1350": 13.6683,"1375": 14.6643,"1400": 14.8355,"1425": 13.652,"1450": 14.477,"1475": 14.9447,"1500": 13.3268,"1525": 14.1203,"1550": 13.7312,"1575": 14.0274,"1600": 13.6383,"1625": 13.1705,"1650": 13.1401,"1675": 12.4399,"1700": 12.2382,"1725": 11.5841,"1750": 11.0547,"1775": 10.2925,"1800": 10.744,"1825": 10.1682,"1850": 10.1834,"1875": 10.324,"1900": 9.6078,"1925": 10.1686,"1950": 8.8768,"1975": 7.8494,"2000": 7.5377,"2025": 6.9627,"2050": 7.0401,"2075": 6.371,"2100": 6.2152,"2125": 5.5923,"2150": 5.6232,"2175": 5.2646,"2200": 5.6542,"2225": 5.5454,"2250": 5.7164,"2275": 4.7971,"2300": 5.2025,"2325": 5.4049,"2350": 4.9688,"2375": 5.3269,"2400": 4.9689,"2425": 5.3733,"2450": 4.9996,"2475": 4.7043,"2500": 4.8439,"2525": 4.4081,"2550": 4.4547,"2575": 4.1436,"2600": 4.0655,"2625": 4.1123,"2650": 3.5673,"2675": 3.7072,"2700": 3.4117,"2725": 3.91,"2750": 3.287,"2775": 3.2247,"2800": 2.7887,"2825": 3.1004,"2850": 2.7423,"2875": 2.6645,"2900": 2.2593,"2925": 2.3216,"2950": 2.2128,"2975": 2.2752,"3000": 1.7609,"3025": 2.1038,"3050": 1.9324,"3075": 1.5273,"3100": 1.4806,"3125": 1.4651,"3150": 1.2313,"3175": 1.0131,"3200": 1.2158,"3225": 0.8417,"3250": 0.8885,"3275": 0.7482,"3300": 0.5455,"3325": 0.5144,"3350": 0.4833,"3375": 0.4054,"3400": 0.3742,"3425": 0.1092,"3450": 0.1715,"3475": 0.1091,"3500": 0.0624,"3525": 0.0468,"3550": 0.0312,"3575": 0.0312,"3600": 0.0156,"3625": 0.0312}}}