{"type": "Feature","bbox": [52.6336,58.1247,52.6538,58.134],"geometry": {"type": "MultiPolygon","coordinates": [[[[52.6484,58.1247,152.9242],[52.6538,58.1281,150.3486],[52.6523,58.1312,152.9629],[52.646,58.134,154.3791],[52.64,58.1332,151.817],[52.6336,58.1294,150.5384],[52.6358,58.1248,149.2995],[52.6484,58.1247,152.9242]]]]}
,"properties": {"GID_3": "RUS.74.4.1_1","GID_0": "RUS","country": "Russia","GID_1": "RUS.74_1","province": "Udmurt","NL_NAME_1": "УдмуртскаяРеспублика","GID_2": "RUS.74.4_1","county": "Glazov","NL_NAME_2": "Глазов","city": "NA","VARNAME_3": "NA","NL_NAME_3": "NA","TYPE_3": "NA","ENGTYPE_3": "NA","CC_3": "NA","HASC_3": "NA","name": "N_A.city","area_km2": 0.9179892,"hist_schema_id": "Elevation0-9000","hist_area_km2": {"150": 0.9067946,"175": 0.0111946}}}