{"type": "Feature","bbox": [34.3072,54.0197,34.3795,54.0555],"geometry": {"type": "MultiPolygon","coordinates": [[[[34.3795,54.0315,213.9818],[34.376,54.0555,210.1412],[34.3072,54.041,235.4327],[34.3479,54.0197,223.588],[34.3795,54.0315,213.9818]]]]}
,"properties": {"GID_2": "RUS.23.10_1","GID_0": "RUS","country": "Russia","GID_1": "RUS.23_1","province": "Kaluga","NL_NAME_1": "Калужскаяобласть","county": "Kirov","VARNAME_2": "NA","NL_NAME_2": "Киров","TYPE_2": "Gorod","ENGTYPE_2": "City","CC_2": "NA","HASC_2": "RU.KG.KG","name": "Kirov.county","area_km2": 10.396595,"hist_schema_id": "Elevation0-9000","hist_area_km2": {"175": 0.747033,"200": 2.764026,"225": 6.549338,"250": 0.336197}}}