{"type": "Feature","bbox": [48.2037,41.8846,48.3623,42.0995],"geometry": {"type": "MultiPolygon","coordinates": [[[[48.3623,41.9082,3.2649],[48.3419,41.9243,-0.9739],[48.3349,41.9352,3.7272],[48.3253,41.9593,5.1452],[48.3169,41.968,8.008],[48.3104,41.9782,14.1133],[48.3106,41.995,2.9333],[48.3024,42.0027,20.8016],[48.2773,42.0464,188.8374],[48.2663,42.0756,45.7261],[48.2676,42.0829,8.84],[48.2511,42.0885,35.1641],[48.2427,42.0979,31.3385],[48.2382,42.0995,31.3132],[48.2037,42.039,278.0539],[48.2966,41.9584,21.4854],[48.2617,41.8906,86.6253],[48.2969,41.8846,57.2381],[48.3623,41.9082,3.2649]]]]}
,"properties": {"GID_2": "RUS.15.12_1","GID_0": "RUS","country": "Russia","GID_1": "RUS.15_1","province": "Dagestan","NL_NAME_1": "РеспубликаДагестан","county": "Derbent","VARNAME_2": "NA","NL_NAME_2": "Дербент","TYPE_2": "Gorod","ENGTYPE_2": "City","CC_2": "NA","HASC_2": "RU.DA.DG","name": "Derbent.county","area_km2": 103.28839,"hist_schema_id": "Elevation0-9000","hist_area_km2": {"0": 11.29261,"25": 25.83362,"50": 9.44324,"75": 3.577,"100": 3.81429,"125": 3.63899,"150": 4.09589,"175": 3.59118,"200": 4.01582,"225": 3.4175,"250": 4.15772,"275": 4.31528,"300": 4.03191,"325": 3.19697,"350": 2.37808,"375": 2.15752,"400": 2.11024,"425": 1.77957,"450": 1.71658,"475": 1.13385,"500": 1.02359,"525": 0.7244,"550": 0.6929,"575": 0.40946,"600": 0.28347,"625": 0.22048,"650": 0.07875,"675": 0.11024,"700": 0.04725}}}