{"type": "Feature","bbox": [38.5088,53.9546,38.5243,53.965],"geometry": {"type": "MultiPolygon","coordinates": [[[[38.5232,53.9584,190.3175],[38.5243,53.9616,199.2769],[38.5148,53.965,216.1939],[38.5088,53.9604,212.494],[38.5095,53.9574,207.0108],[38.5143,53.9552,204.3317],[38.5197,53.9546,201.9339],[38.5232,53.9584,190.3175]]]]}
,"properties": {"GID_2": "RUS.70.12_1","GID_0": "RUS","country": "Russia","GID_1": "RUS.70_1","province": "Tula","NL_NAME_1": "Тульскаяобласть","county": "Kimovsk","VARNAME_2": "NA","NL_NAME_2": "Кимовск","TYPE_2": "Gorod","ENGTYPE_2": "City","CC_2": "NA","HASC_2": "RU.TL.KG","name": "Kimovsk.county","area_km2": 0.7734136,"hist_schema_id": "Elevation0-9000","hist_area_km2": {"200": 0.5987821,"225": 0.1746315}}}