{"type": "Feature","bbox": [44.1882,46.2847,44.3908,46.4007],"geometry": {"type": "MultiPolygon","coordinates": [[[[44.3908,46.3876,66.871],[44.3354,46.4007,106.9572],[44.1882,46.3886,135.2877],[44.2164,46.2877,166.2776],[44.3365,46.2847,66.5628],[44.3908,46.3876,66.871]]]]}
,"properties": {"GID_2": "RUS.22.2_1","GID_0": "RUS","country": "Russia","GID_1": "RUS.22_1","province": "Kalmyk","NL_NAME_1": "РеспубликаКалмыкия","county": "Elista","VARNAME_2": "NA","NL_NAME_2": "Элиста","TYPE_2": "Gorsovet","ENGTYPE_2": "District","CC_2": "NA","HASC_2": "RU.KL.EL","name": "Elista.county","area_km2": 151.645,"hist_schema_id": "Elevation0-9000","hist_area_km2": {"75": 6.8237,"100": 17.3005,"125": 42.9386,"150": 51.9662,"175": 26.0,"200": 6.616}}}