{"type": "Feature","bbox": [46.2521,42.4627,46.5182,42.6219],"geometry": {"type": "MultiPolygon","coordinates": [[[[46.2521,42.5613,1844.7549],[46.3141,42.5196,2312.2488],[46.3444,42.4805,2409.189],[46.3812,42.4627,2736.811],[46.395,42.4662,2461.4065],[46.4564,42.5197,2789.322],[46.4824,42.5266,2656.1636],[46.5026,42.5223,2502.7004],[46.5176,42.5273,2400.5264],[46.5182,42.5387,2654.3992],[46.5,42.5578,2675.2629],[46.4717,42.5793,2166.7231],[46.4796,42.6053,1506.4583],[46.4576,42.5977,1939.5679],[46.4049,42.6184,1607.3701],[46.3843,42.6219,2016.6061],[46.3159,42.6071,1210.9004],[46.2845,42.5962,1511.5231],[46.2721,42.579,1857.4358],[46.2521,42.5613,1844.7549]]]]}
,"properties": {"GID_2": "RUS.15.3_1","GID_0": "RUS","country": "Russia","GID_1": "RUS.15_1","province": "Dagestan","NL_NAME_1": "РеспубликаДагестан","county": "Akhvakhskiyrayon","VARNAME_2": "NA","NL_NAME_2": "Ахвахскийрайон","TYPE_2": "Raion","ENGTYPE_2": "District","CC_2": "R39000","HASC_2": "RU.DA.AV","name": "Akhvakhskiyrayon.county","area_km2": 218.4646,"hist_schema_id": "Elevation0-9000","hist_area_km2": {"1000": 0.0156,"1025": 0.0624,"1050": 0.078,"1075": 0.1873,"1100": 0.1873,"1125": 0.3902,"1150": 0.359,"1175": 0.5619,"1200": 0.4682,"1225": 0.8897,"1250": 1.0927,"1275": 1.2332,"1300": 1.2801,"1325": 1.6392,"1350": 1.3739,"1375": 1.8734,"1400": 1.6862,"1425": 1.9048,"1450": 2.1077,"1475": 1.78,"1500": 1.9674,"1525": 1.9673,"1550": 2.2485,"1575": 1.983,"1600": 2.1861,"1625": 2.2642,"1650": 2.4049,"1675": 2.6235,"1700": 2.6859,"1725": 2.9046,"1750": 3.0919,"1775": 3.3419,"1800": 3.4668,"1825": 4.1384,"1850": 4.0133,"1875": 4.7163,"1900": 5.0288,"1925": 4.2169,"1950": 4.7009,"1975": 4.9041,"2000": 4.3419,"2025": 4.6543,"2050": 4.8417,"2075": 5.0915,"2100": 5.9349,"2125": 5.8414,"2150": 5.8257,"2175": 5.6852,"2200": 5.5135,"2225": 5.1856,"2250": 5.6855,"2275": 5.6232,"2300": 4.9203,"2325": 5.6546,"2350": 4.6237,"2375": 4.2333,"2400": 4.0616,"2425": 4.1084,"2450": 4.2805,"2475": 3.7339,"2500": 3.2969,"2525": 2.6562,"2550": 3.1558,"2575": 3.0778,"2600": 3.0157,"2625": 2.5938,"2650": 3.0472,"2675": 2.9537,"2700": 2.6566,"2725": 2.1098,"2750": 1.4695,"2775": 1.2663,"2800": 0.8443,"2825": 0.641,"2850": 0.5942,"2875": 0.4222,"2900": 0.2502,"2925": 0.3284,"2950": 0.0626,"2975": 0.1251,"3000": 0.0156,"3025": 0.0156}}}