{"type": "Feature","bbox": [37.5975,55.626,37.6463,55.6508],"geometry": {"type": "MultiPolygon","coordinates": [[[[37.6126,55.6297,187.2361],[37.6243,55.627,174.7663],[37.6393,55.626,166.6011],[37.6391,55.6411,152.529],[37.6463,55.6481,164.383],[37.6303,55.6508,173.0044],[37.6144,55.6506,186.8451],[37.5975,55.6338,162.8539],[37.6011,55.6316,179.9348],[37.6126,55.6297,187.2361]]]]}
,"properties": {"GID_3": "RUS.43.7.6_1","GID_0": "RUS","country": "Russia","GID_1": "RUS.43_1","province": "MoscowCity","NL_NAME_1": "NA","GID_2": "RUS.43.7_1","county": "South-Western","NL_NAME_2": "NA","city": "74","VARNAME_3": "NA","NL_NAME_3": "NA","TYPE_3": "Raion","ENGTYPE_3": "NA","CC_3": "NA","HASC_3": "NA","name": "74.city","area_km2": 5.516663,"hist_schema_id": "Elevation0-9000","hist_area_km2": {"150": 1.340194,"175": 4.104666,"200": 0.071804}}}