{"type": "Feature","bbox": [39.4039,47.0286,39.5125,47.0992],"geometry": {"type": "MultiPolygon","coordinates": [[[[39.5125,47.0992,0.9923],[39.4067,47.085,42.0113],[39.4039,47.0381,1.6601],[39.4799,47.0286,6.1908],[39.5125,47.0992,0.9923]]]]}
,"properties": {"GID_2": "RUS.58.2_1","GID_0": "RUS","country": "Russia","GID_1": "RUS.58_1","province": "Rostov","NL_NAME_1": "Ростовскаяобласть","county": "Azov","VARNAME_2": "NA","NL_NAME_2": "Азо́в","TYPE_2": "Gorod","ENGTYPE_2": "City","CC_2": "NA","HASC_2": "RU.RO.AG","name": "Azov.county","area_km2": 44.59853,"hist_schema_id": "Elevation0-9000","hist_area_km2": {"0": 7.36472,"25": 10.64566,"50": 26.58815}}}