{"type": "Feature","id": 6784.0,"bbox": [32.570567253521233,68.017218328900327,32.716319206646233,68.074835516400327],"geometry": {"type": "Polygon","coordinates": [[[32.656504753521233,68.017218328900327,143.3439],[32.656504753521233,68.017218328900327,143.3439],[32.672862175396233,68.026983953900327,142.5],[32.688975456646233,68.037115789837827,142.5],[32.707041862896233,68.048956610150327,241.0761],[32.716319206646233,68.066839910931577,336.351],[32.692515495708733,68.074835516400327,282.3286],[32.653819206646233,68.067999578900327,247.6948],[32.636241081646233,68.062994696087827,389.3211],[32.604746941021233,68.069464422650327,216.959],[32.570567253521233,68.064459539837827,175.4941],[32.576792839458733,68.051642157025327,196.5299],[32.599131706646233,68.044806219525327,247.0622],[32.615489128521233,68.048407293744077,158.4537],[32.632334831646233,68.046332098431577,145.6732],[32.646739128521233,68.029059149212827,164.1835],[32.656504753521233,68.017218328900327,143.3439]]]}
,"properties": {"name": null,"lge_id": null,"pfafstette": 921.0,"lke_type": "N","altitude": 0,"objectid": 3528,"scalerank": 12,"featurecla": "Lake","note": "_untitled_3528","funkyname": 0,"min_zoom": 7.0,"min_label": 8.0,"area_km2": 18.59876,"hist_schema_id": "Elevation0-9000","hist_area_km2": {"150": 6.76179,"175": 3.55055,"200": 2.32935,"225": 1.91726,"250": 1.53684,"275": 0.92672,"300": 0.72081,"325": 0.48315,"350": 0.18218,"375": 0.11089,"400": 0.07921}}}