{"type": "Feature","id": 1465.0,"bbox": [32.387461784771233,68.936773992962827,32.506114128521233,69.009039617962827],"geometry": {"type": "Polygon","coordinates": [[[32.410288933208733,68.939703680462827,148.108],[32.410288933208733,68.939703680462827,148.108],[32.433482292583733,68.936773992962827,148.2049],[32.453990105083733,68.943609930462827,149.3106],[32.466563347271233,68.949225164837827,148.3987],[32.487315300396233,68.953985907025327,154.6702],[32.506114128521233,68.968268133587827,209.0691],[32.502818230083733,68.980475164837827,266.3699],[32.492686394146233,68.996222235150327,274.0007],[32.466563347271233,69.009039617962827,264.6855],[32.437388542583733,68.993536688275327,209.6243],[32.410655144146233,68.977789617962827,148.7506],[32.387461784771233,68.971808172650327,179.1697],[32.396983269146233,68.962042547650327,175.416],[32.405039909771233,68.950690008587827,151.5698],[32.410288933208733,68.939703680462827,148.108]]]}
,"properties": {"name": null,"lge_id": null,"pfafstette": 3281.0,"lke_type": "N","altitude": 0,"objectid": 1265,"scalerank": 12,"featurecla": "Lake","note": "_untitled_1265","funkyname": 0,"min_zoom": 7.0,"min_label": 8.0,"area_km2": 21.98051,"hist_schema_id": "Elevation0-9000","hist_area_km2": {"150": 11.11405,"175": 2.06954,"200": 1.69631,"225": 1.56644,"250": 1.83983,"275": 2.89608,"300": 0.79825}}}