{"type": "Feature","bbox": [46.1049,42.8417,46.5545,43.1775],"geometry": {"type": "MultiPolygon","coordinates": [[[[46.39,43.1775,272.2979],[46.3733,43.1545,304.1309],[46.3577,43.1462,263.7634],[46.3476,43.1378,277.2557],[46.3479,43.1259,405.0901],[46.34,43.1179,483.0756],[46.2787,43.1122,828.4589],[46.247,43.1117,694.6776],[46.2394,43.1173,625.1997],[46.2386,43.1344,488.0929],[46.2352,43.145,494.3318],[46.2198,43.144,504.4738],[46.2092,43.1221,486.3474],[46.1945,43.1029,428.3422],[46.1816,43.0934,470.8274],[46.1602,43.0836,383.0315],[46.1166,43.0796,590.6249],[46.1049,43.0717,658.6367],[46.1172,43.0523,422.6972],[46.1349,43.0524,454.0158],[46.1487,43.0408,585.4797],[46.1602,43.0101,642.5107],[46.181399999999996,43.0015,675.2037],[46.1907,43.0056,690.6267],[46.2006,43.0176,807.8281],[46.2058,43.0269,756.5745],[46.2152,43.0325,679.1651],[46.2318,43.0263,873.6205],[46.2361,43.0146,936.2579],[46.2427,43.0049,752.3457],[46.2495,43.0013,675.4141],[46.2886,42.9968,779.9977],[46.3083,42.9901,833.583],[46.323,42.9753,879.7829],[46.3276,42.959,776.9907],[46.3241,42.9451,809.019],[46.3391,42.9297,997.7372],[46.3536,42.9224,1394.3751],[46.3759,42.9153,1413.9446],[46.3943,42.8868,1433.0494],[46.3972,42.8712,1601.0469],[46.4045,42.8471,2380.6814],[46.4206,42.8417,2200.4165],[46.4486,42.8434,2178.4663],[46.4702,42.8518,2353.9275],[46.5293,42.8949,1755.7826],[46.5545,42.922,1608.2637],[46.5433,42.9355,2050.0767],[46.517,42.9618,1212.3369],[46.5155,42.9893,849.3843],[46.5276,43.0164,896.1481],[46.5393,43.0311,733.8663],[46.5314,43.0463,801.3889],[46.4857,43.0527,505.1779],[46.4572,43.0733,865.5285],[46.4456,43.111,631.411],[46.4461,43.144,286.3379],[46.468,43.1714,346.9139],[46.4241,43.168,419.3615],[46.3983,43.1563,433.3317],[46.3896,43.168,353.5927],[46.39,43.1775,272.2979]]]]}
,"properties": {"GID_2": "RUS.10.10_1","GID_0": "RUS","country": "Russia","GID_1": "RUS.10_1","province": "Chechnya","NL_NAME_1": "РеспубликаЧечено-Ингушская","county": "Nozhay-Yurtovskiyrayon","VARNAME_2": "NA","NL_NAME_2": "Ножай-Юртовскийрайон","TYPE_2": "Raion","ENGTYPE_2": "District","CC_2": "R42020","HASC_2": "RU.CN.NY","name": "Nozhay-Yurtovskiyrayon.county","area_km2": 617.4734,"hist_schema_id": "Elevation0-9000","hist_area_km2": {"275": 0.495,"300": 2.4289,"325": 3.5281,"350": 5.6644,"375": 7.8316,"400": 10.5101,"425": 13.4983,"450": 15.2026,"475": 18.2853,"500": 18.7514,"525": 21.2001,"550": 21.8834,"575": 22.6597,"600": 22.0568,"625": 22.5546,"650": 22.4328,"675": 22.4355,"700": 20.6244,"725": 19.7284,"750": 19.2651,"775": 18.9561,"800": 19.1587,"825": 19.5781,"850": 18.9908,"875": 17.41,"900": 16.4507,"925": 13.4433,"950": 10.3585,"975": 8.0797,"1000": 5.8318,"1025": 4.4057,"1050": 3.0877,"1075": 2.8241,"1100": 2.4674,"1125": 2.6692,"1150": 2.6072,"1175": 2.6848,"1200": 2.9954,"1225": 2.9179,"1250": 3.1041,"1275": 2.9335,"1300": 3.1197,"1325": 3.508,"1350": 3.3062,"1375": 3.446,"1400": 2.8872,"1425": 3.4772,"1450": 2.8875,"1475": 2.8719,"1500": 2.8411,"1525": 3.4155,"1550": 3.5555,"1575": 3.5555,"1600": 3.6334,"1625": 3.6023,"1650": 3.5403,"1675": 4.1616,"1700": 4.2081,"1725": 4.115,"1750": 3.9755,"1775": 3.4319,"1800": 2.8886,"1825": 2.9196,"1850": 2.3451,"1875": 2.0655,"1900": 1.8793,"1925": 2.1278,"1950": 2.0656,"1975": 1.7706,"2000": 1.9415,"2025": 1.8949,"2050": 1.9726,"2075": 1.9105,"2100": 1.6931,"2125": 1.4912,"2150": 1.8332,"2175": 1.9577,"2200": 2.2531,"2225": 2.393,"2250": 2.4864,"2275": 2.7196,"2300": 1.9736,"2325": 2.1447,"2350": 1.5385,"2375": 1.5851,"2400": 1.352,"2425": 1.3365,"2450": 1.1189,"2475": 0.8081,"2500": 0.6372,"2525": 0.6372,"2550": 0.1709,"2575": 0.0311}}}