{"type": "Feature","bbox": [41.2374,56.2839,41.3211,56.3531],"geometry": {"type": "MultiPolygon","coordinates": [[[[41.3211,56.308,154.8571],[41.3187,56.3411,127.4806],[41.3047,56.3531,125.52],[41.262,56.3475,86.7808],[41.2625,56.3323,86.2506],[41.2374,56.2979,112.0004],[41.2739,56.2839,94.8474],[41.3211,56.308,154.8571]]]]}
,"properties": {"GID_2": "RUS.76.8_1","GID_0": "RUS","country": "Russia","GID_1": "RUS.76_1","province": "Vladimir","NL_NAME_1": "Владимирскаяобласть","county": "Kovrov","VARNAME_2": "NA","NL_NAME_2": "Ковров","TYPE_2": "Gorod","ENGTYPE_2": "City","CC_2": "NA","HASC_2": "RU.VL.KG","name": "Kovrov.county","area_km2": 25.59744,"hist_schema_id": "Elevation0-9000","hist_area_km2": {"75": 1.04622,"100": 11.01776,"125": 11.36955,"150": 2.15215,"175": 0.01176}}}