{"type": "Feature","bbox": [52.0261,55.7339,52.056399999999996,55.7536],"geometry": {"type": "MultiPolygon","coordinates": [[[[52.0513,55.737,56.327],[52.056399999999996,55.7403,54.8655],[52.0555,55.7475,55.3594],[52.0532,55.7512,55.9524],[52.0444,55.7536,60.3683],[52.0264,55.7487,135.7506],[52.0261,55.739,53.0],[52.0328,55.7347,53.0],[52.0391,55.7339,56.9601],[52.0513,55.737,56.327]]]]}
,"properties": {"GID_2": "RUS.68.47_1","GID_0": "RUS","country": "Russia","GID_1": "RUS.68_1","province": "Tatarstan","NL_NAME_1": "РеспубликаТатарстан","county": "Yelabuga","VARNAME_2": "NA","NL_NAME_2": "Елабуга","TYPE_2": "Gorod","ENGTYPE_2": "City","CC_2": "NA","HASC_2": "RU.TT.YG","name": "Yelabuga.county","area_km2": 3.079142,"hist_schema_id": "Elevation0-9000","hist_area_km2": {"50": 2.673404,"75": 0.190933,"100": 0.119334,"125": 0.095471}}}