{"type": "Feature","bbox": [46.4324,55.478,46.4532,55.4923],"geometry": {"type": "MultiPolygon","coordinates": [[[[46.4506,55.4801,94.3492],[46.4532,55.4857,121.2659],[46.4413,55.4923,112.7891],[46.4342,55.4892,100.5326],[46.4324,55.4861,92.7841],[46.4343,55.481,85.8247],[46.4416,55.478,86.1006],[46.4506,55.4801,94.3492]]]]}
,"properties": {"GID_2": "RUS.13.20_1","GID_0": "RUS","country": "Russia","GID_1": "RUS.13_1","province": "Chuvash","NL_NAME_1": "ЧувашскаяРеспублика","county": "Shumerlya","VARNAME_2": "NA","NL_NAME_2": "Шумерля","TYPE_2": "Gorod","ENGTYPE_2": "City","CC_2": "NA","HASC_2": "RU.CV.SG","name": "Shumerlya.county","area_km2": 1.369563,"hist_schema_id": "Elevation0-9000","hist_area_km2": {"75": 0.108135,"100": 1.213373,"125": 0.048055}}}