{"type": "Feature","bbox": [37.5444,55.7716,37.6069,55.801],"geometry": {"type": "MultiPolygon","coordinates": [[[[37.6069,55.7772,163.0069],[37.5963,55.7796,163.8869],[37.581,55.7934,168.897],[37.5675,55.8008,174.7995],[37.5534,55.801,174.76],[37.5444,55.7919,161.9174],[37.5645,55.7863,160.3785],[37.5982,55.7716,165.5453],[37.6069,55.7772,163.0069]]]]}
,"properties": {"GID_3": "RUS.43.5.5_1","GID_0": "RUS","country": "Russia","GID_1": "RUS.43_1","province": "MoscowCity","NL_NAME_1": "NA","GID_2": "RUS.43.5_1","county": "Northern","NL_NAME_2": "NA","city": "168","VARNAME_3": "NA","NL_NAME_3": "NA","TYPE_3": "Raion","ENGTYPE_3": "NA","CC_3": "NA","HASC_3": "NA","name": "168.city","area_km2": 4.613415,"hist_schema_id": "Elevation0-9000","hist_area_km2": {"150": 0.751104,"175": 3.838473,"200": 0.023837}}}