{"type": "Feature","bbox": [46.8481,43.1396,47.0371,43.2847],"geometry": {"type": "MultiPolygon","coordinates": [[[[46.8914,43.2847,7.8784],[46.8481,43.2336,31.9738],[46.8866,43.1859,70.4444],[46.8998,43.1396,262.4576],[46.9355,43.2197,20.899],[47.0371,43.2255,-4.581],[46.9755,43.2701,-1.9953],[46.9025,43.2582,12.8367],[46.8914,43.2847,7.8784]]]]}
,"properties": {"GID_2": "RUS.15.26_1","GID_0": "RUS","country": "Russia","GID_1": "RUS.15_1","province": "Dagestan","NL_NAME_1": "РеспубликаДагестан","county": "Kizilyurt","VARNAME_2": "NA","NL_NAME_2": "Кизилюрт","TYPE_2": "Gorsovet","ENGTYPE_2": "District","CC_2": "NA","HASC_2": "RU.DA.KI","name": "Kizilyurt.county","area_km2": 85.86221,"hist_schema_id": "Elevation0-9000","hist_area_km2": {"0": 33.08153,"25": 33.61286,"50": 10.50888,"75": 2.90633,"100": 2.04092,"125": 1.23707,"150": 0.58766,"175": 0.7424,"200": 0.43307,"225": 0.23201,"250": 0.12374,"275": 0.07734,"300": 0.10827,"325": 0.07734,"350": 0.0928}}}