{"type": "Feature","bbox": [32.8251,53.8758,32.9158,53.9383],"geometry": {"type": "MultiPolygon","coordinates": [[[[32.9012,53.8985,212.6392],[32.9158,53.9263,189.2842],[32.8501,53.9383,203.2358],[32.8251,53.905,229.1941],[32.8353,53.8918,225.6069],[32.8775,53.8758,245.194],[32.9012,53.8985,212.6392]]]]}
,"properties": {"GID_2": "RUS.64.17_1","GID_0": "RUS","country": "Russia","GID_1": "RUS.64_1","province": "Smolensk","NL_NAME_1": "Смоленскаяобласть","county": "Roslavl'","VARNAME_2": "NA","NL_NAME_2": "Рославль","TYPE_2": "Gorod","ENGTYPE_2": "City","CC_2": "NA","HASC_2": "RU.SM.RG","name": "Roslavl'.county","area_km2": 25.37876,"hist_schema_id": "Elevation0-9000","hist_area_km2": {"175": 1.54838,"200": 7.85464,"225": 13.18978,"250": 2.72348,"275": 0.06248}}}