{"type": "Feature","bbox": [47.1747,41.9238,47.5889,42.3736],"geometry": {"type": "MultiPolygon","coordinates": [[[[47.5656,42.2633,1779.3739],[47.5673,42.2813,1093.6597],[47.5813,42.3003,1263.1377],[47.5889,42.3242,1151.83],[47.5865,42.3375,1103.8264],[47.5697,42.3482,1243.8893],[47.5615,42.3623,1303.3068],[47.5525,42.3523,1351.4871],[47.5266,42.3464,1659.8047],[47.5033,42.3456,1670.6866],[47.4599,42.3736,1631.2892],[47.4242,42.3717,1701.2604],[47.3851,42.3575,1470.6992],[47.3375,42.3351,1607.7317],[47.2971,42.3446,1405.8563],[47.2333,42.3638,1517.0909],[47.2063,42.3639,1620.0878],[47.1968,42.3302,1429.5729],[47.1821,42.3045,1590.476],[47.1747,42.2801,1572.0044],[47.1966,42.2448,1843.6869],[47.2262,42.1916,2111.3716],[47.2543,42.1613,2111.5073],[47.2787,42.1735,1934.8885],[47.2909,42.1774,1902.8611],[47.3135,42.1711,1767.6829],[47.329,42.1534,1886.2771],[47.3365,42.1354,1963.2449],[47.3373,42.1223,2082.4441],[47.3606,42.1007,2092.9417],[47.3939,42.0783,1752.9824],[47.4385,42.0378,1917.8951],[47.4469,42.0223,2140.0728],[47.4308,41.9975,2027.2394],[47.418,41.9823,1781.3457],[47.4185,41.9611,2063.2329],[47.43,41.9394,1812.9958],[47.4449,41.9238,2107.0576],[47.4535,41.9344,1967.2715],[47.4699,41.9472,1923.6113],[47.5369,41.995,1929.3182],[47.5353,42.0118,2044.6403],[47.5379,42.0423,1728.5959],[47.5354,42.075,1707.1301],[47.5467,42.0898,1507.9408],[47.5563,42.1124,1594.1545],[47.5525,42.131,1091.5203],[47.536,42.1388,1366.9048],[47.5153,42.1655,1678.5714],[47.5114,42.1816,1674.2286],[47.5268,42.2059,1603.537],[47.5499,42.2335,2027.7686],[47.5656,42.2633,1779.3739]]]]}
,"properties": {"GID_2": "RUS.15.4_1","GID_0": "RUS","country": "Russia","GID_1": "RUS.15_1","province": "Dagestan","NL_NAME_1": "РеспубликаДагестан","county": "Akushinskiyrayon","VARNAME_2": "NA","NL_NAME_2": "Акушинскийрайон","TYPE_2": "Raion","ENGTYPE_2": "District","CC_2": "R39000","HASC_2": "RU.DA.AS","name": "Akushinskiyrayon.county","area_km2": 890.6229,"hist_schema_id": "Elevation0-9000","hist_area_km2": {"1025": 0.1098,"1050": 0.5021,"1075": 1.0979,"1100": 1.663,"1125": 2.1962,"1150": 2.6983,"1175": 3.2948,"1200": 5.9606,"1225": 6.6057,"1250": 7.1236,"1275": 8.7241,"1300": 10.591,"1325": 12.8516,"1350": 14.4696,"1375": 16.7759,"1400": 17.4061,"1425": 17.8944,"1450": 21.2529,"1475": 26.1287,"1500": 29.1571,"1525": 29.6628,"1550": 28.612,"1575": 30.7797,"1600": 31.033,"1625": 30.7828,"1650": 30.1901,"1675": 28.7679,"1700": 30.9998,"1725": 29.2753,"1750": 29.4983,"1775": 29.1893,"1800": 28.2802,"1825": 25.1064,"1850": 26.1766,"1875": 25.5175,"1900": 25.2223,"1925": 23.2247,"1950": 22.9314,"1975": 21.454,"2000": 20.6681,"2025": 20.7628,"2050": 17.6527,"2075": 16.1122,"2100": 13.9925,"2125": 11.6029,"2150": 10.5811,"2175": 8.725,"2200": 7.3419,"2225": 6.4914,"2250": 5.2955,"2275": 4.0376,"2300": 3.4713,"2325": 2.5913,"2350": 2.4345,"2375": 1.9004,"2400": 1.3979,"2425": 1.4762,"2450": 0.6286,"2475": 0.2358,"2500": 0.0157}}}