{"type": "Feature","bbox": [38.3644,57.4675,38.39,57.4862],"geometry": {"type": "MultiPolygon","coordinates": [[[[38.3871,57.4717,142.7705],[38.39,57.4832,131.7234],[38.3826,57.4862,138.7518],[38.3679,57.4832,136.069],[38.3644,57.4701,138.0708],[38.3708,57.4675,139.9735],[38.3871,57.4717,142.7705]]]]}
,"properties": {"GID_2": "RUS.81.19_1","GID_0": "RUS","country": "Russia","GID_1": "RUS.81_1","province": "Yaroslavl'","NL_NAME_1": "Ярославскаяобласть","county": "Uglich","VARNAME_2": "NA","NL_NAME_2": "Углич","TYPE_2": "Gorod","ENGTYPE_2": "City","CC_2": "NA","HASC_2": "RU.YS.UG","name": "Uglich.county","area_km2": 2.279811,"hist_schema_id": "Elevation0-9000","hist_area_km2": {"125": 1.31085,"150": 0.968961}}}