{"type": "Feature","bbox": [37.7917,51.298,37.8156,51.3139],"geometry": {"type": "MultiPolygon","coordinates": [[[[37.8153,51.3044,181.7771],[37.8156,51.3105,196.1512],[37.8116,51.3139,202.6129],[37.7982,51.3111,192.1746],[37.7917,51.3075,178.3317],[37.7928,51.3026,148.5303],[37.8011,51.2985,131.801],[37.8069,51.298,131.6711],[37.8153,51.3044,181.7771]]]]}
,"properties": {"GID_2": "RUS.7.22_1","GID_0": "RUS","country": "Russia","GID_1": "RUS.7_1","province": "Belgorod","NL_NAME_1": "Белгородскаяобласть","county": "StaryyOskol","VARNAME_2": "NA","NL_NAME_2": "СтарыйОскол","TYPE_2": "Gorsovet","ENGTYPE_2": "District","CC_2": "NA","HASC_2": "RU.BL.SO","name": "Staryy_Oskol.county","area_km2": 2.081002,"hist_schema_id": "Elevation0-9000","hist_area_km2": {"125": 0.079541,"150": 0.477213,"175": 0.782035,"200": 0.742213}}}