{"type": "Feature","bbox": [37.6097,55.7425,37.6545,55.7781],"geometry": {"type": "MultiPolygon","coordinates": [[[[37.6531,55.7463,132.1734],[37.6545,55.7577,158.8769],[37.6517,55.7602,160.9874],[37.6504,55.7657,159.9932],[37.635,55.7714,163.1988],[37.632,55.7781,167.2651],[37.6217,55.7779,146.2099],[37.618,55.766,147.8528],[37.6097,55.7612,160.3169],[37.6124,55.7596,155.9367],[37.6172,55.7601,150.4233],[37.646,55.7425,132.0384],[37.6497,55.7432,150.2233],[37.6503,55.7458,135.2814],[37.6531,55.7463,132.1734]]]]}
,"properties": {"GID_3": "RUS.43.1.9_1","GID_0": "RUS","country": "Russia","GID_1": "RUS.43_1","province": "MoscowCity","NL_NAME_1": "NA","GID_2": "RUS.43.1_1","county": "Central","NL_NAME_2": "NA","city": "122","VARNAME_3": "NA","NL_NAME_3": "NA","TYPE_3": "Raion","ENGTYPE_3": "NA","CC_3": "NA","HASC_3": "NA","name": "122.city","area_km2": 5.630682,"hist_schema_id": "Elevation0-9000","hist_area_km2": {"125": 0.775633,"150": 3.077737,"175": 1.777312}}}