{"type": "Feature","bbox": [41.5047,46.4148,41.6197,46.495],"geometry": {"type": "MultiPolygon","coordinates": [[[[41.6197,46.4684,62.0556],[41.5682,46.495,41.3423],[41.5047,46.4382,59.448],[41.5843,46.4148,69.5914],[41.6197,46.4684,62.0556]]]]}
,"properties": {"GID_2": "RUS.58.40_1","GID_0": "RUS","country": "Russia","GID_1": "RUS.58_1","province": "Rostov","NL_NAME_1": "Ростовскаяобласть","county": "Sal'sk","VARNAME_2": "NA","NL_NAME_2": "Сальск","TYPE_2": "Gorod","ENGTYPE_2": "City","CC_2": "NA","HASC_2": "RU.RO.SG","name": "Sal'sk.county","area_km2": 41.36759,"hist_schema_id": "Elevation0-9000","hist_area_km2": {"25": 1.73759,"50": 35.42244,"75": 4.20757}}}