{"type": "Feature","bbox": [33.884,59.426,33.9129,59.4415],"geometry": {"type": "MultiPolygon","coordinates": [[[[33.9121,59.4306,157.9665],[33.9129,59.4364,153.3762],[33.8975,59.4415,145.2884],[33.8868,59.4348,143.0018],[33.884,59.4314,153.5602],[33.8912,59.4264,158.6721],[33.9026,59.426,162.8641],[33.9121,59.4306,157.9665]]]]}
,"properties": {"GID_2": "RUS.38.1_1","GID_0": "RUS","country": "Russia","GID_1": "RUS.38_1","province": "Leningrad","NL_NAME_1": "Ленинградскаяобласть","county": "Boksitogorsk","VARNAME_2": "NA","NL_NAME_2": "Бокситогорск","TYPE_2": "Gorod","ENGTYPE_2": "City","CC_2": "NA","HASC_2": "RU.LN.BG","name": "Boksitogorsk.county","area_km2": 1.886897,"hist_schema_id": "Elevation0-9000","hist_area_km2": {"100": 0.107814,"125": 0.140155,"150": 1.08903,"175": 0.549899}}}