{"type": "Feature","bbox": [56.0221,53.4253,56.0517,53.4475],"geometry": {"type": "MultiPolygon","coordinates": [[[[56.0517,53.4327,174.9956],[56.0486,53.4422,176.1873],[56.0403,53.4475,165.722],[56.0221,53.4438,146.5899],[56.0246,53.4277,135.8688],[56.0413,53.4253,165.8267],[56.0517,53.4327,174.9956]]]]}
,"properties": {"GID_3": "RUS.6.34.1_1","GID_0": "RUS","country": "Russia","GID_1": "RUS.6_1","province": "Bashkortostan","NL_NAME_1": "РеспубликаБашкортостан","GID_2": "RUS.6.34_1","county": "Ishimbay","NL_NAME_2": "Ишимбай","city": "NA","VARNAME_3": "NA","NL_NAME_3": "NA","TYPE_3": "NA","ENGTYPE_3": "NA","CC_3": "NA","HASC_3": "NA","name": "N_A.city","area_km2": 3.599691,"hist_schema_id": "Elevation0-9000","hist_area_km2": {"125": 0.404201,"150": 1.818773,"175": 1.376718}}}