{"type": "Feature","bbox": [45.0299,51.8383,45.053,51.8506],"geometry": {"type": "MultiPolygon","coordinates": [[[[45.0517,51.8411,181.9184],[45.053,51.8482,173.8733],[45.0438,51.8506,157.6606],[45.0299,51.8478,151.315],[45.0327,51.8422,161.8813],[45.0428,51.8383,173.3124],[45.0517,51.8411,181.9184]]]]}
,"properties": {"GID_2": "RUS.63.3_1","GID_0": "RUS","country": "Russia","GID_1": "RUS.63_1","province": "Saratov","NL_NAME_1": "Саратовскаяобласть","county": "Atkarsk","VARNAME_2": "NA","NL_NAME_2": "Аткарск","TYPE_2": "Gorod","ENGTYPE_2": "City","CC_2": "NA","HASC_2": "RU.SR.AG","name": "Atkarsk.county","area_km2": 1.480137,"hist_schema_id": "Elevation0-9000","hist_area_km2": {"150": 0.47153,"175": 1.008607}}}