{"type": "Feature","bbox": [46.4456,43.0481,46.6354,43.254],"geometry": {"type": "MultiPolygon","coordinates": [[[[46.468,43.1714,346.9139],[46.4461,43.144,286.3379],[46.4456,43.111,631.411],[46.4572,43.0733,865.5285],[46.4857,43.0527,505.1779],[46.5157,43.0481,725.1523],[46.56,43.0569,618.1491],[46.5795,43.0634,644.1963],[46.5857,43.0818,639.2503],[46.6001,43.1044,508.602],[46.6063,43.1238,374.3934],[46.6354,43.1232,491.4157],[46.6064,43.1321,361.5521],[46.5928,43.1447,462.6289],[46.5855,43.1575,422.0066],[46.6068,43.203,233.3749],[46.5939,43.2142,205.9051],[46.5618,43.2216,204.3529],[46.5247,43.226,206.8256],[46.5033,43.2321,195.22559999999999],[46.4625,43.254,130.1241],[46.4769,43.2111,269.6404],[46.468,43.1714,346.9139]]]]}
,"properties": {"GID_2": "RUS.15.37_1","GID_0": "RUS","country": "Russia","GID_1": "RUS.15_1","province": "Dagestan","NL_NAME_1": "РеспубликаДагестан","county": "Novolakskiyrayon","VARNAME_2": "NA","NL_NAME_2": "Новолакскийрайон","TYPE_2": "Raion","ENGTYPE_2": "District","CC_2": "R39002","HASC_2": "RU.DA.NV","name": "Novolakskiyrayon.county","area_km2": 212.3678,"hist_schema_id": "Elevation0-9000","hist_area_km2": {"125": 0.0309,"150": 1.3593,"175": 3.6308,"200": 6.5052,"225": 8.5923,"250": 11.4682,"275": 11.5318,"300": 13.9756,"325": 10.8078,"350": 9.9743,"375": 9.528,"400": 9.6691,"425": 10.3513,"450": 10.6469,"475": 9.9199,"500": 10.1995,"525": 9.7053,"550": 10.5889,"575": 9.0101,"600": 9.1039,"625": 8.4231,"650": 7.3393,"675": 6.1938,"700": 4.6451,"725": 3.8247,"750": 2.617,"775": 1.5486,"800": 0.8208,"825": 0.2478,"850": 0.0929,"875": 0.0155}}}