{"type": "Feature","bbox": [35.9714,52.9284,36.1721,53.0443],"geometry": {"type": "MultiPolygon","coordinates": [[[[36.1721,52.9727,228.1261],[36.1316,53.0078,215.1734],[36.1251,53.0443,165.6886],[36.0305,53.0169,201.2674],[35.9714,52.9574,162.7569],[36.0369,52.9284,196.0357],[36.1721,52.9727,228.1261]]]]}
,"properties": {"GID_2": "RUS.52.17_1","GID_0": "RUS","country": "Russia","GID_1": "RUS.52_1","province": "Orel","NL_NAME_1": "Орловскаяобласть","county": "Orel","VARNAME_2": "Oryol","NL_NAME_2": "Орёл","TYPE_2": "Gorod","ENGTYPE_2": "City","CC_2": "NA","HASC_2": "RU.OL.OG","name": "Orel.county","area_km2": 91.80607,"hist_schema_id": "Elevation0-9000","hist_area_km2": {"150": 17.16949,"175": 29.01794,"200": 36.56905,"225": 8.76881,"250": 0.28078}}}