{"type": "Feature","bbox": [47.7402,51.9013,47.9155,52.0068],"geometry": {"type": "MultiPolygon","coordinates": [[[[47.9155,51.9989,35.9071],[47.7997,52.0068,34.3352],[47.7596,51.9877,30.9479],[47.7402,51.9086,18.9802],[47.7748,51.9013,27.0766],[47.9155,51.9989,35.9071]]]]}
,"properties": {"GID_2": "RUS.63.5_1","GID_0": "RUS","country": "Russia","GID_1": "RUS.63_1","province": "Saratov","NL_NAME_1": "Саратовскаяобласть","county": "Balakovo","VARNAME_2": "NA","NL_NAME_2": "Балако́во","TYPE_2": "Gorsovet","ENGTYPE_2": "District","CC_2": "NA","HASC_2": "RU.SR.BG","name": "Balakovo.county","area_km2": 72.55881,"hist_schema_id": "Elevation0-9000","hist_area_km2": {"25": 71.5272,"50": 1.03161}}}