{"type": "Feature","bbox": [49.44459069102129,40.554010224822576,49.463425236913025,40.564886785931549],"geometry": {"type": "Polygon","coordinates": [[[49.462419557520178,40.558131905525613,161.8302],[49.44459069102129,40.564886785931549,276.0888],[49.463425236913025,40.554010224822576,163.0309],[49.462419557520178,40.558131905525613,161.8302]]]}
,"properties": {"featurecla": "Range/mtn","name": "CAUCASUS MTS.","namealt": null,"region": "Europe","subregion": null,"min_label": 2.0,"max_label": 6.0,"scalerank": 1,"area_km2": 0.289946,"hist_schema_id": "Elevation0-9000","hist_area_km2": {"150": 0.1933011,"175": 0.0805379,"225": 0.0161071}}}