{"type": "Feature","bbox": [39.3086,56.2594,39.3917,56.2898],"geometry": {"type": "MultiPolygon","coordinates": [[[[39.3917,56.269,172.0619],[39.365,56.2898,180.5852],[39.321,56.2824,210.7551],[39.3086,56.2667,196.8083],[39.3206,56.2624,226.167],[39.3695,56.2594,178.5852],[39.3917,56.269,172.0619]]]]}
,"properties": {"GID_2": "RUS.76.6_1","GID_0": "RUS","country": "Russia","GID_1": "RUS.76_1","province": "Vladimir","NL_NAME_1": "Владимирскаяобласть","county": "Kol'chugino","VARNAME_2": "NA","NL_NAME_2": "Кольчугино","TYPE_2": "Gorod","ENGTYPE_2": "City","CC_2": "NA","HASC_2": "RU.VL.KL","name": "Kol'chugino.county","area_km2": 11.348416,"hist_schema_id": "Elevation0-9000","hist_area_km2": {"150": 0.070634,"175": 1.730314,"200": 3.13136,"225": 6.416108}}}