{"type": "Feature","id": 127397.0,"bbox": [38.609873894146233,46.175055242962827,38.678477409771233,46.219610907025327],"geometry": {"type": "Polygon","coordinates": [[[38.616221550396233,46.177130438275327,-0.5],[38.616221550396233,46.177130438275327,-0.5],[38.632823112896233,46.175055242962827,-0.5],[38.663340691021233,46.185431219525327,-0.5],[38.678477409771233,46.203863836712827,15.9449],[38.660166862896233,46.219610907025327,22.7186],[38.626231316021233,46.219366766400327,13.6352],[38.609873894146233,46.194403387494077,-0.2227],[38.616221550396233,46.177130438275327,-0.5]]]}
,"properties": {"name": null,"lge_id": null,"pfafstette": 531.0,"lke_type": "N","altitude": -2,"objectid": 77133,"scalerank": 12,"featurecla": "Lake","note": "_untitled_77133","funkyname": 0,"min_zoom": 7.0,"min_label": 8.0,"area_km2": 18.56433,"hist_schema_id": "Elevation0-9000","hist_area_km2": {"0": 17.19989,"25": 1.36444}}}