{"type": "Feature","id": 127744.0,"bbox": [38.868540886333733,45.850958563275327,38.933604362896233,45.907477117962827],"geometry": {"type": "Polygon","coordinates": [[[38.883433464458733,45.859869696087827,0.0],[38.883433464458733,45.859869696087827,0.0],[38.912852409771233,45.850958563275327,0.0],[38.929453972271233,45.870611883587827,2.254],[38.933604362896233,45.894110418744077,3.676],[38.916758659771233,45.907477117962827,2.4312],[38.900645378521233,45.904181219525327,0.0],[38.885996941021233,45.895880438275327,11.2015],[38.868540886333733,45.884527899212827,3.6919],[38.883433464458733,45.859869696087827,0.0]]]}
,"properties": {"name": null,"lge_id": null,"pfafstette": 17.0,"lke_type": "N","altitude": -2,"objectid": 76762,"scalerank": 12,"featurecla": "Lake","note": "_untitled_76762","funkyname": 0,"min_zoom": 7.0,"min_label": 8.0,"area_km2": 20.50196,"hist_schema_id": "Elevation0-9000","hist_area_km2": {"0": 20.3249,"25": 0.17706}}}