{"type": "Feature","id": 78851.0,"bbox": [54.032481316021233,54.494757391400327,54.121592644146233,54.525702215619077],"geometry": {"type": "Polygon","coordinates": [[[54.032481316021233,54.510809637494077,169.3528],[54.032481316021233,54.510809637494077,169.3528],[54.038951042583733,54.494757391400327,165.5],[54.082652214458733,54.495978094525327,165.5],[54.121592644146233,54.506109930462827,168.6935],[54.099864128521233,54.519781805462827,187.6505],[54.054453972271233,54.525702215619077,178.4819],[54.032481316021233,54.510809637494077,169.3528]]]}
,"properties": {"name": null,"lge_id": null,"pfafstette": 2366461.0,"lke_type": null,"altitude": 164,"objectid": 40395,"scalerank": 12,"featurecla": "Lake","note": "_untitled_40395","funkyname": 0,"min_zoom": 7.0,"min_label": 8.0,"area_km2": 13.33113,"hist_schema_id": "Elevation0-9000","hist_area_km2": {"175": 13.23267,"200": 0.09846}}}