{"type": "Feature","id": 78584.0,"bbox": [54.531626823833733,54.300909735150327,54.622569206646233,54.344000555462827],"geometry": {"type": "Polygon","coordinates": [[[54.534312370708733,54.317267157025327,205.5],[54.534312370708733,54.317267157025327,205.5],[54.565196159771233,54.307745672650327,205.5],[54.598765495708733,54.300909735150327,205.5],[54.620127800396233,54.300909735150327,205.5],[54.622569206646233,54.319342352337827,209.6359],[54.595225456646233,54.340460516400327,232.3314],[54.556651237896233,54.344000555462827,215.5385],[54.531626823833733,54.332403875775327,216.3661],[54.534312370708733,54.317267157025327,205.5]]]}
,"properties": {"name": null,"lge_id": null,"pfafstette": 242291.0,"lke_type": null,"altitude": 202,"objectid": 40277,"scalerank": 12,"featurecla": "Lake","note": "_untitled_40277","funkyname": 0,"min_zoom": 7.0,"min_label": 8.0,"area_km2": 19.84685,"hist_schema_id": "Elevation0-9000","hist_area_km2": {"200": 17.65897,"225": 1.76762,"250": 0.42026}}}