{"type": "Feature","bbox": [42.2433,51.9361,42.3115,52.0334],"geometry": {"type": "MultiPolygon","coordinates": [[[[42.3115,52.006,109.0178],[42.285,52.0334,113.9834],[42.2507,52.0145,149.5768],[42.2433,51.9377,152.9552],[42.3089,51.9361,114.8995],[42.3115,52.006,109.0178]]]]}
,"properties": {"GID_2": "RUS.67.27_1","GID_0": "RUS","country": "Russia","GID_1": "RUS.67_1","province": "Tambov","NL_NAME_1": "Тамбовскаяобласть","county": "Uvarovo","VARNAME_2": "NA","NL_NAME_2": "Уварово","TYPE_2": "Gorod","ENGTYPE_2": "City","CC_2": "NA","HASC_2": "RU.TB.UG","name": "Uvarovo.county","area_km2": 40.92834,"hist_schema_id": "Elevation0-9000","hist_area_km2": {"100": 14.94001,"125": 16.53201,"150": 9.45632}}}