{"type": "Feature","bbox": [41.0616,43.2819,41.9559,44.1545],"geometry": {"type": "MultiPolygon","coordinates": [[[[41.4969,43.2819,3395.8918],[41.5412,43.3208,2993.1533],[41.5987,43.38,2721.5918],[41.6321,43.4284,2700.7632],[41.6407,43.4702,2628.6968],[41.655,43.4953,2802.5676],[41.6847,43.5163,2742.4678],[41.6993,43.5175,2561.5728],[41.7268,43.5053,1812.2965],[41.7425,43.5064,1385.6805],[41.762,43.5343,1824.8433],[41.7988,43.5778,1501.4393],[41.8046,43.6149,1964.9457],[41.8224,43.6292,1813.5385],[41.8448,43.6286,1742.6194],[41.8751,43.6185,1143.2833],[41.8849,43.6371,1222.6432],[41.8788,43.7103,1159.828],[41.8839,43.7485,912.0858],[41.8988,43.7964,1016.9131],[41.9241,43.8377,941.3129],[41.9405,43.8686,1059.2374],[41.9559,43.8815,1311.147],[41.9072,43.8593,771.329],[41.8682,43.849,895.1255],[41.8398,43.8512,975.3987],[41.7677,43.8887,1040.5854],[41.7266,43.9033,874.9172],[41.6845,43.9133,846.1766],[41.6839,43.935,887.9623],[41.7086,43.9486,796.3789],[41.793,43.9887,1069.8257],[41.8259,44.0122,1010.5447],[41.8476,44.0455,1055.7188],[41.8463,44.0847,887.8967],[41.8234,44.1161,627.0145],[41.7906,44.1545,700.2639],[41.7751,44.1209,886.2706],[41.7375,44.0755,1064.9219],[41.7241,44.0554,934.7338],[41.698,44.0557,1160.4653],[41.6722,44.0693,975.3173],[41.6338,44.0553,824.2941],[41.6216,44.0147,1031.9069],[41.5874,43.9714,1090.6587],[41.5556,43.9467,944.8154],[41.5063,43.9497,863.9993],[41.4442,43.9623,1459.9526],[41.3663,43.9298,1209.3489],[41.2853,43.8768,1105.9038],[41.3056,43.8234,1231.146],[41.3291,43.7777,1306.6082],[41.32,43.737,1764.9287],[41.3111,43.7143,1547.6302],[41.309,43.7015,1378.9542],[41.3374,43.6879,1704.204],[41.3922,43.7017,1224.3574],[41.4354,43.7012,1732.3917],[41.4394,43.6925,1829.4175],[41.3599,43.6244,1897.2264],[41.3375,43.601,2434.4397],[41.3034,43.5917,2331.9851],[41.2464,43.5984,3040.0249],[41.1952,43.6081,2722.1279],[41.1582,43.6086,2550.6035],[41.1281,43.5985,2848.8477],[41.153,43.5772,2114.7942],[41.1735,43.566,1947.907],[41.1631,43.5488,1702.9585],[41.1263,43.5227,2630.0132],[41.098,43.4787,2800.4426],[41.0616,43.3823,2502.811],[41.0901,43.3773,2272.3914],[41.1014,43.3777,2505.6802],[41.1064,43.3809,2521.5776],[41.114,43.3912,2389.3657],[41.1197,43.395,2593.9414],[41.1392,43.3946,2559.0371],[41.2193,43.3733,2691.9053],[41.2357,43.3671,3247.3218],[41.2529,43.3579,2879.9839],[41.2841,43.3535,2794.689],[41.292,43.3509,2511.6831],[41.3013,43.3447,2667.1689],[41.3119,43.334,2520.5938],[41.3317,43.3341,2524.6917],[41.3315,43.3327,2541.1797],[41.3337,43.3359,2428.8262],[41.3505,43.3453,2814.9038],[41.3615,43.3583,2929.9199],[41.3686,43.3616,2772.1948],[41.3787,43.3585,2368.0303],[41.3929,43.3619,2571.9722],[41.4015,43.3627,2868.8079],[41.4078,43.3614,3079.895],[41.4203,43.3531,3043.5737],[41.4229,43.3095,3110.6487],[41.4255,43.3058,2871.2563],[41.4377,43.3026,2947.9795],[41.4733,43.2988,3350.8357],[41.4787,43.2969,3096.0254],[41.4969,43.2819,3395.8918]]]]}
,"properties": {"GID_2": "RUS.25.11_1","GID_0": "RUS","country": "Russia","GID_1": "RUS.25_1","province": "Karachay-Cherkess","NL_NAME_1": "Карачаево-ЧеркессияРеспублика","county": "Zelenchukskiyrayon","VARNAME_2": "NA","NL_NAME_2": "Зеленчукскийрайон","TYPE_2": "Raion","ENGTYPE_2": "District","CC_2": "R44010","HASC_2": "RU.KC.ZE","name": "Zelenchukskiyrayon.county","area_km2": 3122.02,"hist_schema_id": "Elevation0-9000","hist_area_km2": {"600": 0.305,"625": 2.588,"650": 3.762,"675": 6.079,"700": 7.908,"725": 9.845,"750": 12.271,"775": 12.638,"800": 14.684,"825": 22.886,"850": 35.947,"875": 46.28,"900": 56.986,"925": 74.771,"950": 77.351,"975": 79.713,"1000": 77.371,"1025": 72.687,"1050": 69.734,"1075": 68.748,"1100": 66.006,"1125": 63.543,"1150": 61.371,"1175": 59.514,"1200": 57.254,"1225": 51.215,"1250": 47.378,"1275": 42.714,"1300": 38.879,"1325": 36.219,"1350": 33.346,"1375": 32.032,"1400": 28.545,"1425": 27.725,"1450": 30.274,"1475": 29.262,"1500": 26.718,"1525": 27.056,"1550": 27.29,"1575": 33.897,"1600": 31.232,"1625": 31.402,"1650": 30.366,"1675": 27.834,"1700": 27.619,"1725": 28.496,"1750": 28.038,"1775": 27.302,"1800": 28.028,"1825": 28.814,"1850": 29.632,"1875": 28.157,"1900": 28.328,"1925": 27.07,"1950": 26.532,"1975": 27.798,"2000": 27.197,"2025": 25.722,"2050": 25.878,"2075": 26.003,"2100": 25.453,"2125": 23.932,"2150": 24.811,"2175": 24.996,"2200": 24.321,"2225": 23.524,"2250": 23.263,"2275": 23.143,"2300": 23.974,"2325": 23.393,"2350": 21.948,"2375": 22.566,"2400": 22.059,"2425": 22.339,"2450": 22.414,"2475": 22.109,"2500": 22.833,"2525": 22.818,"2550": 23.388,"2575": 22.604,"2600": 24.773,"2625": 24.482,"2650": 24.529,"2675": 23.822,"2700": 25.255,"2725": 24.623,"2750": 25.346,"2775": 25.334,"2800": 25.227,"2825": 24.349,"2850": 24.214,"2875": 23.752,"2900": 22.076,"2925": 20.692,"2950": 19.399,"2975": 18.384,"3000": 18.062,"3025": 16.215,"3050": 14.569,"3075": 12.214,"3100": 12.23,"3125": 10.875,"3150": 9.489,"3175": 8.411,"3200": 7.041,"3225": 6.116,"3250": 5.084,"3275": 4.483,"3300": 3.913,"3325": 3.128,"3350": 2.681,"3375": 2.588,"3400": 1.972,"3425": 1.464,"3450": 1.294,"3475": 0.894,"3500": 0.601,"3525": 0.801,"3550": 0.431,"3575": 0.324,"3600": 0.293,"3625": 0.247,"3650": 0.108,"3675": 0.092}}}