{"type": "Feature","bbox": [39.7691,44.7467,39.8789,44.8088],"geometry": {"type": "MultiPolygon","coordinates": [[[[39.8675,44.8088,111.4695],[39.7781,44.8007,107.4216],[39.7691,44.757,135.4108],[39.8789,44.7467,131.6805],[39.8675,44.8088,111.4695]]]]}
,"properties": {"GID_2": "RUS.34.7_1","GID_0": "RUS","country": "Russia","GID_1": "RUS.34_1","province": "Krasnodar","NL_NAME_1": "Краснодарскийкрай","county": "Belorechensk","VARNAME_2": "NA","NL_NAME_2": "Белореченск","TYPE_2": "Gorsovet","ENGTYPE_2": "District","CC_2": "NA","HASC_2": "RU.KD.BG","name": "Belorechensk.county","area_km2": 46.2347,"hist_schema_id": "Elevation0-9000","hist_area_km2": {"100": 13.39136,"125": 32.43688,"150": 0.40646}}}