{"type": "Feature","bbox": [45.8433,42.6291,46.3943,43.0717],"geometry": {"type": "MultiPolygon","coordinates": [[[[46.1049,43.0717,658.6367],[46.1025,43.0586,613.6448],[46.088,43.0447,900.7377],[46.0573,43.0307,784.6385],[46.0259,43.02,550.2189],[45.9918,43.0127,674.0793],[45.9533,43.0243,809.5871],[45.922,43.0289,831.9151],[45.8975,43.0239,481.6941],[45.8723,43.0072,599.1442],[45.8561,42.9902,680.2271],[45.8691,42.9779,738.8143],[45.8681,42.9556,773.1644],[45.8617,42.9334,771.8912],[45.8433,42.9018,1507.6278],[45.848,42.885,1576.5919],[45.8611,42.8645,1647.6124],[45.8848,42.845,1426.1069],[45.9252,42.8345,1611.4338],[45.9596,42.8368,2030.8574],[45.9804,42.8423,1797.219],[46.0112,42.8597,1835.24],[46.0251,42.8613,1901.3398],[46.0364,42.8538,1602.063],[46.045,42.8348,2259.0564],[46.0442,42.8158,2139.7913],[46.028,42.7753,2029.1658],[45.9828,42.699,1901.7864],[45.9721,42.6741,2394.147],[45.9751,42.6603,1799.0894],[45.987,42.6387,2429.5735],[46.0422,42.6291,2401.8733],[46.0481,42.6582,2171.2661],[46.0488,42.6744,2023.4908],[46.0719,42.6856,2169.3796],[46.1184,42.6906,1084.6997],[46.181399999999996,42.6905,1111.5201],[46.2182,42.7028,1491.9408],[46.2334,42.7128,1382.0525],[46.2192,42.7326,2030.4426],[46.1962,42.7485,2184.8022],[46.1586,42.7696,2035.6063],[46.146,42.7829,1900.3988],[46.1453,42.8021,2042.2772],[46.1678,42.8121,2283.5278],[46.2061,42.8357,1786.9604],[46.2486,42.8652,2240.5474],[46.3223,42.8656,1577.0543],[46.3762,42.8951,1592.6396],[46.3943,42.8868,1433.0494],[46.3759,42.9153,1413.9446],[46.3536,42.9224,1394.3751],[46.3391,42.9297,997.7372],[46.3241,42.9451,809.019],[46.3276,42.959,776.9907],[46.323,42.9753,879.7829],[46.3083,42.9901,833.583],[46.2886,42.9968,779.9977],[46.2495,43.0013,675.4141],[46.2427,43.0049,752.3457],[46.2361,43.0146,936.2579],[46.2318,43.0263,873.6205],[46.2152,43.0325,679.1651],[46.2058,43.0269,756.5745],[46.2006,43.0176,807.8281],[46.1907,43.0056,690.6267],[46.181399999999996,43.0015,675.2037],[46.1602,43.0101,642.5107],[46.1487,43.0408,585.4797],[46.1349,43.0524,454.0158],[46.1172,43.0523,422.6972],[46.1049,43.0717,658.6367]]]]}
,"properties": {"GID_2": "RUS.10.16_1","GID_0": "RUS","country": "Russia","GID_1": "RUS.10_1","province": "Chechnya","NL_NAME_1": "РеспубликаЧечено-Ингушская","county": "Vedenskiyrayon","VARNAME_2": "NA","NL_NAME_2": "Веденскийрайон","TYPE_2": "Raion","ENGTYPE_2": "District","CC_2": "R42020","HASC_2": "RU.CN.VE","name": "Vedenskiyrayon.county","area_km2": 1020.1037,"hist_schema_id": "Elevation0-9000","hist_area_km2": {"375": 0.2169,"400": 0.5114,"425": 0.7438,"450": 1.6739,"475": 2.2786,"500": 3.8601,"525": 6.5269,"550": 9.4272,"575": 14.3276,"600": 19.0119,"625": 23.5412,"650": 26.4748,"675": 30.912,"700": 30.3863,"725": 31.3025,"750": 27.5652,"775": 26.5585,"800": 23.9842,"825": 19.1142,"850": 15.9038,"875": 13.4845,"900": 10.4127,"925": 9.0169,"950": 8.2882,"975": 7.094,"1000": 7.0641,"1025": 6.9874,"1050": 8.0759,"1075": 8.1385,"1100": 8.8229,"1125": 9.4447,"1150": 10.3604,"1175": 10.7341,"1200": 10.5634,"1225": 11.4336,"1250": 11.8846,"1275": 11.8534,"1300": 11.8073,"1325": 12.7864,"1350": 13.3611,"1375": 12.8649,"1400": 13.2531,"1425": 13.3934,"1450": 12.9594,"1475": 13.3339,"1500": 13.3657,"1525": 13.7244,"1550": 14.0525,"1575": 14.4586,"1600": 14.3827,"1625": 14.3675,"1650": 14.7577,"1675": 13.3436,"1700": 12.9857,"1725": 12.4885,"1750": 12.9546,"1775": 12.4112,"1800": 12.318,"1825": 11.5087,"1850": 12.9713,"1875": 12.2088,"1900": 12.163,"1925": 11.4012,"1950": 12.8163,"1975": 11.775,"2000": 11.4496,"2025": 10.4389,"2050": 10.4555,"2075": 10.8455,"2100": 11.0631,"2125": 10.7057,"2150": 10.6139,"2175": 11.0799,"2200": 10.8324,"2225": 10.0702,"2250": 9.2449,"2275": 8.5905,"2300": 7.7665,"2325": 6.4292,"2350": 4.4998,"2375": 4.6098,"2400": 3.7066,"2425": 3.1618,"2450": 2.7879,"2475": 2.6318,"2500": 2.6475,"2525": 2.1333,"2550": 1.7283,"2575": 1.635,"2600": 1.6348,"2625": 1.3702,"2650": 1.1364,"2675": 1.2456,"2700": 1.0585,"2725": 0.9185,"2750": 0.6226,"2775": 0.4983,"2800": 0.187,"2825": 0.078,"2850": 0.0156,"2875": 0.0156}}}