{"type": "Feature","bbox": [46.0877,43.3329,46.1,43.342],"geometry": {"type": "MultiPolygon","coordinates": [[[[46.096,43.3334,111.6059],[46.1,43.3375,80.6654],[46.0951,43.341,70.0471],[46.0896,43.342,75.6382],[46.0877,43.3374,87.3629],[46.0891,43.3354,102.3782],[46.0912,43.3329,112.0967],[46.096,43.3334,111.6059]]]]}
,"properties": {"GID_2": "RUS.10.5_1","GID_0": "RUS","country": "Russia","GID_1": "RUS.10_1","province": "Chechnya","NL_NAME_1": "РеспубликаЧечено-Ингушская","county": "Gudermes","VARNAME_2": "NA","NL_NAME_2": "Гудермес","TYPE_2": "Gorod","ENGTYPE_2": "City","CC_2": "NA","HASC_2": "RU.CN.GD","name": "Gudermes.county","area_km2": 0.6476769,"hist_schema_id": "Elevation0-9000","hist_area_km2": {"75": 0.3392498,"100": 0.3084271}}}