{"type": "Feature","bbox": [40.2792,48.8659,40.5077,48.952],"geometry": {"type": "MultiPolygon","coordinates": [[[[40.4215,48.952,167.3032],[40.2792,48.9289,104.561],[40.3151,48.8917,135.6303],[40.5077,48.8659,159.8194],[40.4215,48.952,167.3032]]]]}
,"properties": {"GID_2": "RUS.58.24_1","GID_0": "RUS","country": "Russia","GID_1": "RUS.58_1","province": "Rostov","NL_NAME_1": "Ростовскаяобласть","county": "Millerovo","VARNAME_2": "NA","NL_NAME_2": "Миллерово","TYPE_2": "Gorod","ENGTYPE_2": "City","CC_2": "NA","HASC_2": "RU.RO.MG","name": "Millerovo.county","area_km2": 83.13718,"hist_schema_id": "Elevation0-9000","hist_area_km2": {"75": 0.29254,"100": 5.40631,"125": 25.37411,"150": 37.59578,"175": 11.42862,"200": 3.03981}}}