{"type": "Feature","bbox": [47.4846,41.4681,47.994,41.7252],"geometry": {"type": "MultiPolygon","coordinates": [[[[47.4846,41.6501,3272.7639],[47.5363,41.5963,3007.2031],[47.5494,41.5801,2600.248],[47.5537,41.5684,2454.5898],[47.5859,41.5737,2869.1875],[47.5984,41.5772,2573.4905],[47.6251,41.5713,2759.762],[47.693,41.538,2479.9929],[47.7177,41.5288,2440.8037],[47.741,41.5118,1843.5033],[47.8149,41.4796,2075.8896],[47.8454,41.4681,2002.2994],[47.8587,41.4741,2028.5293],[47.9016,41.4788,2134.9204],[47.9143,41.4927,1778.3536],[47.9323,41.5059,1506.0155],[47.9512,41.5046,1294.3762],[47.9754,41.5006,1515.3273],[47.9797,41.5122,1326.8788],[47.994,41.5326,1111.8257],[47.9864,41.5484,963.1866],[47.9892,41.5607,1366.0908],[47.9886,41.5747,1367.1091],[47.9915,41.589,1283.2695],[47.9891,41.6123,1097.3926],[47.982,41.6168,1231.8411],[47.9521,41.6038,1221.2994],[47.9338,41.5934,1311.9023],[47.907,41.5902,1756.6277],[47.8865,41.5987,1884.9465],[47.8734,41.6152,2127.541],[47.8726,41.6281,2104.563],[47.8795,41.6392,1675.3185],[47.8805,41.6555,1642.5315],[47.8677,41.6642,1685.3379],[47.8485,41.6719,1599.5229],[47.8172,41.6741,1927.293],[47.788,41.6786,2021.2595],[47.7831,41.6637,2065.7839],[47.7763,41.6561,2146.2544],[47.7563,41.6533,2577.2832],[47.7256,41.67,2545.9106],[47.6958,41.7131,2424.5667],[47.68,41.7252,2555.5967],[47.6636,41.7228,2617.9341],[47.6687,41.6794,2212.7197],[47.6642,41.6602,2371.7925],[47.6552,41.6458,2155.0261],[47.6393,41.6395,1642.9392],[47.621,41.6549,1856.0299],[47.6064,41.662,1802.5774],[47.5921,41.666,1843.756],[47.579,41.661,1919.5841],[47.5666,41.6475,2161.041],[47.53,41.6396,2936.6287],[47.4846,41.6501,3272.7639]]]]}
,"properties": {"GID_2": "RUS.15.31_1","GID_0": "RUS","country": "Russia","GID_1": "RUS.15_1","province": "Dagestan","NL_NAME_1": "РеспубликаДагестан","county": "Kurakhskiyrayon","VARNAME_2": "NA","NL_NAME_2": "Курахскийрайон","TYPE_2": "Raion","ENGTYPE_2": "District","CC_2": "R39001","HASC_2": "RU.DA.KS","name": "Kurakhskiyrayon.county","area_km2": 558.3255,"hist_schema_id": "Elevation0-9000","hist_area_km2": {"975": 0.6824,"1000": 1.6028,"1025": 1.9678,"1050": 1.9519,"1075": 2.6024,"1100": 3.015,"1125": 3.4115,"1150": 3.7766,"1175": 4.2523,"1200": 4.6331,"1225": 5.1884,"1250": 5.3942,"1275": 6.1083,"1300": 6.1398,"1325": 7.0601,"1350": 6.3618,"1375": 7.1074,"1400": 6.8692,"1425": 6.2663,"1450": 7.329,"1475": 6.6628,"1500": 7.0275,"1525": 6.6466,"1550": 7.8837,"1575": 7.7246,"1600": 8.105,"1625": 9.0244,"1650": 9.3257,"1675": 9.468,"1700": 10.356,"1725": 10.2603,"1750": 10.5935,"1775": 11.0694,"1800": 11.6878,"1825": 12.1953,"1850": 11.6871,"1875": 11.5759,"1900": 11.7345,"1925": 12.0356,"1950": 12.9232,"1975": 12.6693,"2000": 13.2875,"2025": 13.1765,"2050": 13.3353,"2075": 13.019,"2100": 12.6387,"2125": 12.2893,"2150": 11.7666,"2175": 11.9408,"2200": 10.8784,"2225": 11.2113,"2250": 10.4501,"2275": 9.1498,"2300": 7.9605,"2325": 7.2942,"2350": 6.2948,"2375": 4.3283,"2400": 3.805,"2425": 3.6462,"2450": 4.2483,"2475": 5.0874,"2500": 4.7072,"2525": 4.5484,"2550": 4.4371,"2575": 3.8992,"2600": 3.1858,"2625": 3.4395,"2650": 3.17,"2675": 3.2495,"2700": 2.7898,"2725": 3.1387,"2750": 2.6315,"2775": 2.5524,"2800": 2.2512,"2825": 1.9659,"2850": 1.7282,"2875": 1.6014,"2900": 1.9819,"2925": 1.9027,"2950": 1.6806,"2975": 1.2842,"3000": 1.411,"3025": 1.1256,"3050": 1.078,"3075": 1.0938,"3100": 1.0779,"3125": 0.9986,"3150": 0.9035,"3175": 0.8401,"3200": 0.8083,"3225": 0.7924,"3250": 0.5388,"3275": 0.523,"3300": 0.4596,"3325": 0.3645,"3350": 0.3645,"3375": 0.3169,"3400": 0.3486,"3425": 0.412,"3450": 0.2535,"3475": 0.1426,"3500": 0.0792,"3525": 0.0634}}}