{"type": "Feature","bbox": [42.7978,43.9436,42.9443,44.0176],"geometry": {"type": "MultiPolygon","coordinates": [[[[42.9443,44.0176,619.8942],[42.8391,44.0118,684.816],[42.7978,43.9436,1020.9411],[42.8388,43.9506,1025.2705],[42.8871,43.9951,728.6849],[42.9417,43.9905,785.9057],[42.9443,44.0176,619.8942]]]]}
,"properties": {"GID_2": "RUS.65.8_1","GID_0": "RUS","country": "Russia","GID_1": "RUS.65_1","province": "Stavropol'","NL_NAME_1": "Ставропольскийкрай","county": "Essentuki","VARNAME_2": "NA","NL_NAME_2": "NA","TYPE_2": "Gorod","ENGTYPE_2": "City","CC_2": "NA","HASC_2": "RU.ST.ES","name": "Essentuki.county","area_km2": 39.92106,"hist_schema_id": "Elevation0-9000","hist_area_km2": {"625": 0.25921,"650": 1.3266,"675": 3.2328,"700": 5.36799,"725": 4.25504,"750": 3.41642,"775": 2.89806,"800": 2.92877,"825": 2.21206,"850": 2.16646,"875": 2.12088,"900": 2.01419,"925": 2.30427,"950": 1.75501,"975": 0.82418,"1000": 0.94633,"1025": 0.68688,"1050": 0.73269,"1075": 0.47321}}}