{"type": "Feature","bbox": [44.6745,42.6253,45.3108,43.5105],"geometry": {"type": "MultiPolygon","coordinates": [[[[45.0889,42.6959,3120.9998],[45.1001,42.7091,3267.9697],[45.1327,42.7338,2351.9683],[45.1591,42.7616,2721.3228],[45.1542,42.7878,2537.4631],[45.1487,42.8052,1945.1006],[45.1473,42.8263,2436.9797],[45.191,42.867,2140.3037],[45.208,42.8903,1999.3911],[45.2126,42.9099,1532.7814],[45.1965,42.9247,1371.063],[45.1703,42.9389,1468.302],[45.1581,42.9596,1695.9036],[45.1646,42.9766,1239.9539],[45.1676,43.0034,847.0457],[45.182,43.0472,766.9957],[45.2022,43.0786,676.5023],[45.2307,43.1152,559.3148],[45.2573,43.1442,349.7025],[45.3017,43.1877,231.8039],[45.3044,43.2045,226.5293],[45.3019,43.2353,212.2586],[45.3086,43.2747,208.329],[45.3108,43.3086,254.9382],[45.2956,43.3194,297.3101],[45.2773,43.3245,300.3549],[45.2511,43.3206,291.5331],[45.2159,43.3259,295.998],[45.1978,43.3476,420.5175],[45.1956,43.3599,478.2314],[45.1973,43.4094,249.2282],[45.2183,43.4378,285.6982],[45.1966,43.4375,302.6567],[45.1641,43.4409,282.8971],[45.1345,43.4514,316.8524],[45.0953,43.4733,340.9033],[45.0618,43.4948,390.0374],[45.0398,43.5045,404.8759],[45.0081,43.5105,409.8298],[44.9711,43.4759,327.1812],[44.9631,43.4372,286.6927],[44.9505,43.4055,358.6311],[44.9311,43.3809,397.0867],[44.9138,43.3666,484.4987],[44.8937,43.3222,430.2872],[44.8919,43.2654,558.3036],[44.8933,43.2482,616.8042],[44.9265,43.2306,709.4037],[44.9467,43.2345,714.5205],[44.968,43.2357,713.9681],[44.986,43.2292,679.8515],[45.0229,43.2022,463.5638],[45.0192,43.1804,631.2328],[44.9965,43.1499,545.378],[44.9547,43.1005,701.0361],[44.9327,43.0793,1024.0103],[44.9077,43.0587,873.553],[44.9295,43.0446,874.9626],[44.9394,43.0201,1011.2126],[44.9463,42.9943,1130.0846],[44.9418,42.9563,1054.5591],[44.9639,42.936,1307.4376],[44.9749,42.9077,949.1335],[44.9804,42.8854,1729.6228],[44.9464,42.8565,1882.4852],[44.9201,42.8369,1246.7394],[44.914,42.8174,1315.5836],[44.88,42.7954,1381.8564],[44.8516,42.7888,2180.5356],[44.7941,42.7895,1593.3049],[44.751,42.8058,1240.1613],[44.7317,42.819,1449.9227],[44.7246,42.8337,1597.0437],[44.7384,42.8494,2494.9717],[44.7145,42.8562,2580.7432],[44.6886,42.8339,1473.1062],[44.6745,42.7905,2097.9829],[44.6794,42.7528,3233.3008],[44.6771,42.7479,2855.7607],[44.6872,42.746,3231.085],[44.7068,42.7381,3273.0972],[44.7274,42.7206,3203.1189],[44.7465,42.644,3125.5815],[44.753,42.6334,3325.9697],[44.7679,42.6256,3303.0847],[44.7834,42.6253,3059.2349],[44.7982,42.6317,2996.0161],[44.8179,42.6669,3146.532],[44.8321,42.7017,3309.2136],[44.8511,42.7249,2536.5771],[44.8691,42.7416,2946.0872],[44.8783,42.7469,2911.7876],[44.8917,42.7499,2988.6543],[44.9275,42.7527,3062.1689],[44.9711,42.7446,2060.9641],[44.9957,42.7299,2861.6128],[45.0351,42.7012,3343.4004],[45.0455,42.6985,3310.0037],[45.0829,42.6946,3152.366],[45.0889,42.6959,3120.9998]]]]}
,"properties": {"GID_2": "RUS.17.3_1","GID_0": "RUS","country": "Russia","GID_1": "RUS.17_1","province": "Ingush","NL_NAME_1": "Респу́бликаИнгуше́тия","county": "Sunzhenskiyrayon","VARNAME_2": "NA","NL_NAME_2": "Сунженскийрайон","TYPE_2": "Raion","ENGTYPE_2": "District","CC_2": "R42010","HASC_2": "RU.IN.SU","name": "Sunzhenskiyrayon.county","area_km2": 2063.647,"hist_schema_id": "Elevation0-9000","hist_area_km2": {"200": 7.688,"225": 56.063,"250": 77.188,"275": 99.284,"300": 118.189,"325": 101.601,"350": 86.466,"375": 70.349,"400": 59.606,"425": 48.098,"450": 37.215,"475": 33.613,"500": 29.467,"525": 30.112,"550": 31.112,"575": 29.313,"600": 28.411,"625": 28.93,"650": 26.492,"675": 24.023,"700": 25.388,"725": 25.921,"750": 25.322,"775": 24.196,"800": 23.859,"825": 22.219,"850": 21.277,"875": 19.823,"900": 18.941,"925": 18.338,"950": 17.099,"975": 15.317,"1000": 14.404,"1025": 13.614,"1050": 11.74,"1075": 10.27,"1100": 10.492,"1125": 10.213,"1150": 10.495,"1175": 9.954,"1200": 9.971,"1225": 9.785,"1250": 11.03,"1275": 10.516,"1300": 11.046,"1325": 11.963,"1350": 12.367,"1375": 11.685,"1400": 11.11,"1425": 12.028,"1450": 11.159,"1475": 10.941,"1500": 10.927,"1525": 10.927,"1550": 10.601,"1575": 10.664,"1600": 10.726,"1625": 11.549,"1650": 11.488,"1675": 11.41,"1700": 10.044,"1725": 10.495,"1750": 10.029,"1775": 10.262,"1800": 10.294,"1825": 10.108,"1850": 9.736,"1875": 10.109,"1900": 9.86,"1925": 10.281,"1950": 10.156,"1975": 10.25,"2000": 10.328,"2025": 9.736,"2050": 9.13,"2075": 8.913,"2100": 8.618,"2125": 8.665,"2150": 8.572,"2175": 8.65,"2200": 7.685,"2225": 7.406,"2250": 7.063,"2275": 7.219,"2300": 6.691,"2325": 6.613,"2350": 6.224,"2375": 6.256,"2400": 6.241,"2425": 5.93,"2450": 5.727,"2475": 6.039,"2500": 5.51,"2525": 5.759,"2550": 6.163,"2575": 5.604,"2600": 5.775,"2625": 5.308,"2650": 5.588,"2675": 5.496,"2700": 5.215,"2725": 4.935,"2750": 5.543,"2775": 4.966,"2800": 4.655,"2825": 4.858,"2850": 4.656,"2875": 4.454,"2900": 4.812,"2925": 4.314,"2950": 4.127,"2975": 3.878,"3000": 3.676,"3025": 3.801,"3050": 3.193,"3075": 3.333,"3100": 3.583,"3125": 3.24,"3150": 3.162,"3175": 3.209,"3200": 3.194,"3225": 3.676,"3250": 3.069,"3275": 3.599,"3300": 3.536,"3325": 3.521,"3350": 3.49,"3375": 3.054,"3400": 2.929,"3425": 3.334,"3450": 2.945,"3475": 2.695,"3500": 2.415,"3525": 2.711,"3550": 2.197,"3575": 2.026,"3600": 1.698,"3625": 1.854,"3650": 1.963,"3675": 1.371,"3700": 1.371,"3725": 1.106,"3750": 1.2,"3775": 0.951,"3800": 1.06,"3825": 0.779,"3850": 0.826,"3875": 0.67,"3900": 0.577,"3925": 0.53,"3950": 0.343,"3975": 0.343,"4000": 0.187,"4025": 0.296,"4050": 0.265,"4075": 0.14,"4100": 0.249,"4125": 0.187,"4150": 0.296,"4175": 0.234,"4200": 0.249,"4225": 0.187,"4250": 0.031,"4275": 0.078,"4300": 0.047}}}