{"type": "Feature","bbox": [50.0455,53.1217,50.3304,53.2625],"geometry": {"type": "MultiPolygon","coordinates": [[[[50.2907,53.2625,90.5014],[50.1796,53.2356,108.5351],[50.1417,53.2382,27.0],[50.1162,53.2382,35.938],[50.1171,53.2393,41.2582],[50.098,53.2474,29.5762],[50.0455,53.2123,34.6421],[50.0576,53.1982,34.7771],[50.0559,53.1978,34.7771],[50.0625,53.1836,27.0],[50.0625,53.134,37.9404],[50.0543,53.1301,38.0642],[50.1423,53.1217,35.0444],[50.2547,53.143,35.0574],[50.321,53.1934,30.947],[50.3304,53.2354,48.111],[50.2907,53.2625,90.5014]]]]}
,"properties": {"GID_2": "RUS.62.25_1","GID_0": "RUS","country": "Russia","GID_1": "RUS.62_1","province": "Samara","NL_NAME_1": "Самарскаяобласть","county": "Samara","VARNAME_2": "NA","NL_NAME_2": "Самара","TYPE_2": "Gorsovet","ENGTYPE_2": "District","CC_2": "NA","HASC_2": "RU.SA.SA","name": "Samara.county","area_km2": 205.0317,"hist_schema_id": "Elevation0-9000","hist_area_km2": {"25": 92.2652,"50": 49.9947,"75": 24.6069,"100": 15.7434,"125": 13.1789,"150": 9.2426}}}