{"type": "Feature","bbox": [52.2009,56.3922,52.2261,56.4053],"geometry": {"type": "MultiPolygon","coordinates": [[[[52.2218,56.3944,220.183],[52.2261,56.3983,218.8845],[52.2229,56.4025,224.1879],[52.2168,56.4053,220.2425],[52.2064,56.4042,235.7189],[52.2009,56.3978,219.3133],[52.2059,56.3936,220.8864],[52.2132,56.3922,229.7571],[52.2218,56.3944,220.183]]]]}
,"properties": {"GID_2": "RUS.74.15_1","GID_0": "RUS","country": "Russia","GID_1": "RUS.74_1","province": "Udmurt","NL_NAME_1": "УдмуртскаяРеспублика","county": "Mozhga","VARNAME_2": "NA","NL_NAME_2": "Можга","TYPE_2": "Gorod","ENGTYPE_2": "City","CC_2": "NA","HASC_2": "RU.UD.MG","name": "Mozhga.county","area_km2": 1.537086,"hist_schema_id": "Elevation0-9000","hist_area_km2": {"200": 0.011735,"225": 1.443223,"250": 0.082129}}}