{"type": "Feature","bbox": [47.0667,42.7683,47.1364,42.8222],"geometry": {"type": "MultiPolygon","coordinates": [[[[47.1364,42.7906,478.0635],[47.1357,42.8095,443.0305],[47.1093,42.8222,467.3987],[47.0667,42.8013,697.7556],[47.0992,42.7881,548.0978],[47.1079,42.7683,624.2834],[47.1364,42.7906,478.0635]]]]}
,"properties": {"GID_2": "RUS.15.7_1","GID_0": "RUS","country": "Russia","GID_1": "RUS.15_1","province": "Dagestan","NL_NAME_1": "РеспубликаДагестан","county": "Buynaksk","VARNAME_2": "NA","NL_NAME_2": "Буйнакск","TYPE_2": "Gorod","ENGTYPE_2": "City","CC_2": "NA","HASC_2": "RU.DA.BG","name": "Buynaksk.county","area_km2": 16.87936,"hist_schema_id": "Elevation0-9000","hist_area_km2": {"450": 0.98001,"475": 2.22437,"500": 2.05338,"525": 2.42687,"550": 3.23586,"575": 1.83582,"600": 1.50906,"625": 1.08907,"650": 0.63795,"675": 0.51348,"700": 0.29567,"725": 0.07781}}}