{"type": "Feature","bbox": [58.2922,52.5421,58.3237,52.5637],"geometry": {"type": "MultiPolygon","coordinates": [[[[58.3237,52.548,507.5865],[58.3223,52.5615,483.893],[58.311,52.5637,469.1],[58.2922,52.5573,487.6249],[58.2927,52.547,461.5006],[58.3101,52.5421,517.3451],[58.3237,52.548,507.5865]]]]}
,"properties": {"GID_2": "RUS.6.8_1","GID_0": "RUS","country": "Russia","GID_1": "RUS.6_1","province": "Bashkortostan","NL_NAME_1": "РеспубликаБашкортостан","county": "Baymak","VARNAME_2": "NA","NL_NAME_2": "Баймак","TYPE_2": "Gorsovet","ENGTYPE_2": "District","CC_2": "NA","HASC_2": "RU.BK.BM","name": "Baymak.county","area_km2": 3.841673,"hist_schema_id": "Elevation0-9000","hist_area_km2": {"450": 0.103139,"475": 1.198816,"500": 1.044186,"525": 1.379495,"550": 0.116038}}}