{"type": "Feature","bbox": [38.4939,52.5734,38.6416,52.6412],"geometry": {"type": "MultiPolygon","coordinates": [[[[38.6416,52.6174,180.295],[38.6256,52.6412,128.5218],[38.5274,52.6326,167.9052],[38.4939,52.5993,144.5405],[38.5163,52.5734,134.6828],[38.6416,52.6174,180.295]]]]}
,"properties": {"GID_2": "RUS.39.7_1","GID_0": "RUS","country": "Russia","GID_1": "RUS.39_1","province": "Lipetsk","NL_NAME_1": "Липецкаяобласть","county": "Elets","VARNAME_2": "Yelets","NL_NAME_2": "NA","TYPE_2": "Gorod","ENGTYPE_2": "City","CC_2": "NA","HASC_2": "RU.LP.EG","name": "Elets.county","area_km2": 41.35187,"hist_schema_id": "Elevation0-9000","hist_area_km2": {"100": 1.05573,"125": 16.86477,"150": 12.23043,"175": 11.20094}}}