{"type": "Feature","bbox": [41.7859,44.9729,42.1432,45.142],"geometry": {"type": "MultiPolygon","coordinates": [[[[42.1432,45.026,409.5516],[41.9253,45.142,457.2498],[41.7859,45.008,370.32],[41.8264,44.9945,527.0933],[41.9561,45.0228,593.639],[42.017,44.9844,536.3226],[42.114,44.9729,501.2238],[42.1432,45.026,409.5516]]]]}
,"properties": {"GID_2": "RUS.65.31_1","GID_0": "RUS","country": "Russia","GID_1": "RUS.65_1","province": "Stavropol'","NL_NAME_1": "Ставропольскийкрай","county": "Stavropol'","VARNAME_2": "NA","NL_NAME_2": "Ставрополь","TYPE_2": "Gorsovet","ENGTYPE_2": "District","CC_2": "NA","HASC_2": "RU.ST.SP","name": "Stavropol'.county","area_km2": 257.3457,"hist_schema_id": "Elevation0-9000","hist_area_km2": {"325": 1.3183,"350": 4.6444,"375": 10.8907,"400": 14.6957,"425": 16.8684,"450": 22.982,"475": 21.8431,"500": 41.0048,"525": 24.0222,"550": 19.0955,"575": 18.3321,"600": 15.4262,"625": 19.279,"650": 22.6276,"675": 4.3156}}}