{"type": "Feature","bbox": [36.0989,51.6309,36.2499,51.7863],"geometry": {"type": "MultiPolygon","coordinates": [[[[36.2499,51.7033,159.8686],[36.2353,51.7863,167.3618],[36.1033,51.7819,243.4264],[36.0989,51.6397,167.8448],[36.1857,51.6309,188.4854],[36.2499,51.7033,159.8686]]]]}
,"properties": {"GID_2": "RUS.37.14_1","GID_0": "RUS","country": "Russia","GID_1": "RUS.37_1","province": "Kursk","NL_NAME_1": "Курскаяобласть","county": "Kursk","VARNAME_2": "NA","NL_NAME_2": "Курск","TYPE_2": "Gorod","ENGTYPE_2": "City","CC_2": "NA","HASC_2": "RU.KS.KG","name": "Kursk.county","area_km2": 149.5626,"hist_schema_id": "Elevation0-9000","hist_area_km2": {"150": 35.6726,"175": 61.5229,"200": 16.5973,"225": 22.0421,"250": 13.7277}}}