{"type": "Feature","id": 18883.0,"bbox": [38.724986198833733,64.258185125775327,38.817759636333733,64.304938055462827],"geometry": {"type": "Polygon","coordinates": [[[38.735606316021233,64.262396551556577,120.0],[38.735606316021233,64.262396551556577,120.0],[38.778819206646233,64.258185125775327,131.4435],[38.817759636333733,64.278143621869077,157.6777],[38.788096550396233,64.304938055462827,144.6466],[38.738291862896233,64.299261785931577,131.1169],[38.724986198833733,64.276678778119077,120.0],[38.735606316021233,64.262396551556577,120.0]]]}
,"properties": {"name": null,"lge_id": null,"pfafstette": 93.0,"lke_type": "N","altitude": 0,"objectid": 11293,"scalerank": 12,"featurecla": "Lake","note": "_untitled_11293","funkyname": 0,"min_zoom": 7.0,"min_label": 8.0,"area_km2": 15.95422,"hist_schema_id": "Elevation0-9000","hist_area_km2": {"125": 13.6268,"150": 2.31822,"175": 0.0092}}}