{"type": "Feature","id": 20977.0,"bbox": [42.015391472271233,63.093634344525327,42.112803581646233,63.175116278119077],"geometry": {"type": "Polygon","coordinates": [[[42.064707878521233,63.098761297650327,14.4553],[42.064707878521233,63.098761297650327,14.4553],[42.098033073833733,63.093634344525327,24.664],[42.112803581646233,63.106451727337827,40.7042],[42.099864128521233,63.121893621869077,32.0852],[42.082041862896233,63.133490301556577,39.6239],[42.063487175396233,63.146246649212827,33.4856],[42.061167839458733,63.158209539837827,37.3057],[42.047495964458733,63.175116278119077,48.0012],[42.018321159771233,63.166815496869077,26.3947],[42.015391472271233,63.149908758587827,37.6955],[42.036387566021233,63.125189520306577,11.9798],[42.064707878521233,63.098761297650327,14.4553]]]}
,"properties": {"name": null,"lge_id": null,"pfafstette": 3757.0,"lke_type": "N","altitude": 0,"objectid": 11905,"scalerank": 12,"featurecla": "Lake","note": "_untitled_11905","funkyname": 0,"min_zoom": 7.0,"min_label": 8.0,"area_km2": 20.63037,"hist_schema_id": "Elevation0-9000","hist_area_km2": {"0": 7.74039,"25": 10.78164,"50": 2.10834}}}