{"type": "Feature","bbox": [45.3997,50.0795,45.4375,50.1049],"geometry": {"type": "MultiPolygon","coordinates": [[[[45.4373,50.0863,12.0],[45.4375,50.101,46.8613],[45.4263,50.1049,94.6094],[45.3997,50.0953,21.6831],[45.4067,50.0802,29.3177],[45.4288,50.0795,12.0],[45.4373,50.0863,12.0]]]]}
,"properties": {"GID_2": "RUS.77.12_1","GID_0": "RUS","country": "Russia","GID_1": "RUS.77_1","province": "Volgograd","NL_NAME_1": "Волгоградскаяобласть","county": "Kamyshin","VARNAME_2": "NA","NL_NAME_2": "Камышин","TYPE_2": "Gorod","ENGTYPE_2": "City","CC_2": "NA","HASC_2": "RU.VG.KG","name": "Kamyshin.county","area_km2": 5.740298,"hist_schema_id": "Elevation0-9000","hist_area_km2": {"0": 2.176624,"25": 1.591575,"50": 1.101699,"75": 0.57121,"100": 0.29919}}}