{"type": "Feature","bbox": [46.7392,41.386,47.5557,41.9418],"geometry": {"type": "MultiPolygon","coordinates": [[[[47.1766,41.4872,3290.9927],[47.1841,41.4825,3171.9871],[47.1902,41.4756,3151.3921],[47.1953,41.4573,2402.4141],[47.1998,41.4519,2506.8889],[47.2275,41.4423,2410.6443],[47.2277,41.437,2487.7517],[47.216,41.4221,2500.5981],[47.2141,41.4117,2354.1997],[47.2157,41.404,2527.9604],[47.2238,41.3982,2875.0371],[47.2415,41.3998,2895.5283],[47.2478,41.3984,2993.0962],[47.2515,41.3939,2744.9441],[47.2531,41.386,2564.4468],[47.2531,41.3915,2676.7827],[47.2631,41.4008,3008.417],[47.2758,41.4045,2696.0562],[47.2825,41.4003,2776.3542],[47.2964,41.4074,3220.5266],[47.3004,41.3982,3464.0874],[47.3246,41.4112,2737.4832],[47.3761,41.4512,2906.1714],[47.4116,41.4698,3035.6082],[47.4281,41.4674,3324.4561],[47.4204,41.4554,3252.0444],[47.4176,41.4449,3598.8096],[47.4336,41.4459,3482.0662],[47.4689,41.453,3198.562],[47.5029,41.4641,2176.5122],[47.51,41.4757,1790.1516],[47.5143,41.5052,1231.3761],[47.5286,41.5162,1332.1763],[47.5514,41.5303,2067.2441],[47.5557,41.5414,2368.4199],[47.5422,41.5548,2208.0044],[47.5432,41.5617,2446.45],[47.5537,41.5684,2454.5898],[47.5494,41.5801,2600.248],[47.5363,41.5963,3007.2031],[47.4846,41.6501,3272.7639],[47.4454,41.6847,2654.9314],[47.4232,41.74,3666.6855],[47.4139,41.7586,3466.1912],[47.3942,41.7789,3428.3179],[47.368,41.8129,3267.1726],[47.364,41.7952,3526.9456],[47.3112,41.7854,2949.1404],[47.2677,41.7931,3611.9331],[47.2387,41.8007,2847.7979],[47.2206,41.8106,3072.7104],[47.2114,41.8263,2754.0681],[47.198,41.8387,2998.2297],[47.1738,41.8413,3332.9023],[47.1517,41.8389,2609.3638],[47.1197,41.8484,3223.6677],[47.0936,41.8735,3427.0962],[47.0602,41.8791,3067.0049],[46.9938,41.9104,3344.2012],[46.9669,41.9418,3350.7036],[46.9425,41.9243,3178.7524],[46.9092,41.8895,3105.6118],[46.8893,41.8924,3272.197],[46.8695,41.9139,3135.209],[46.8486,41.9305,3752.7729],[46.822,41.9338,3553.676],[46.7958,41.9218,2987.8274],[46.7821,41.9126,2999.6758],[46.7571,41.8871,2697.0815],[46.7392,41.8613,3167.46],[46.7487,41.8631,3278.8552],[46.7546,41.8601,3356.311],[46.7612,41.853,3294.1729],[46.7641,41.8442,3137.4009],[46.7642,41.8359,2997.2136],[46.7736,41.8157,2998.1953],[46.7739,41.8008,3242.946],[46.7812,41.7854,2861.3579],[46.8072,41.7671,2972.6526],[46.8311,41.7479,3098.1267],[46.8371,41.7417,2588.3228],[46.8397,41.7345,2305.1785],[46.8459,41.7313,2579.9434],[46.8552,41.728,3097.584],[46.8647,41.7279,3044.4731],[46.8958,41.7316,3350.1094],[46.903,41.73,3227.9177],[46.9103,41.7242,2991.0806],[46.9168,41.7155,2789.801],[46.9199,41.703,2654.8599],[46.9188,41.6854,2912.2168],[46.9405,41.6571,2531.0391],[46.9595,41.6395,2219.0942],[46.9856,41.6371,2778.9519],[46.9936,41.6343,2832.3672],[47.0019,41.6251,2545.7371],[47.0038,41.6181,2888.6216],[47.001,41.6127,2910.7397],[46.9934,41.6084,2641.3047],[46.9878,41.6015,2805.1973],[46.9877,41.5956,2797.9163],[46.9888,41.5896,2585.085],[47.0098,41.556,2431.1787],[47.0331,41.5586,2590.2468],[47.0524,41.5544,2586.1802],[47.0589,41.556,2699.1594],[47.0634,41.56,2647.2056],[47.0659,41.5704,3024.0186],[47.0708,41.5746,2868.1753],[47.1009,41.5872,3117.8079],[47.1098,41.5869,3096.5818],[47.1168,41.5827,3076.4873],[47.1205,41.5784,2997.8535],[47.1202,41.5658,2774.7612],[47.1219,41.5587,2859.8967],[47.1291,41.5479,2730.6709],[47.1652,41.5233,2795.7502],[47.1635,41.5165,2816.2407],[47.1655,41.5066,3053.3638],[47.1633,41.4959,3262.8054],[47.1667,41.4923,3303.8228],[47.1766,41.4872,3290.9927]]]]}
,"properties": {"GID_2": "RUS.15.38_1","GID_0": "RUS","country": "Russia","GID_1": "RUS.15_1","province": "Dagestan","NL_NAME_1": "РеспубликаДагестан","county": "Rutul'skiyrayon","VARNAME_2": "NA","NL_NAME_2": "Рутульскийрайон","TYPE_2": "Raion","ENGTYPE_2": "District","CC_2": "R39002","HASC_2": "RU.DA.RU","name": "Rutul'skiyrayon.county","area_km2": 1997.667,"hist_schema_id": "Elevation0-9000","hist_area_km2": {"1200": 0.175,"1225": 0.984,"1250": 1.683,"1275": 2.302,"1300": 2.143,"1325": 2.92,"1350": 2.888,"1375": 3.666,"1400": 3.903,"1425": 3.76,"1450": 3.76,"1475": 4.22,"1500": 4.901,"1525": 5.25,"1550": 6.233,"1575": 6.581,"1600": 7.263,"1625": 7.247,"1650": 7.119,"1675": 8.974,"1700": 9.338,"1725": 9.846,"1750": 9.923,"1775": 10.51,"1800": 11.429,"1825": 11.635,"1850": 12.284,"1875": 13.345,"1900": 13.963,"1925": 14.121,"1950": 14.691,"1975": 16.622,"2000": 17.001,"2025": 17.538,"2050": 19.202,"2075": 18.996,"2100": 21.133,"2125": 21.369,"2150": 22.745,"2175": 23.316,"2200": 24.916,"2225": 25.39,"2250": 24.977,"2275": 27.449,"2300": 27.938,"2325": 28.159,"2350": 29.298,"2375": 31.547,"2400": 30.66,"2425": 32.146,"2450": 33.207,"2475": 33.621,"2500": 34.269,"2525": 35.583,"2550": 35.409,"2575": 35.106,"2600": 37.879,"2625": 38.211,"2650": 38.113,"2675": 39.478,"2700": 37.307,"2725": 39.368,"2750": 38.891,"2775": 39.92,"2800": 38.982,"2825": 38.478,"2850": 38.144,"2875": 36.466,"2900": 38.806,"2925": 37.682,"2950": 36.24,"2975": 35.634,"3000": 34.73,"3025": 34.286,"3050": 34.478,"3075": 33.272,"3100": 32.179,"3125": 28.822,"3150": 27.907,"3175": 26.322,"3200": 24.057,"3225": 22.586,"3250": 21.428,"3275": 20.56,"3300": 18.945,"3325": 16.001,"3350": 16.095,"3375": 14.162,"3400": 12.9,"3425": 11.047,"3450": 10.348,"3475": 8.511,"3500": 8.479,"3525": 6.867,"3550": 6.868,"3575": 5.728,"3600": 4.921,"3625": 4.415,"3650": 3.624,"3675": 3.561,"3700": 2.278,"3725": 1.946,"3750": 1.614,"3775": 1.471,"3800": 0.917,"3825": 0.633,"3850": 0.49,"3875": 0.348,"3900": 0.237,"3925": 0.111,"3950": 0.063,"3975": 0.126,"4000": 0.063,"4025": 0.016}}}