{"type": "Feature","bbox": [34.3124,56.2192,34.342,56.234],"geometry": {"type": "MultiPolygon","coordinates": [[[[34.3347,56.22,199.2409],[34.342,56.2259,197.1675],[34.3417,56.2295,192.79],[34.3281,56.2337,186.3809],[34.3205,56.234,177.2252],[34.3139,56.2286,189.3008],[34.3124,56.2249,192.4287],[34.3228,56.2192,198.9605],[34.3347,56.22,199.2409]]]]}
,"properties": {"GID_2": "RUS.72.30_1","GID_0": "RUS","country": "Russia","GID_1": "RUS.72_1","province": "Tver'","NL_NAME_1": "Тверскаяобласть","county": "Rzhev","VARNAME_2": "NA","NL_NAME_2": "Ржев","TYPE_2": "Gorod","ENGTYPE_2": "City","CC_2": "NA","HASC_2": "RU.TV.RG","name": "Rzhev.county","area_km2": 2.168722,"hist_schema_id": "Elevation0-9000","hist_area_km2": {"175": 0.200344,"200": 1.968378}}}