{"type": "Feature","bbox": [50.0431,58.4953,50.0759,58.5148],"geometry": {"type": "MultiPolygon","coordinates": [[[[50.0759,58.4997,157.9131],[50.073,58.511,154.3415],[50.0625,58.5148,148.5207],[50.0496,58.5135,146.0341],[50.0431,58.5066,145.8838],[50.0437,58.502,143.7141],[50.0569,58.4956,152.3963],[50.0687,58.4953,157.2439],[50.0759,58.4997,157.9131]]]]}
,"properties": {"GID_2": "RUS.31.10_1","GID_0": "RUS","country": "Russia","GID_1": "RUS.31_1","province": "Kirov","NL_NAME_1": "Кировскаяобласть","county": "Kirovo-Chepetsk","VARNAME_2": "NA","NL_NAME_2": "Кирово-Чепецк","TYPE_2": "Gorod","ENGTYPE_2": "City","CC_2": "NA","HASC_2": "RU.KV.KI","name": "Kirovo-Chepetsk.county","area_km2": 3.123592,"hist_schema_id": "Elevation0-9000","hist_area_km2": {"125": 0.011076,"150": 3.023898,"175": 0.088618}}}