{"type": "Feature","bbox": [37.544,52.3764,37.6376,52.4306],"geometry": {"type": "MultiPolygon","coordinates": [[[[37.6281,52.3968,145.8632],[37.6376,52.4213,179.3752],[37.5738,52.4306,189.2349],[37.544,52.4065,144.1043],[37.5671,52.4013,140.2407],[37.5941,52.3764,193.5534],[37.6281,52.3968,145.8632]]]]}
,"properties": {"GID_2": "RUS.52.11_1","GID_0": "RUS","country": "Russia","GID_1": "RUS.52_1","province": "Orel","NL_NAME_1": "Орловскаяобласть","county": "Livny","VARNAME_2": "NA","NL_NAME_2": "Ливны","TYPE_2": "Gorod","ENGTYPE_2": "City","CC_2": "NA","HASC_2": "RU.OL.LG","name": "Livny.county","area_km2": 21.05694,"hist_schema_id": "Elevation0-9000","hist_area_km2": {"125": 3.23345,"150": 10.48954,"175": 5.25061,"200": 2.08334}}}