{"type": "Feature","bbox": [36.7859,65.1896,36.8411,65.2104],"geometry": {"type": "MultiPolygon","coordinates": [[[[36.8125,65.1917,0.0],[36.8193,65.1974,0.0],[36.8266,65.1984,0.0],[36.8255,65.2016,0.0],[36.8391,65.2068,0.0],[36.8411,65.2099,0.0],[36.8187,65.2104,0.0],[36.8099,65.2047,0.0],[36.8,65.2042,0.0],[36.7953,65.2005,0.0],[36.788,65.1995,0.0],[36.7859,65.1974,0.0],[36.7917,65.1917,0.0],[36.8042,65.1917,0.0],[36.8083,65.1896,0.0],[36.8125,65.1917,0.0]]]]}
,"properties": {"GID_2": "RUS.26.18_1","GID_0": "RUS","country": "Russia","GID_1": "RUS.26_1","province": "Karelia","NL_NAME_1": "РеспубликаКарелия","county": "Primorskiy","VARNAME_2": "NA","NL_NAME_2": "NA","TYPE_2": "Raion","ENGTYPE_2": "District","CC_2": "NA","HASC_2": "RU.AR.PR","name": "Primorskiy.county","area_km2": 2.801316,"hist_schema_id": "Elevation0-9000","hist_area_km2": {"0": 2.801316}}}