{"type": "Feature","bbox": [43.0431,44.1778,43.2292,44.2422],"geometry": {"type": "MultiPolygon","coordinates": [[[[43.2134,44.1884,443.9077],[43.2292,44.2263,286.8131],[43.0431,44.2422,307.4994],[43.0465,44.2092,438.6222],[43.1675,44.1778,325.9334],[43.2134,44.1884,443.9077]]]]}
,"properties": {"GID_2": "RUS.65.20_1","GID_0": "RUS","country": "Russia","GID_1": "RUS.65_1","province": "Stavropol'","NL_NAME_1": "Ставропольскийкрай","county": "Mineral'nyeVody","VARNAME_2": "NA","NL_NAME_2": "МинеральныеВоды","TYPE_2": "Gorsovet","ENGTYPE_2": "District","CC_2": "NA","HASC_2": "RU.ST.MG","name": "Mineral'nye_Vody.county","area_km2": 68.52301,"hist_schema_id": "Elevation0-9000","hist_area_km2": {"275": 6.50332,"300": 32.0033,"325": 16.67145,"350": 7.70569,"375": 2.99431,"400": 1.5504,"425": 0.72967,"450": 0.36486}}}