{"type": "Feature","bbox": [45.7244,42.2498,46.3703,42.6291],"geometry": {"type": "MultiPolygon","coordinates": [[[[45.7435,42.3034,2955.7742],[45.7705,42.3097,2569.7029],[45.7915,42.2932,2245.4695],[45.8116,42.2817,2538.2656],[45.8234,42.2726,2020.3784],[45.8411,42.2665,2662.1365],[45.8504,42.272,2707.7783],[45.8624,42.2882,2328.2642],[45.8719,42.3047,2511.4622],[45.8907,42.3195,2630.6738],[45.909,42.3279,2358.1145],[45.919,42.3399,1705.8074],[45.9209,42.3559,1490.9908],[45.9292,42.3743,1836.9646],[45.9437,42.3742,2506.8604],[45.945,42.3593,2267.1599],[45.973,42.3072,1745.4314],[46.001,42.2942,3061.7205],[46.0111,42.277,2232.8972],[46.0327,42.2568,2317.3899],[46.0481,42.2498,2009.505],[46.0636,42.2529,2524.842],[46.0941,42.2684,2662.1323],[46.1343,42.2845,2956.8513],[46.1596,42.2871,3517.2351],[46.1809,42.2926,3278.5244],[46.2094,42.2925,3086.4941],[46.2476,42.3025,2407.9146],[46.2891,42.3166,2553.1155],[46.3139,42.3344,2743.8528],[46.3098,42.3578,3135.3469],[46.3154,42.3838,2158.7466],[46.3425,42.4005,2536.0286],[46.3638,42.4201,2498.5049],[46.3703,42.4414,2932.3782],[46.3596,42.4623,3099.0356],[46.3141,42.5196,2312.2488],[46.2521,42.5613,1844.7549],[46.2057,42.5687,1445.9814],[46.1854,42.5803,1495.3018],[46.1555,42.577,1139.1324],[46.1328,42.5769,1399.5981],[46.1107,42.5876,1441.3154],[46.09,42.6003,1326.224],[46.0703,42.6031,1722.4214],[46.0422,42.6291,2401.8733],[46.0355,42.5991,2044.9221],[46.0191,42.5775,2296.6953],[45.9903,42.5685,2829.4128],[45.9773,42.5707,2883.0396],[45.9603,42.5854,2615.1152],[45.9514,42.5897,2350.3721],[45.9415,42.5865,2395.729],[45.924,42.5522,3105.3782],[45.9037,42.5183,2487.386],[45.8736,42.5008,2456.3684],[45.8131,42.4706,2630.6621],[45.7905,42.4632,3235.804],[45.7733,42.462,3612.0205],[45.7751,42.4562,3489.9966],[45.7729,42.4363,3157.3926],[45.7662,42.4267,2951.0969],[45.7313,42.3858,1660.5442],[45.7263,42.3722,1583.4822],[45.731,42.3531,2248.7134],[45.7306,42.3442,2433.5964],[45.7244,42.331,2896.5762],[45.7435,42.3164,2813.5642],[45.7451,42.3053,2934.4607],[45.7435,42.3034,2955.7742]]]]}
,"properties": {"GID_2": "RUS.15.45_1","GID_0": "RUS","country": "Russia","GID_1": "RUS.15_1","province": "Dagestan","NL_NAME_1": "РеспубликаДагестан","county": "Tsumadinskiyrayon","VARNAME_2": "NA","NL_NAME_2": "Цумадинскийрайон","TYPE_2": "Raion","ENGTYPE_2": "District","CC_2": "R39003","HASC_2": "RU.DA.TM","name": "Tsumadinskiyrayon.county","area_km2": 1345.326,"hist_schema_id": "Elevation0-9000","hist_area_km2": {"850": 0.141,"875": 0.5,"900": 0.703,"925": 1.281,"950": 1.578,"975": 2.016,"1000": 2.125,"1025": 2.235,"1050": 2.328,"1075": 2.329,"1100": 2.907,"1125": 2.86,"1150": 3.611,"1175": 3.47,"1200": 4.143,"1225": 4.55,"1250": 4.535,"1275": 5.192,"1300": 5.254,"1325": 5.974,"1350": 6.615,"1375": 6.927,"1400": 6.928,"1425": 7.726,"1450": 7.82,"1475": 8.586,"1500": 8.384,"1525": 8.979,"1550": 9.791,"1575": 10.214,"1600": 10.729,"1625": 10.511,"1650": 10.621,"1675": 11.293,"1700": 11.543,"1725": 12.497,"1750": 12.763,"1775": 12.638,"1800": 13.515,"1825": 13.796,"1850": 12.952,"1875": 13.28,"1900": 15.455,"1925": 14.955,"1950": 15.126,"1975": 15.424,"2000": 16.176,"2025": 16.331,"2050": 15.942,"2075": 15.613,"2100": 17.195,"2125": 17.007,"2150": 16.147,"2175": 17.961,"2200": 18.072,"2225": 17.822,"2250": 18.182,"2275": 18.651,"2300": 18.605,"2325": 19.357,"2350": 18.872,"2375": 18.592,"2400": 19.577,"2425": 19.64,"2450": 20.298,"2475": 19.281,"2500": 20.127,"2525": 19.814,"2550": 19.722,"2575": 18.97,"2600": 19.191,"2625": 19.379,"2650": 18.441,"2675": 18.831,"2700": 18.363,"2725": 19.301,"2750": 18.442,"2775": 19.115,"2800": 18.536,"2825": 19.351,"2850": 18.74,"2875": 18.757,"2900": 17.584,"2925": 17.395,"2950": 16.268,"2975": 18.335,"3000": 16.645,"3025": 16.332,"3050": 15.58,"3075": 15.878,"3100": 14.83,"3125": 16.16,"3150": 14.486,"3175": 14.721,"3200": 12.81,"3225": 12.186,"3250": 11.795,"3275": 11.012,"3300": 9.525,"3325": 9.322,"3350": 8.555,"3375": 7.819,"3400": 6.722,"3425": 6.221,"3450": 5.61,"3475": 4.936,"3500": 4.2,"3525": 3.871,"3550": 3.37,"3575": 2.978,"3600": 2.539,"3625": 2.179,"3650": 1.411,"3675": 1.63,"3700": 1.301,"3725": 1.223,"3750": 0.909,"3775": 1.034,"3800": 0.831,"3825": 0.909,"3850": 0.815,"3875": 0.893,"3900": 0.737,"3925": 0.611,"3950": 0.643,"3975": 0.392,"4000": 0.345,"4025": 0.314,"4050": 0.219,"4075": 0.031,"4100": 0.016}}}