{"type": "Feature","bbox": [40.7253,48.1026,40.7913,48.1744],"geometry": {"type": "MultiPolygon","coordinates": [[[[40.7563,48.1744,67.2526],[40.7253,48.1528,54.9701],[40.7268,48.1184,114.0319],[40.7913,48.1026,53.1624],[40.7563,48.1744,67.2526]]]]}
,"properties": {"GID_2": "RUS.58.6_1","GID_0": "RUS","country": "Russia","GID_1": "RUS.58_1","province": "Rostov","NL_NAME_1": "Ростовскаяобласть","county": "BelayaKalitva","VARNAME_2": "NA","NL_NAME_2": "БелаяКалитва","TYPE_2": "Gorsovet","ENGTYPE_2": "District","CC_2": "NA","HASC_2": "RU.RO.BG","name": "Belaya_Kalitva.county","area_km2": 21.40865,"hist_schema_id": "Elevation0-9000","hist_area_km2": {"25": 12.29527,"50": 7.64175,"75": 1.17441,"100": 0.29721}}}