{"type": "Feature","id": 101565.0,"bbox": [35.007090691021233,55.870428778119077,35.099864128521233,55.912359930462827],"geometry": {"type": "Polygon","coordinates": [[[35.007090691021233,55.889471746869077,213.5],[35.007090691021233,55.889471746869077,213.5],[35.021006706646233,55.876105047650327,213.5],[35.046641472271233,55.873053289837827,213.5],[35.071543816021233,55.870428778119077,213.5],[35.095713737896233,55.890997625775327,213.5],[35.099864128521233,55.912359930462827,224.9067],[35.049815300396233,55.910528875775327,241.6124],[35.007090691021233,55.889471746869077,213.5]]]}
,"properties": {"name": null,"lge_id": null,"pfafstette": 68675.0,"lke_type": "N","altitude": 209,"objectid": 55120,"scalerank": 12,"featurecla": "Lake","note": "_untitled_55120","funkyname": 0,"min_zoom": 7.0,"min_label": 8.0,"area_km2": 18.20248,"hist_schema_id": "Elevation0-9000","hist_area_km2": {"225": 17.5013,"250": 0.70118}}}