{"type": "Feature","bbox": [45.4534,43.2323,45.748,43.4611],"geometry": {"type": "MultiPolygon","coordinates": [[[[45.5658,43.4611,197.2685],[45.5631,43.4142,238.5356],[45.4534,43.3995,181.4502],[45.4538,43.3873,234.4457],[45.5118,43.3909,163.8524],[45.5769,43.278,200.6611],[45.6424,43.2323,180.6545],[45.7136,43.2721,236.2393],[45.748,43.3872,153.8931],[45.5658,43.4611,197.2685]]]]}
,"properties": {"GID_2": "RUS.10.4_1","GID_0": "RUS","country": "Russia","GID_1": "RUS.10_1","province": "Chechnya","NL_NAME_1": "РеспубликаЧечено-Ингушская","county": "Groznyy","VARNAME_2": "Grozny","NL_NAME_2": "Грозный","TYPE_2": "Gorod","ENGTYPE_2": "City","CC_2": "NA","HASC_2": "RU.CN.GG","name": "Groznyy.county","area_km2": 292.4628,"hist_schema_id": "Elevation0-9000","hist_area_km2": {"100": 0.6476,"125": 59.9115,"150": 62.7445,"175": 62.9272,"200": 37.9857,"225": 28.1647,"250": 17.3543,"275": 10.6488,"300": 5.7015,"325": 3.2203,"350": 1.2783,"375": 1.2933,"400": 0.5851}}}