{"type": "Feature","bbox": [32.9365,67.7181,34.0174,68.3427],"geometry": {"type": "MultiPolygon","coordinates": [[[[33.7082,67.8287,474.1285],[33.8041,67.858,739.1444],[33.9188,67.8904,344.4762],[34.008,67.9217,211.7383],[33.9851,67.9687,245.3395],[33.9958,68.0013,278.9242],[33.9989,68.0361,320.8821],[34.0124,68.0769,260.245],[34.0174,68.1067,239.839],[33.8927,68.1358,225.4514],[33.7573,68.1858,291.7283],[33.6857,68.2253,216.3067],[33.6114,68.2699,180.3916],[33.4701,68.33,179.0843],[33.3056,68.3427,158.5998],[33.1507,68.3284,140.5],[32.9837,68.3202,192.4707],[33.0066,68.3054,204.4714],[33.0298,68.2853,165.0535],[32.9679,68.2162,232.8208],[32.9498,68.185,195.061],[32.9445,68.1549,249.9563],[32.9365,68.1302,249.0509],[32.9634,68.1185,281.8136],[33.1759,68.0595,225.897],[33.1884,68.047,191.2017],[33.1734,68.0244,223.1142],[33.1528,67.9854,186.7538],[33.143,67.939,134.1639],[33.1846,67.963,128.1706],[33.2231,67.979,126.0],[33.2439,67.9775,130.9647],[33.2596,67.9731,126.0],[33.2953,67.9942,130.7627],[33.3111,68.0165,126.0],[33.3003,68.0375,126.0],[33.3264,68.0659,126.0],[33.3572,68.0839,183.0535],[33.3779,68.0824,245.9275],[33.4089,68.0869,208.992],[33.3776,68.0556,156.7826],[33.3755,68.0338,149.3638],[33.3655,68.0143,148.3486],[33.3834,67.9912,146.3415],[33.3942,67.9702,159.6741],[33.3628,67.9524,149.166],[33.3198,67.9201,134.1964],[33.289,67.8888,140.4116],[33.2555,67.8627,126.0],[33.2302,67.8476,126.0],[33.2027,67.8243,144.5334],[33.2167,67.7582,224.1149],[33.2279,67.7373,330.1816],[33.2177,67.7181,229.715],[33.3461,67.7259,629.838],[33.4154,67.7458,725.538],[33.5349,67.7687,491.6732],[33.657,67.8128,602.4011],[33.7082,67.8287,474.1285]]]]}
,"properties": {"GID_2": "RUS.45.10_1","GID_0": "RUS","country": "Russia","GID_1": "RUS.45_1","province": "Murmansk","NL_NAME_1": "Мурманскаяобласть","county": "Olenegorskgorsovet","VARNAME_2": "NA","NL_NAME_2": "Оленегорск(горсовет)","TYPE_2": "Gorsovet","ENGTYPE_2": "District","CC_2": "R05001","HASC_2": "RU.MM.OL","name": "Olenegorskgorsovet.county","area_km2": 1824.205,"hist_schema_id": "Elevation0-9000","hist_area_km2": {"-75": 0.26,"-50": 0.118,"-25": 0.118,"0": 0.142,"25": 0.142,"50": 0.213,"75": 0.26,"100": 0.213,"125": 31.876,"150": 315.495,"175": 301.771,"200": 293.373,"225": 253.978,"250": 192.492,"275": 107.436,"300": 61.446,"325": 38.249,"350": 24.294,"375": 17.959,"400": 11.573,"425": 11.372,"450": 11.088,"475": 11.019,"500": 10.39,"525": 10.407,"550": 10.199,"575": 9.975,"600": 9.569,"625": 9.241,"650": 9.009,"675": 8.128,"700": 8.137,"725": 6.841,"750": 6.272,"775": 6.233,"800": 5.441,"825": 4.848,"850": 4.216,"875": 3.591,"900": 3.006,"925": 2.533,"950": 2.124,"975": 1.876,"1000": 1.772,"1025": 1.667,"1050": 1.218,"1075": 0.938,"1100": 0.513,"1125": 0.505,"1150": 0.377,"1175": 0.257,"1200": 0.032}}}