{"type": "Feature","bbox": [46.3098,42.2016,46.8078,42.5273],"geometry": {"type": "MultiPolygon","coordinates": [[[[46.3444,42.4805,2409.189],[46.3596,42.4623,3099.0356],[46.3703,42.4414,2932.3782],[46.3638,42.4201,2498.5049],[46.3425,42.4005,2536.0286],[46.3154,42.3838,2158.7466],[46.3098,42.3578,3135.3469],[46.328,42.3261,3123.313],[46.3439,42.3194,2514.5547],[46.3639,42.3272,2976.4983],[46.3814,42.3365,2885.9255],[46.3979,42.339,2771.4426],[46.4174,42.3346,2345.7393],[46.4406,42.3221,1209.3043],[46.4567,42.3096,2053.0251],[46.454,42.2966,2268.0435],[46.4426,42.2762,3378.823],[46.4597,42.2658,3171.0579],[46.4738,42.265,3200.9082],[46.4945,42.2679,3407.7415],[46.5083,42.2654,2762.8613],[46.5272,42.25,3048.7798],[46.5412,42.2322,3250.4438],[46.5475,42.2143,3042.0701],[46.5566,42.2016,3482.2144],[46.5772,42.2025,3163.4075],[46.6055,42.2139,2675.8076],[46.632,42.2314,2576.5181],[46.6432,42.2549,2706.8938],[46.6352,42.277,2870.4492],[46.6412,42.2874,2642.1978],[46.6631,42.2928,2474.6475],[46.6832,42.2899,2480.8074],[46.7093,42.2978,2650.4656],[46.7318,42.3179,2151.4836],[46.798,42.3645,2095.6399],[46.7787,42.3795,2075.7466],[46.7566,42.4018,2045.0007],[46.7501,42.4145,1710.6289],[46.7745,42.4266,2105.8369],[46.8078,42.4384,1443.261],[46.797,42.4467,1808.6925],[46.7724,42.4743,1076.8337],[46.7676,42.4619,1560.9838],[46.7248,42.46,1192.5715],[46.6889,42.4605,1015.0337],[46.6609,42.4654,1187.188],[46.6479,42.4987,1150.2264],[46.6331,42.5097,1229.7056],[46.5176,42.5273,2400.5264],[46.5026,42.5223,2502.7004],[46.4824,42.5266,2656.1636],[46.4564,42.5197,2789.322],[46.395,42.4662,2461.4065],[46.3812,42.4627,2736.811],[46.3444,42.4805,2409.189]]]]}
,"properties": {"GID_2": "RUS.15.40_1","GID_0": "RUS","country": "Russia","GID_1": "RUS.15_1","province": "Dagestan","NL_NAME_1": "РеспубликаДагестан","county": "Shamil'skiyrayon","VARNAME_2": "Sovetskiy","NL_NAME_2": "Шамильскийрайон","TYPE_2": "Raion","ENGTYPE_2": "District","CC_2": "R39002","HASC_2": "RU.DA.SH","name": "Shamil'skiyrayon.county","area_km2": 842.079,"hist_schema_id": "Elevation0-9000","hist_area_km2": {"825": 0.5161,"850": 1.1729,"875": 1.2512,"900": 1.8144,"925": 2.0337,"950": 2.7223,"975": 2.8319,"1000": 3.0979,"1025": 3.5048,"1050": 3.9273,"1075": 4.3656,"1100": 5.242,"1125": 5.2266,"1150": 5.6956,"1175": 6.3064,"1200": 6.2589,"1225": 7.12,"1250": 7.4175,"1275": 6.9634,"1300": 8.2153,"1325": 8.3877,"1350": 8.5755,"1375": 8.8729,"1400": 9.4366,"1425": 9.5933,"1450": 9.2654,"1475": 9.3901,"1500": 9.7504,"1525": 10.3294,"1550": 10.6113,"1575": 10.4084,"1600": 10.7998,"1625": 9.8143,"1650": 10.6915,"1675": 10.973,"1700": 10.6444,"1725": 11.2397,"1750": 10.3478,"1775": 11.1777,"1800": 11.3342,"1825": 10.9274,"1850": 11.3036,"1875": 11.6169,"1900": 10.5685,"1925": 11.8215,"1950": 11.4136,"1975": 11.7432,"2000": 12.4944,"2025": 12.2916,"2050": 12.7771,"2075": 13.153,"2100": 13.1532,"2125": 13.2472,"2150": 13.8743,"2175": 13.6082,"2200": 13.7344,"2225": 13.7504,"2250": 13.1556,"2275": 13.0467,"2300": 13.1416,"2325": 13.815,"2350": 13.2366,"2375": 14.0015,"2400": 12.4518,"2425": 13.4718,"2450": 12.3451,"2475": 12.6594,"2500": 11.8921,"2525": 11.3917,"2550": 11.502,"2575": 10.8294,"2600": 10.6256,"2625": 10.0778,"2650": 10.4056,"2675": 10.5957,"2700": 9.4675,"2725": 9.6088,"2750": 8.1822,"2775": 8.0568,"2800": 7.6974,"2825": 6.6938,"2850": 6.2088,"2875": 6.0683,"2900": 5.8801,"2925": 5.4258,"2950": 5.5203,"2975": 5.1597,"3000": 4.5793,"3025": 4.2032,"3050": 3.7797,"3075": 3.4504,"3100": 3.2626,"3125": 2.7605,"3150": 2.3843,"3175": 2.463,"3200": 2.0239,"3225": 1.8194,"3250": 1.4434,"3275": 1.1139,"3300": 0.8158,"3325": 1.1451,"3350": 0.8788,"3375": 1.02,"3400": 0.6746,"3425": 0.6592,"3450": 0.5021,"3475": 0.4551,"3500": 0.2982,"3525": 0.361,"3550": 0.1726,"3575": 0.1883,"3600": 0.1569,"3625": 0.0314,"3650": 0.0157}}}