{"type": "Feature","bbox": [41.8578,54.3223,41.9065,54.3585],"geometry": {"type": "MultiPolygon","coordinates": [[[[41.9065,54.3452,123.6931],[41.8853,54.3585,124.4403],[41.8707,54.3563,115.8358],[41.8578,54.341,121.6973],[41.8606,54.3273,105.0988],[41.8841,54.3223,103.4544],[41.9065,54.3452,123.6931]]]]}
,"properties": {"GID_2": "RUS.59.20_1","GID_0": "RUS","country": "Russia","GID_1": "RUS.59_1","province": "Ryazan'","NL_NAME_1": "Рязанскаяобласть","county": "Sasovo","VARNAME_2": "NA","NL_NAME_2": "Сасово","TYPE_2": "Gorod","ENGTYPE_2": "City","CC_2": "NA","HASC_2": "RU.RZ.SV","name": "Sasovo.county","area_km2": 8.182411,"hist_schema_id": "Elevation0-9000","hist_area_km2": {"100": 2.645457,"125": 5.536954}}}