{"type": "Feature","bbox": [36.5913,55.0534,36.6595,55.0918],"geometry": {"type": "MultiPolygon","coordinates": [[[[36.6595,55.0821,178.791],[36.6595,55.0918,170.6525],[36.6036,55.0848,184.0452],[36.5913,55.0606,132.6137],[36.6149,55.0534,134.1734],[36.6595,55.0821,178.791]]]]}
,"properties": {"GID_2": "RUS.23.20_1","GID_0": "RUS","country": "Russia","GID_1": "RUS.23_1","province": "Kaluga","NL_NAME_1": "Калужскаяобласть","county": "Obninsk","VARNAME_2": "NA","NL_NAME_2": "Обнинск","TYPE_2": "Gorod","ENGTYPE_2": "City","CC_2": "NA","HASC_2": "RU.KG.OB","name": "Obninsk.county","area_km2": 10.366346,"hist_schema_id": "Elevation0-9000","hist_area_km2": {"125": 0.352073,"150": 3.19306,"175": 4.770184,"200": 2.051029}}}