{"type": "Feature","bbox": [41.9729,55.5317,42.0854,55.5972],"geometry": {"type": "MultiPolygon","coordinates": [[[[42.0845,55.5332,102.3722],[42.044,55.5972,114.8669],[41.9812,55.5915,114.0513],[41.9729,55.5728,105.1732],[42.0854,55.5317,110.9658],[42.0845,55.5332,102.3722]]]]}
,"properties": {"GID_2": "RUS.76.11_1","GID_0": "RUS","country": "Russia","GID_1": "RUS.76_1","province": "Vladimir","NL_NAME_1": "Владимирскаяобласть","county": "Murom","VARNAME_2": "NA","NL_NAME_2": "Муром","TYPE_2": "Gorsovet","ENGTYPE_2": "District","CC_2": "NA","HASC_2": "RU.VL.MG","name": "Murom.county","area_km2": 23.7473,"hist_schema_id": "Elevation0-9000","hist_area_km2": {"100": 1.85785,"125": 21.87747,"150": 0.01198}}}