{"type": "Feature","bbox": [39.8201,47.5966,40.0752,47.7636],"geometry": {"type": "MultiPolygon","coordinates": [[[[39.9335,47.7636,159.9883],[39.8201,47.7184,153.7277],[39.8396,47.7038,137.8605],[39.9065,47.6729,45.2108],[39.915,47.6145,73.728],[40.0752,47.5966,29.4149],[40.0746,47.6185,58.0088],[40.0432,47.6243,29.9258],[39.9977,47.675,116.5929],[40.0678,47.6894,113.3716],[40.063,47.7003,102.6295],[40.0004,47.6973,107.511],[39.9335,47.7636,159.9883]]]]}
,"properties": {"GID_2": "RUS.58.31_1","GID_0": "RUS","country": "Russia","GID_1": "RUS.58_1","province": "Rostov","NL_NAME_1": "Ростовскаяобласть","county": "Novoshakhtinsk","VARNAME_2": "NA","NL_NAME_2": "Новошахтинск","TYPE_2": "Gorsovet","ENGTYPE_2": "District","CC_2": "NA","HASC_2": "RU.RO.NS","name": "Novoshakhtinsk.county","area_km2": 159.9729,"hist_schema_id": "Elevation0-9000","hist_area_km2": {"25": 5.2312,"50": 8.4253,"75": 23.4718,"100": 59.1817,"125": 48.6306,"150": 14.8041,"175": 0.2282}}}