{"type": "Feature","bbox": [43.0918,55.9122,43.1029,55.9192],"geometry": {"type": "MultiPolygon","coordinates": [[[[43.1029,55.9159,150.9744],[43.1027,55.9179,157.6936],[43.0989,55.9188,152.5762],[43.0943,55.9192,138.441],[43.0918,55.9176,115.9384],[43.095,55.9131,126.6689],[43.0988,55.9122,146.2598],[43.1029,55.9159,150.9744]]]]}
,"properties": {"GID_2": "RUS.47.31_1","GID_0": "RUS","country": "Russia","GID_1": "RUS.47_1","province": "Nizhegorod","NL_NAME_1": "Нижегородскаяобласть","county": "Pavlovo","VARNAME_2": "NA","NL_NAME_2": "Павлово","TYPE_2": "Gorod","ENGTYPE_2": "City","CC_2": "NA","HASC_2": "RU.NZ.PG","name": "Pavlovo.county","area_km2": 0.344574,"hist_schema_id": "Elevation0-9000","hist_area_km2": {"100": 0.0237626,"125": 0.2138763,"150": 0.1069351}}}