{"type": "Feature","bbox": [47.7176,41.9318,47.9686,42.2463],"geometry": {"type": "MultiPolygon","coordinates": [[[[47.8179,41.9368,1084.3788],[47.8476,41.9463,1152.8265],[47.8805,41.9496,1143.0771],[47.9076,41.9577,778.9571],[47.9216,41.9819,802.2992],[47.9432,42.0331,467.5867],[47.9395,42.0645,327.4039],[47.951,42.0925,350.8552],[47.9686,42.1225,198.9687],[47.938,42.2088,169.1793],[47.9161,42.2463,154.6665],[47.8863,42.2385,272.6396],[47.8327,42.2318,391.6814],[47.7947,42.2301,549.3333],[47.7701,42.2338,447.0586],[47.747,42.2318,831.2772],[47.7456,42.209,641.7106],[47.7347,42.18,965.6917],[47.7178,42.1692,978.7395],[47.7364,42.149,1303.5294],[47.7871,42.1131,923.922],[47.7904,42.0929,891.9702],[47.7865,42.0761,698.4371],[47.7458,42.0677,1016.1074],[47.7333,42.0615,1124.9381],[47.7293,42.0272,1320.5635],[47.7398,42.0064,1309.2067],[47.7194,41.9912,1511.6582],[47.7176,41.9656,1890.865],[47.7425,41.9515,1706.7606],[47.771,41.9403,1563.8732],[47.802,41.9318,1333.3701],[47.8179,41.9368,1084.3788]]]]}
,"properties": {"GID_2": "RUS.15.21_1","GID_0": "RUS","country": "Russia","GID_1": "RUS.15_1","province": "Dagestan","NL_NAME_1": "РеспубликаДагестан","county": "Kaytagskiyrayon","VARNAME_2": "NA","NL_NAME_2": "Кайтагскийрайон","TYPE_2": "Raion","ENGTYPE_2": "District","CC_2": "R39001","HASC_2": "RU.DA.KA","name": "Kaytagskiyrayon.county","area_km2": 524.0932,"hist_schema_id": "Elevation0-9000","hist_area_km2": {"125": 0.2513,"150": 2.4655,"175": 4.6485,"200": 8.3883,"225": 11.7838,"250": 13.544,"275": 14.7557,"300": 17.6175,"325": 19.7717,"350": 22.0367,"375": 20.262,"400": 20.9869,"425": 17.1691,"450": 14.5129,"475": 13.4438,"500": 11.8081,"525": 10.9439,"550": 9.0105,"575": 8.6508,"600": 6.9376,"625": 6.7653,"650": 6.6863,"675": 6.7968,"700": 6.6874,"725": 8.2295,"750": 7.5221,"775": 7.9323,"800": 7.8222,"825": 9.8372,"850": 7.6181,"875": 9.0516,"900": 9.6344,"925": 9.871,"950": 10.8789,"975": 10.9744,"1000": 10.1094,"1025": 10.8035,"1050": 10.3942,"1075": 10.0798,"1100": 9.7818,"1125": 9.1042,"1150": 8.4115,"1175": 8.0967,"1200": 7.5304,"1225": 6.3964,"1250": 6.4281,"1275": 4.8528,"1300": 4.9318,"1325": 4.6009,"1350": 4.2389,"1375": 4.0973,"1400": 3.2465,"1425": 3.1205,"1450": 2.5689,"1475": 2.1594,"1500": 2.2067,"1525": 1.8757,"1550": 1.4187,"1575": 1.1035,"1600": 0.9931,"1625": 1.3399,"1650": 1.1192,"1675": 1.0404,"1700": 0.7093,"1725": 1.0877,"1750": 0.7566,"1775": 0.7724,"1800": 0.599,"1825": 0.599,"1850": 0.4414,"1875": 0.3311,"1900": 0.3626,"1925": 0.2995,"1950": 0.268,"1975": 0.1261,"2000": 0.1419,"2025": 0.0788,"2050": 0.1104,"2075": 0.0473,"2100": 0.0158}}}