{"type": "Feature","id": 124541.0,"bbox": [42.411631706646233,46.260992742962827,42.521006706646233,46.310003973431577],"geometry": {"type": "Polygon","coordinates": [[[42.421397331646233,46.271673895306577,13.5],[42.421397331646233,46.271673895306577,13.5],[42.463877800396233,46.260992742962827,13.5],[42.500010612896233,46.272223211712827,16.2672],[42.521006706646233,46.291266180462827,13.5],[42.518077019146233,46.304693914837827,16.0316],[42.475840691021233,46.310003973431577,15.5705],[42.433116081646233,46.303778387494077,18.3711],[42.411631706646233,46.290106512494077,16.1813],[42.421397331646233,46.271673895306577,13.5]]]}
,"properties": {"name": null,"lge_id": null,"pfafstette": 24251.0,"lke_type": "N","altitude": 12,"objectid": 74287,"scalerank": 11,"featurecla": "Lake","note": "_untitled_74287","funkyname": 0,"min_zoom": 6.7,"min_label": 7.7,"area_km2": 31.92595,"hist_schema_id": "Elevation0-9000","hist_area_km2": {"25": 31.92595}}}