{"type": "Feature","bbox": [51.0529,56.2095,51.0851,56.2268],"geometry": {"type": "MultiPolygon","coordinates": [[[[51.0851,56.2192,123.0429],[51.0712,56.2268,87.9124],[51.0529,56.2198,76.0067],[51.0712,56.2095,169.4095],[51.0851,56.2192,123.0429]]]]}
,"properties": {"GID_2": "RUS.31.39_1","GID_0": "RUS","country": "Russia","GID_1": "RUS.31_1","province": "Kirov","NL_NAME_1": "Кировскаяобласть","county": "VyatskiePolyany","VARNAME_2": "VyatskiyePolyany","NL_NAME_2": "ВятскиеПоляны","TYPE_2": "Gorod","ENGTYPE_2": "City","CC_2": "NA","HASC_2": "RU.KV.VG","name": "Vyatskie_Polyany.county","area_km2": 1.933388,"hist_schema_id": "Elevation0-9000","hist_area_km2": {"75": 0.247555,"100": 0.860554,"125": 0.554098,"150": 0.188644,"175": 0.082537}}}