{"type": "Feature","bbox": [46.6377,43.7963,46.7652,43.8683],"geometry": {"type": "MultiPolygon","coordinates": [[[[46.7652,43.8353,-6.8999],[46.7393,43.8683,-7.3294],[46.6377,43.8622,-8.5237],[46.6501,43.7966,-3.9445],[46.6964,43.7963,-6.24],[46.7652,43.8353,-6.8999]]]]}
,"properties": {"GID_2": "RUS.15.28_1","GID_0": "RUS","country": "Russia","GID_1": "RUS.15_1","province": "Dagestan","NL_NAME_1": "РеспубликаДагестан","county": "Kizlyar","VARNAME_2": "NA","NL_NAME_2": "Кизляр","TYPE_2": "Gorsovet","ENGTYPE_2": "District","CC_2": "NA","HASC_2": "RU.DA.KY","name": "Kizlyar.county","area_km2": 59.75384,"hist_schema_id": "Elevation0-9000","hist_area_km2": {"0": 59.66206,"25": 0.09177}}}