{"type": "Feature","bbox": [42.5106,55.4022,42.5359,55.4189],"geometry": {"type": "MultiPolygon","coordinates": [[[[42.5312,55.4055,111.7078],[42.5359,55.4118,107.6127],[42.5315,55.4177,107.3773],[42.5215,55.4189,107.7919],[42.5106,55.4118,117.8393],[42.5138,55.4074,111.9279],[42.5244,55.4022,106.7627],[42.5312,55.4055,111.7078]]]]}
,"properties": {"GID_2": "RUS.47.25_1","GID_0": "RUS","country": "Russia","GID_1": "RUS.47_1","province": "Nizhegorod","NL_NAME_1": "Нижегородскаяобласть","county": "Kulebaki","VARNAME_2": "NA","NL_NAME_2": "Кулебаки","TYPE_2": "Gorsovet","ENGTYPE_2": "District","CC_2": "NA","HASC_2": "RU.NZ.KK","name": "Kulebaki.county","area_km2": 1.865605,"hist_schema_id": "Elevation0-9000","hist_area_km2": {"100": 1.648955,"125": 0.21665}}}