{"type": "Feature","bbox": [52.7712,54.486,52.8025,54.5062],"geometry": {"type": "MultiPolygon","coordinates": [[[[52.797,54.4889,301.6618],[52.8025,54.4963,294.2215],[52.799,54.5031,296.5026],[52.788,54.5062,309.4554],[52.775,54.5017,309.2683],[52.7712,54.4943,318.3325],[52.7783,54.4883,347.4016],[52.785,54.486,336.7414],[52.797,54.4889,301.6618]]]]}
,"properties": {"GID_2": "RUS.68.15_1","GID_0": "RUS","country": "Russia","GID_1": "RUS.68_1","province": "Tatarstan","NL_NAME_1": "РеспубликаТатарстан","county": "Bugul'ma","VARNAME_2": "Bugulma","NL_NAME_2": "Бугульма","TYPE_2": "Gorod","ENGTYPE_2": "City","CC_2": "NA","HASC_2": "RU.TT.BG","name": "Bugul'ma.county","area_km2": 3.115282,"hist_schema_id": "Elevation0-9000","hist_area_km2": {"300": 2.290182,"325": 0.738889,"350": 0.08621}}}