{"type": "Feature","bbox": [57.4835,66.0459,57.5152,66.0619],"geometry": {"type": "MultiPolygon","coordinates": [[[[57.5108,66.0507,79.8029],[57.5152,66.0555,81.5221],[57.5036,66.0619,81.2565],[57.4872,66.0588,78.9082],[57.4835,66.0524,78.9578],[57.4975,66.0459,80.3827],[57.5108,66.0507,79.8029]]]]}
,"properties": {"GID_2": "RUS.32.16_1","GID_0": "RUS","country": "Russia","GID_1": "RUS.32_1","province": "Komi","NL_NAME_1": "РеспубликаКоми","county": "Usinsk","VARNAME_2": "NA","NL_NAME_2": "Усинск","TYPE_2": "Gorsovet","ENGTYPE_2": "District","CC_2": "NA","HASC_2": "RU.KO.US","name": "Usinsk.county","area_km2": 1.583392,"hist_schema_id": "Elevation0-9000","hist_area_km2": {"75": 1.583392}}}