{"type": "Feature","bbox": [47.8454,41.402,48.5051,41.8953],"geometry": {"type": "MultiPolygon","coordinates": [[[[48.4393,41.7194,191.2256],[48.4459,41.7282,166.2868],[48.4741,41.7867,88.8444],[48.4865,41.8182,42.9174],[48.4997,41.829,28.8172],[48.5007,41.8424,25.6759],[48.498,41.8566,25.9369],[48.5051,41.8641,8.2499],[48.4874,41.8694,7.8545],[48.4675,41.8905,-15.641],[48.4463,41.8953,-6.3014],[48.4197,41.8546,30.7678],[48.4124,41.8214,62.9638],[48.4027,41.7968,94.9585],[48.3913,41.7769,125.1609],[48.3764,41.7703,145.9357],[48.3626,41.7755,163.7456],[48.3593,41.7434,184.2733],[48.3447,41.7205,221.3526],[48.3277,41.7057,286.5019],[48.3004,41.6991,278.9084],[48.2488,41.6997,434.3287],[48.2303,41.6963,395.4043],[48.2125,41.6788,405.0202],[48.1998,41.663,388.2432],[48.1848,41.6553,461.8131],[48.1638,41.648,613.4437],[48.1447,41.6456,526.3099],[48.1325,41.6392,649.2471],[48.1405,41.618899999999996,683.26],[48.1294,41.6018,779.5619],[48.0837,41.5683,1060.9888],[48.0546,41.5396,1346.7822],[48.0338,41.5273,1347.26],[48.0207,41.5251,1387.1874],[48.0097,41.5345,1281.2012],[47.9864,41.5484,963.1866],[47.994,41.5326,1111.8257],[47.9797,41.5122,1326.8788],[47.9754,41.5006,1515.3273],[47.9512,41.5046,1294.3762],[47.9323,41.5059,1506.0155],[47.9143,41.4927,1778.3536],[47.9016,41.4788,2134.9204],[47.8587,41.4741,2028.5293],[47.8454,41.4681,2002.2994],[47.8526,41.4598,1601.8948],[47.9036,41.4395,1341.4158],[47.9025,41.4447,1421.4048],[47.9092,41.4497,1573.3484],[47.9185,41.453,1525.9028],[47.9302,41.4529,1186.2264],[47.9416,41.4494,916.6478],[47.9525,41.4348,907.0806],[48.0012,41.402,2256.6982],[48.0251,41.4323,1924.4854],[48.0383,41.4592,1183.032],[48.0396,41.4816,774.1708],[48.045,41.4885,691.7311],[48.0511,41.4912,684.373],[48.0925,41.498,642.0043],[48.1114,41.4984,623.7386],[48.137,41.5048,600.1805],[48.1577,41.5045,583.0352],[48.1763,41.5015,575.1049],[48.1936,41.5032,561.002],[48.213,41.5129,526.7966],[48.2349,41.5164,513.8608],[48.2519,41.5217,550.5746],[48.2597,41.5379,474.6454],[48.268,41.5487,460.314],[48.2813,41.5586,444.123],[48.2996,41.5651,425.4718],[48.3213,41.5693,404.5735],[48.3559,41.5841,368.0518],[48.4015,41.6121,315.7802],[48.4144,41.6266,298.3531],[48.4194,41.6385,290.8671],[48.424,41.6552,262.5253],[48.4287,41.6839,223.7526],[48.4353,41.7024,199.04],[48.4393,41.7194,191.2256]]]]}
,"properties": {"GID_2": "RUS.15.34_1","GID_0": "RUS","country": "Russia","GID_1": "RUS.15_1","province": "Dagestan","NL_NAME_1": "РеспубликаДагестан","county": "Magaramkentskiyrayon","VARNAME_2": "NA","NL_NAME_2": "Магарамкентскийрайон","TYPE_2": "Raion","ENGTYPE_2": "District","CC_2": "R39002","HASC_2": "RU.DA.MG","name": "Magaramkentskiyrayon.county","area_km2": 687.4196,"hist_schema_id": "Elevation0-9000","hist_area_km2": {"-25": 0.1736,"0": 14.8724,"25": 21.2753,"50": 15.0735,"75": 8.8824,"100": 10.3385,"125": 10.831,"150": 12.7945,"175": 13.2398,"200": 14.1455,"225": 16.2383,"250": 17.019,"275": 16.1056,"300": 16.9965,"325": 17.9488,"350": 19.5676,"375": 20.9944,"400": 21.7071,"425": 22.4829,"450": 15.5634,"475": 13.5883,"500": 15.3519,"525": 14.9401,"550": 15.512,"575": 13.4494,"600": 11.4335,"625": 12.2104,"650": 12.639099999999999,"675": 12.4669,"700": 11.2144,"725": 11.1207,"750": 10.52,"775": 10.5038,"800": 10.108,"825": 8.9817,"850": 8.9498,"875": 8.8859,"900": 8.2835,"925": 8.22,"950": 8.1097,"975": 8.3636,"1000": 7.443,"1025": 7.0942,"1050": 7.3959,"1075": 7.2536,"1100": 5.9049,"1125": 5.6037,"1150": 5.6825,"1175": 5.5719,"1200": 5.5401,"1225": 6.3814,"1250": 5.3975,"1275": 5.2071,"1300": 5.1754,"1325": 6.0963,"1350": 5.6836,"1375": 4.9853,"1400": 4.0172,"1425": 3.6998,"1450": 3.0331,"1475": 2.954,"1500": 2.1444,"1525": 2.1604,"1550": 1.827,"1575": 1.8748,"1600": 1.6048,"1625": 1.3347,"1650": 1.5094,"1675": 1.3347,"1700": 1.2712,"1725": 1.1758,"1750": 1.1439,"1775": 1.0963,"1800": 1.0645,"1825": 1.2234,"1850": 1.0805,"1875": 0.858,"1900": 1.0965,"1925": 0.8899,"1950": 0.7469,"1975": 0.7787,"2000": 0.9217,"2025": 0.7787,"2050": 0.7628,"2075": 0.7788,"2100": 0.8901,"2125": 0.8901,"2150": 0.6835,"2175": 0.6199,"2200": 0.5087,"2225": 0.4609,"2250": 0.5086,"2275": 0.4132,"2300": 0.2701,"2325": 0.1112,"2350": 0.1271,"2375": 0.1747,"2400": 0.1748,"2425": 0.0635,"2450": 0.1747,"2475": 0.1112,"2500": 0.0635,"2525": 0.0477,"2550": 0.1112,"2575": 0.0477,"2600": 0.0477,"2625": 0.0477,"2650": 0.0318,"2675": 0.0635,"2700": 0.0318,"2725": 0.0159,"2750": 0.0318,"2775": 0.0159}}}