{"type": "Feature","bbox": [47.368,41.6395,47.8449,41.9656],"geometry": {"type": "MultiPolygon","coordinates": [[[[47.7176,41.9656,1890.865],[47.7163,41.9495,2201.4824],[47.6383,41.8814,2114.8994],[47.6226,41.8601,2075.3594],[47.6146,41.8378,2236.8271],[47.606,41.8294,2198.0288],[47.588,41.8321,2055.6643],[47.5644,41.8419,2147.5227],[47.5537,41.8567,2346.9436],[47.5518,41.8725,2200.6162],[47.5341,41.8921,2288.6184],[47.5163,41.9046,2263.6267],[47.4846,41.8995,1864.8728],[47.4576,41.8917,2082.1401],[47.4256,41.8905,2351.3062],[47.3857,41.8652,2533.8772],[47.3693,41.8404,2903.3521],[47.368,41.8129,3267.1726],[47.3942,41.7789,3428.3179],[47.4139,41.7586,3466.1912],[47.4232,41.74,3666.6855],[47.4454,41.6847,2654.9314],[47.4846,41.6501,3272.7639],[47.53,41.6396,2936.6287],[47.5666,41.6475,2161.041],[47.579,41.661,1919.5841],[47.5921,41.666,1843.756],[47.6064,41.662,1802.5774],[47.621,41.6549,1856.0299],[47.6393,41.6395,1642.9392],[47.6552,41.6458,2155.0261],[47.6642,41.6602,2371.7925],[47.6687,41.6794,2212.7197],[47.6636,41.7228,2617.9341],[47.68,41.7252,2555.5967],[47.6958,41.7131,2424.5667],[47.7256,41.67,2545.9106],[47.7563,41.6533,2577.2832],[47.7763,41.6561,2146.2544],[47.7831,41.6637,2065.7839],[47.7915,41.695,2141.1382],[47.8048,41.7191,2097.2202],[47.8183,41.7367,1239.9249],[47.8376,41.7531,1511.1936],[47.8449,41.7641,1655.4634],[47.8245,41.7944,1796.5326],[47.8158,41.8203,1857.7734],[47.8084,41.8682,1554.6705],[47.7997,41.8776,1490.5309],[47.7793,41.8841,1810.0547],[47.7614,41.8964,1773.8159],[47.7664,41.9073,1900.7542],[47.7873,41.918,1405.6213],[47.8179,41.9368,1084.3788],[47.802,41.9318,1333.3701],[47.771,41.9403,1563.8732],[47.7425,41.9515,1706.7606],[47.7176,41.9656,1890.865]]]]}
,"properties": {"GID_2": "RUS.15.1_1","GID_0": "RUS","country": "Russia","GID_1": "RUS.15_1","province": "Dagestan","NL_NAME_1": "РеспубликаДагестан","county": "Agul'skiyrayon","VARNAME_2": "NA","NL_NAME_2": "Агульскийрайон","TYPE_2": "Raion","ENGTYPE_2": "District","CC_2": "R39000","HASC_2": "RU.DA.AG","name": "Agul'skiyrayon.county","area_km2": 870.8234,"hist_schema_id": "Elevation0-9000","hist_area_km2": {"1075": 0.0158,"1125": 0.0315,"1150": 0.0315,"1175": 0.0315,"1200": 0.0315,"1225": 0.0631,"1250": 0.2213,"1275": 0.2371,"1300": 0.4112,"1325": 0.4901,"1350": 0.6324,"1375": 0.664,"1400": 0.9642,"1425": 1.4386,"1450": 1.7075,"1475": 2.087,"1500": 2.5607,"1525": 3.0667,"1550": 3.4775,"1575": 3.7147,"1600": 4.663,"1625": 4.3784,"1650": 5.1843,"1675": 6.3704,"1700": 5.9905,"1725": 7.2242,"1750": 7.4769,"1775": 8.5199,"1800": 9.9911,"1825": 10.0069,"1850": 11.2865,"1875": 11.7302,"1900": 13.295,"1925": 14.4492,"1950": 15.4923,"1975": 16.1878,"2000": 17.8952,"2025": 19.8882,"2050": 20.3783,"2075": 22.0228,"2100": 23.5246,"2125": 24.0009,"2150": 24.078,"2175": 26.5452,"2200": 26.0221,"2225": 26.2426,"2250": 27.6974,"2275": 27.443,"2300": 28.501,"2325": 27.853,"2350": 27.4417,"2375": 25.814,"2400": 25.2766,"2425": 23.9176,"2450": 21.6106,"2475": 18.7808,"2500": 16.6292,"2525": 16.2346,"2550": 15.5242,"2575": 14.3214,"2600": 12.4865,"2625": 11.9796,"2650": 10.4769,"2675": 9.7661,"2700": 8.8186,"2725": 7.0646,"2750": 6.7653,"2775": 6.434,"2800": 4.5367,"2825": 3.6367,"2850": 2.9255,"2875": 2.9263,"2900": 2.4994,"2925": 2.4677,"2950": 2.4682,"2975": 2.3892,"3000": 2.5632,"3025": 2.8005,"3050": 2.2945,"3075": 2.9748,"3100": 2.7693,"3125": 2.69,"3150": 2.7534,"3175": 2.1204,"3200": 2.627,"3225": 2.5314,"3250": 2.5002,"3275": 2.421,"3300": 2.3894,"3325": 2.3894,"3350": 2.1206,"3375": 2.0096,"3400": 2.3581,"3425": 1.2662,"3450": 1.6461,"3475": 1.4245,"3500": 1.2189,"3525": 0.9815,"3550": 0.7598,"3575": 0.5065,"3600": 0.4274,"3625": 0.2848,"3650": 0.2216,"3675": 0.2691,"3700": 0.0316,"3725": 0.0474,"3750": 0.0158}}}