{"type": "Feature","bbox": [44.5233,42.7438,44.7279,43.0482],"geometry": {"type": "MultiPolygon","coordinates": [[[[44.6567,42.7498,2714.4956],[44.6161,42.7873,1766.6024],[44.6289,42.8744,904.52],[44.6192,42.8784,1251.524],[44.6851,42.9591,754.0374],[44.7279,42.9745,903.611],[44.6853,43.0482,668.8022],[44.6198,43.0214,687.4459],[44.5722,42.9356,1240.2935],[44.5233,42.7512,3604.6401],[44.6026,42.7438,2455.7151],[44.6567,42.7498,2714.4956]]]]}
,"properties": {"GID_2": "RUS.48.9_1","GID_0": "RUS","country": "Russia","GID_1": "RUS.48_1","province": "NorthOssetia","NL_NAME_1": "РеспубликаСевернаяОсетия-Алани","county": "Vladikavkaz","VARNAME_2": "NA","NL_NAME_2": "Владикавказ","TYPE_2": "Gorsovet","ENGTYPE_2": "District","CC_2": "NA","HASC_2": "RU.NO.VL","name": "Vladikavkaz.county","area_km2": 236.8978,"hist_schema_id": "Elevation0-9000","hist_area_km2": {"650": 0.0155,"675": 5.3312,"700": 10.7735,"725": 9.5667,"750": 10.4384,"775": 8.6253,"800": 11.3109,"825": 8.0062,"850": 6.0508,"875": 4.2508,"900": 3.646,"925": 3.2427,"950": 2.6222,"975": 2.3586,"1000": 2.064,"1025": 1.9867,"1050": 2.3285,"1075": 2.4996,"1100": 2.4687,"1125": 2.8576,"1150": 2.5159,"1175": 2.2677,"1200": 2.5476,"1225": 2.47,"1250": 2.175,"1275": 2.2989,"1300": 2.3769,"1325": 2.4701,"1350": 2.3615,"1375": 2.3465,"1400": 2.1754,"1425": 2.3776,"1450": 2.2688,"1475": 2.6731,"1500": 2.3624,"1525": 2.4401,"1550": 2.5335,"1575": 2.456,"1600": 2.2383,"1625": 2.2387,"1650": 1.8966,"1675": 2.1298,"1700": 1.9745,"1725": 2.3013,"1750": 2.0368,"1775": 2.037,"1800": 1.9902,"1825": 1.9436,"1850": 2.2081,"1875": 1.897,"1900": 2.0215,"1925": 2.1769,"1950": 2.2082,"1975": 2.0838,"2000": 1.6173,"2025": 1.9439,"2050": 1.6639,"2075": 1.4772,"2100": 1.7105,"2125": 1.6948,"2150": 1.4151,"2175": 1.4928,"2200": 1.5706,"2225": 1.4615,"2250": 1.4931,"2275": 1.4462,"2300": 1.4927,"2325": 1.5551,"2350": 1.3064,"2375": 1.6795,"2400": 1.431,"2425": 1.4308,"2450": 1.3684,"2475": 1.742,"2500": 1.2911,"2525": 1.1044,"2550": 1.1045,"2575": 0.8555,"2600": 0.809,"2625": 0.8402,"2650": 0.7624,"2675": 0.9647,"2700": 0.6224,"2725": 0.6847,"2750": 0.8092,"2775": 0.7159,"2800": 0.7159,"2825": 0.6537,"2850": 0.6537,"2875": 0.6225,"2900": 0.5447,"2925": 0.5447,"2950": 0.607,"2975": 0.6381,"3000": 0.5447,"3025": 0.4358,"3050": 0.6381,"3075": 0.4358,"3100": 0.5759,"3125": 0.4358,"3150": 0.4981,"3175": 0.5136,"3200": 0.4825,"3225": 0.4514,"3250": 0.3735,"3275": 0.4514,"3300": 0.3113,"3325": 0.3891,"3350": 0.4514,"3375": 0.2802,"3400": 0.3736,"3425": 0.4203,"3450": 0.4047,"3475": 0.4047,"3500": 0.2958,"3525": 0.3425,"3550": 0.4047,"3575": 0.4203,"3600": 0.2958,"3625": 0.2491,"3650": 0.4826,"3675": 0.2335,"3700": 0.2024,"3725": 0.4203,"3750": 0.358,"3775": 0.2179,"3800": 0.2646,"3825": 0.1557,"3850": 0.109,"3875": 0.0467,"3900": 0.0467}}}