{"type": "Feature","bbox": [59.330893316427677,54.515146404859621,66.306031599374961,68.355030339278471],"geometry": {"type": "MultiPolygon","coordinates": [[[[66.262696415652925,68.355030339278471,261.8335],[65.898326042583733,67.4406192078066,329.7664],[66.0892440113339,67.697333074994049,794.4774],[66.21265709727146,67.986578680462912,415.1712],[66.2954207691464,68.295172430463083,509.5363],[66.306031599374961,68.352686446186937,246.1465],[66.262696415652925,68.355030339278471,261.8335]]],
[[[59.391205045009855,54.5672151624284,575.3481],[59.3879500660214,54.574652410931662,572.5021],[59.373057487896233,54.598150946087912,586.403],[59.354014519146233,54.621039129681662,716.1414],[59.330893316427677,54.515146404859621,543.9742],[59.391205045009855,54.5672151624284,575.3481]]]]}
,"properties": {"featurecla": "Range/mtn","name": "URAL MOUNTAINS","namealt": null,"region": "Europe","subregion": null,"min_label": 2.0,"max_label": 6.0,"scalerank": 1,"area_km2": 320.3649,"hist_schema_id": "Elevation0-9000","hist_area_km2": {"200": 3.7563,"225": 8.0246,"250": 7.8109,"275": 12.3515,"300": 11.6276,"325": 12.264099999999999,"350": 11.144,"375": 11.1944,"400": 9.2159,"425": 10.0846,"450": 10.2882,"475": 10.2952,"500": 10.9135,"525": 11.16,"550": 12.1837,"575": 15.3102,"600": 16.0047,"625": 12.777,"650": 11.4265,"675": 9.2191,"700": 9.0184,"725": 8.5868,"750": 8.5366,"775": 8.6258,"800": 7.9567,"825": 7.0639,"850": 6.5008,"875": 5.6937,"900": 4.9611,"925": 4.3105,"950": 4.1982,"975": 3.7733,"1000": 3.5246,"1025": 3.4049,"1050": 3.1086,"1075": 3.0065,"1100": 2.8658,"1125": 2.342,"1150": 1.5525,"1175": 1.327,"1200": 1.6659,"1225": 0.7253,"1250": 0.3789,"1275": 0.145,"1300": 0.0322,"1325": 0.0081}}}