{"type": "Feature","bbox": [30.5243,64.6033,30.5887,64.6317],"geometry": {"type": "MultiPolygon","coordinates": [[[[30.5887,64.6165,247.5417],[30.5878,64.6242,245.8577],[30.5551,64.6317,259.9757],[30.5243,64.6195,241.8147],[30.5252,64.6118,241.4237],[30.5584,64.6033,226.3691],[30.5887,64.6165,247.5417]]]]}
,"properties": {"GID_2": "RUS.26.7_1","GID_0": "RUS","country": "Russia","GID_1": "RUS.26_1","province": "Karelia","NL_NAME_1": "РеспубликаКарелия","county": "Kostomuksh","VARNAME_2": "Kostomushksa","NL_NAME_2": "Костомукша","TYPE_2": "Gorsovet","ENGTYPE_2": "District","CC_2": "NA","HASC_2": "RU.KI.KM","name": "Kostomuksh.county","area_km2": 6.125614,"hist_schema_id": "Elevation0-9000","hist_area_km2": {"200": 0.072726,"225": 2.472496,"250": 3.580392}}}