{"type": "Feature","bbox": [28.6773,59.4067,28.6963,59.4161],"geometry": {"type": "MultiPolygon","coordinates": [[[[28.6908,59.4146,53.7671],[28.6828,59.4161,48.7151],[28.6773,59.4127,41.066],[28.682,59.4081,46.5265],[28.687,59.4067,46.4354],[28.6963,59.4106,53.7715],[28.6947,59.4135,52.7996],[28.6908,59.4146,53.7671]]]]}
,"properties": {"GID_2": "RUS.38.6_1","GID_0": "RUS","country": "Russia","GID_1": "RUS.38_1","province": "Leningrad","NL_NAME_1": "Ленинградскаяобласть","county": "Kingisepp","VARNAME_2": "NA","NL_NAME_2": "Кингисепп","TYPE_2": "Gorod","ENGTYPE_2": "City","CC_2": "NA","HASC_2": "RU.LN.KN","name": "Kingisepp.county","area_km2": 0.6689241,"hist_schema_id": "Elevation0-9000","hist_area_km2": {"50": 0.6689241}}}