{"type": "Feature","bbox": [47.2881,42.4426,47.82,42.9561],"geometry": {"type": "MultiPolygon","coordinates": [[[[47.5742,42.9561,-28.0],[47.569,42.9388,-18.7903],[47.5574,42.9188,-11.1229],[47.5294,42.8973,47.802],[47.5046,42.8899,225.1938],[47.4952,42.8888,364.2657],[47.4831,42.8893,187.0047],[47.4666,42.8962,340.6855],[47.4603,42.8865,218.205],[47.4705,42.874,153.7943],[47.4722,42.8619,278.4267],[47.4621,42.8507,330.7504],[47.4405,42.8505,343.7766],[47.4054,42.8564,310.7094],[47.3272,42.8587,625.0746],[47.2958,42.8511,404.0829],[47.2936,42.8313,539.3344],[47.2887,42.8149,671.3176],[47.2912,42.7908,665.4952],[47.2961,42.7664,471.4277],[47.3073,42.7436,563.5116],[47.3088,42.7214,489.5433],[47.2944,42.7051,541.5632],[47.2881,42.686,589.2352],[47.2981,42.6701,666.6018],[47.3183,42.6498,945.6298],[47.3276,42.6285,1086.8099],[47.3409,42.5558,1246.4513],[47.3491,42.5397,1072.5944],[47.3852,42.5329,984.4838],[47.4436,42.5034,1137.3398],[47.4517,42.4965,1264.9658],[47.4391,42.4797,1363.1721],[47.4349,42.4694,1377.4526],[47.4592,42.4517,1695.5242],[47.4896,42.4426,1493.0226],[47.5036,42.4471,1715.9419],[47.5138,42.4528,1556.7328],[47.5438,42.4959,1111.8978],[47.5702,42.5073,920.7407],[47.6082,42.5112,649.6254],[47.637,42.51,560.7838],[47.6866,42.4918,512.0493],[47.7038,42.4981,394.1609],[47.7221,42.5114,522.5852],[47.7277,42.5242,517.1953],[47.7473,42.5199,270.4616],[47.756,42.5138,250.247],[47.7688,42.5132,193.8397],[47.7812,42.5219,171.1739],[47.7795,42.5451,174.1432],[47.7847,42.5705,276.7312],[47.82,42.5865,47.0957],[47.802,42.5973,20.4237],[47.7536,42.631,21.0662],[47.7307,42.6552,25.8267],[47.7155,42.6837,33.1487],[47.7138,42.7126,33.7561],[47.7078,42.7513,18.3002],[47.7073,42.7849,-8.495],[47.7034,42.8189,-22.792],[47.7029,42.8511,-26.0749],[47.707,42.8789,-28.0],[47.6875,42.9006,-28.0],[47.6656,42.9212,-28.0],[47.6321,42.937,-28.0],[47.5742,42.9561,-28.0]],
[[47.641,42.892,-18.7775],[47.6511,42.8854,-19.2446],[47.6611,42.8861,-28.0],[47.6901,42.8704,-26.2883],[47.6922,42.8648,-25.3711],[47.6054,42.8343,6.3912],[47.5298,42.8733,161.9712],[47.5934,42.9356,-28.0],[47.609,42.9257,-28.0],[47.6203,42.9153,-19.6074],[47.6333,42.898,-21.0662],[47.641,42.892,-18.7775]]]]}
,"properties": {"GID_2": "RUS.15.18_1","GID_0": "RUS","country": "Russia","GID_1": "RUS.15_1","province": "Dagestan","NL_NAME_1": "РеспубликаДагестан","county": "Karabudokhkentskiyrayon","VARNAME_2": "Karabudokhkents|Leninskiy","NL_NAME_2": "Карабудахкентскийрайон","TYPE_2": "Raion","ENGTYPE_2": "District","CC_2": "R39002","HASC_2": "RU.DA.KB","name": "Karabudokhkentskiyrayon.county","area_km2": 1437.453,"hist_schema_id": "Elevation0-9000","hist_area_km2": {"-25": 57.323,"0": 33.281,"25": 52.378,"50": 50.887,"75": 30.922,"100": 21.159,"125": 20.678,"150": 25.167,"175": 29.72,"200": 28.687,"225": 28.95,"250": 34.559,"275": 34.779,"300": 39.969,"325": 40.824,"350": 51.515,"375": 53.261,"400": 53.078,"425": 51.336,"450": 49.692,"475": 45.663,"500": 36.875,"525": 37.166,"550": 40.797,"575": 37.366,"600": 33.457,"625": 29.141,"650": 26.172,"675": 21.514,"700": 18.056,"725": 16.592,"750": 13.179,"775": 11.466,"800": 10.936,"825": 10.891,"850": 9.707,"875": 9.257,"900": 8.695,"925": 9.336,"950": 10.383,"975": 9.868,"1000": 10.758,"1025": 10.336,"1050": 11.18,"1075": 11.868,"1100": 12.649,"1125": 12.009,"1150": 11.291,"1175": 10.479,"1200": 9.823,"1225": 8.902,"1250": 8.918,"1275": 8.34,"1300": 7.762,"1325": 7.294,"1350": 7.388,"1375": 7.029,"1400": 6.67,"1425": 7.202,"1450": 6.374,"1475": 5.531,"1500": 4.423,"1525": 3.97,"1550": 3.002,"1575": 2.33,"1600": 1.893,"1625": 1.736,"1650": 1.58,"1675": 1.408,"1700": 0.266,"1725": 0.235,"1750": 0.094,"1775": 0.031}}}