{"type": "Feature","bbox": [43.1974,50.0602,43.2398,50.0857],"geometry": {"type": "MultiPolygon","coordinates": [[[[43.2378,50.0698,82.0823],[43.2398,50.0735,83.7274],[43.2253,50.0857,110.3018],[43.2073,50.0835,122.7939],[43.1983,50.077,98.3486],[43.1974,50.0699,96.6156],[43.2034,50.0645,84.0847],[43.2244,50.0602,79.7116],[43.2378,50.0698,82.0823]]]]}
,"properties": {"GID_2": "RUS.77.19_1","GID_0": "RUS","country": "Russia","GID_1": "RUS.77_1","province": "Volgograd","NL_NAME_1": "Волгоградскаяобласть","county": "Mikhaylovka","VARNAME_2": "NA","NL_NAME_2": "Михайловка","TYPE_2": "Gorsovet","ENGTYPE_2": "District","CC_2": "NA","HASC_2": "RU.VG.MG","name": "Mikhaylovka.county","area_km2": 5.837737,"hist_schema_id": "Elevation0-9000","hist_area_km2": {"75": 4.09612,"100": 1.347053,"125": 0.394564}}}