{"type": "Feature","bbox": [49.4465,53.4772,49.4891,53.5074],"geometry": {"type": "MultiPolygon","coordinates": [[[[49.4812,53.4789,69.3727],[49.4891,53.4961,81.3496],[49.481,53.5044,102.9083],[49.4545,53.5074,105.3092],[49.4465,53.4873,143.8545],[49.4674,53.4772,88.235],[49.4812,53.4789,69.3727]]]]}
,"properties": {"GID_2": "RUS.62.32_1","GID_0": "RUS","country": "Russia","GID_1": "RUS.62_1","province": "Samara","NL_NAME_1": "Самарскаяобласть","county": "Tol'yatti","VARNAME_2": "NA","NL_NAME_2": "Тольятти","TYPE_2": "Gorsovet","ENGTYPE_2": "District","CC_2": "NA","HASC_2": "RU.SA.TO","name": "Tol'yatti.county","area_km2": 6.697913,"hist_schema_id": "Elevation0-9000","hist_area_km2": {"75": 1.1102,"100": 2.737111,"125": 2.812761,"150": 0.037841}}}