{"type": "Feature","bbox": [37.498,44.856,38.175,45.2364],"geometry": {"type": "MultiPolygon","coordinates": [[[[38.175,45.2364,6.5049],[38.1369,45.2358,7.0369],[38.0505,45.2254,8.7582],[37.9766,45.2215,3.1165],[37.9365,45.214,3.6218],[37.8961,45.22,4.4099],[37.8695,45.2327,2.5352],[37.8144,45.22,1.5808],[37.7715,45.1945,3.3251],[37.7542,45.1807,4.1633],[37.7191,45.1847,3.2405],[37.7172,45.2039,2.107],[37.6971,45.2132,1.3515],[37.6495,45.2071,3.34],[37.556,45.1765,0.2515],[37.4991,45.1783,0.5247],[37.5053,45.1334,14.8078],[37.498,45.0777,174.4759],[37.5039,45.063,80.8225],[37.5278,45.0452,91.3271],[37.54,45.032,83.5662],[37.529,45.0098,108.9026],[37.535,44.9957,170.9149],[37.5668,44.9975,178.6906],[37.6025,45.0112,190.6379],[37.6257,45.0165,120.1741],[37.6326,45.0061,170.9547],[37.6052,44.9655,269.1921],[37.6548,44.9428,305.3987],[37.6742,44.9285,316.1024],[37.6816,44.9089,347.5165],[37.6836,44.8912,322.639],[37.7093,44.8852,378.4733],[37.7375,44.8933,254.9402],[37.7625,44.8941,293.9723],[37.7918,44.8842,201.8754],[37.8055,44.8753,120.4678],[37.806399999999996,44.8665,163.9694],[37.8368,44.856,144.1533],[37.8677,44.8647,65.1377],[37.942,44.9328,76.7651],[37.9165,44.94,115.5993],[37.895,44.9492,62.8427],[37.9054,44.9694,56.9875],[37.9593,45.0081,27.2756],[37.9955,45.0484,3.4658],[38.0236,45.0499,4.7393],[38.0635,45.0452,4.3705],[38.0851,45.0574,3.623],[38.1141,45.091,6.5828],[38.146,45.1346,6.0384],[38.1662,45.1873,5.6325],[38.175,45.2364,6.5049]]]]}
,"properties": {"GID_2": "RUS.34.25_1","GID_0": "RUS","country": "Russia","GID_1": "RUS.34_1","province": "Krasnodar","NL_NAME_1": "Краснодарскийкрай","county": "Krymskiyrayon","VARNAME_2": "NA","NL_NAME_2": "Крымскийрайон","TYPE_2": "Raion","ENGTYPE_2": "District","CC_2": "R43091","HASC_2": "RU.KD.KR","name": "Krymskiyrayon.county","area_km2": 1358.037,"hist_schema_id": "Elevation0-9000","hist_area_km2": {"0": 726.709,"25": 91.672,"50": 56.549,"75": 73.025,"100": 75.868,"125": 66.611,"150": 56.832,"175": 44.789,"200": 39.362,"225": 35.631,"250": 25.867,"275": 15.459,"300": 14.018,"325": 11.332,"350": 8.765,"375": 6.979,"400": 4.818,"425": 2.672,"450": 0.99,"475": 0.09}}}