{"type": "Feature","bbox": [36.5201,50.5355,36.7012,50.6538],"geometry": {"type": "MultiPolygon","coordinates": [[[[36.7012,50.5445,133.7314],[36.6893,50.6538,160.0138],[36.5297,50.6402,208.67],[36.5201,50.5734,130.6546],[36.6828,50.5355,125.6558],[36.7012,50.5445,133.7314]]]]}
,"properties": {"GID_2": "RUS.7.3_1","GID_0": "RUS","country": "Russia","GID_1": "RUS.7_1","province": "Belgorod","NL_NAME_1": "Белгородскаяобласть","county": "Belgorod","VARNAME_2": "NA","NL_NAME_2": "Белгород","TYPE_2": "Gorod","ENGTYPE_2": "City","CC_2": "NA","HASC_2": "RU.BL.BG","name": "Belgorod.county","area_km2": 126.15674,"hist_schema_id": "Elevation0-9000","hist_area_km2": {"100": 1.02322,"125": 61.85838,"150": 30.44271,"175": 14.8577,"200": 14.54533,"225": 3.42939}}}