{"type": "Feature","bbox": [39.3154,57.1458,39.4626,57.2459],"geometry": {"type": "MultiPolygon","coordinates": [[[[39.4447,57.1692,92.0],[39.4626,57.2459,100.3645],[39.3302,57.1968,103.178],[39.3154,57.1555,111.3819],[39.3964,57.1458,93.3139],[39.4447,57.1692,92.0]]]]}
,"properties": {"GID_2": "RUS.81.13_1","GID_0": "RUS","country": "Russia","GID_1": "RUS.81_1","province": "Yaroslavl'","NL_NAME_1": "Ярославскаяобласть","county": "Rostov","VARNAME_2": "NA","NL_NAME_2": "Ростов","TYPE_2": "Gorod","ENGTYPE_2": "City","CC_2": "NA","HASC_2": "RU.YS.RS","name": "Rostov.county","area_km2": 56.18174,"hist_schema_id": "Elevation0-9000","hist_area_km2": {"100": 55.96351,"125": 0.21824}}}