{"type": "Feature","bbox": [48.2122,55.827,48.2386,55.8417],"geometry": {"type": "MultiPolygon","coordinates": [[[[48.2293,55.8279,63.9479],[48.2386,55.8329,89.7599],[48.2369,55.837,107.065],[48.2334,55.8401,110.059],[48.2252,55.8417,117.5699],[48.2132,55.8372,130.6702],[48.2122,55.8347,107.1993],[48.222,55.827,71.7359],[48.2293,55.8279,63.9479]]]]}
,"properties": {"GID_2": "RUS.13.23_1","GID_0": "RUS","country": "Russia","GID_1": "RUS.13_1","province": "Chuvash","NL_NAME_1": "ЧувашскаяРеспублика","county": "Volzhsk","VARNAME_2": "NA","NL_NAME_2": "Вольск","TYPE_2": "Gorsovet","ENGTYPE_2": "District","CC_2": "NA","HASC_2": "RU.ME.VG","name": "Volzhsk.county","area_km2": 1.786022,"hist_schema_id": "Elevation0-9000","hist_area_km2": {"50": 0.035727,"75": 0.464409,"100": 0.809659,"125": 0.476227}}}