{"type": "Feature","bbox": [46.071,41.8066,46.7571,42.3578],"geometry": {"type": "MultiPolygon","coordinates": [[[[46.7063,41.846,3088.1675],[46.7269,41.8578,2957.292],[46.7392,41.8613,3167.46],[46.7571,41.8871,2697.0815],[46.7563,41.9229,3146.5278],[46.7461,41.9443,3167.3765],[46.733,41.9655,3066.0225],[46.714,41.9677,3239.4285],[46.6872,41.9622,3070.4382],[46.6612,41.9606,3099.2163],[46.6417,41.9644,2740.2522],[46.6405,41.9897,2501.1326],[46.6441,42.0104,3331.4727],[46.6281,42.033,3496.4734],[46.6148,42.0802,2607.6833],[46.6403,42.0906,2967.946],[46.6541,42.1017,2859.5471],[46.6439,42.1118,2840.458],[46.6188,42.1169,3281.4609],[46.5458,42.11,2627.1506],[46.529,42.1208,2453.3281],[46.5349,42.1359,3272.168],[46.5266,42.1552,3322.1746],[46.549,42.1779,3744.3708],[46.5611,42.1982,3426.7686],[46.5772,42.2025,3163.4075],[46.5566,42.2016,3482.2144],[46.5475,42.2143,3042.0701],[46.5412,42.2322,3250.4438],[46.5272,42.25,3048.7798],[46.5083,42.2654,2762.8613],[46.4945,42.2679,3407.7415],[46.4738,42.265,3200.9082],[46.4597,42.2658,3171.0579],[46.4426,42.2762,3378.823],[46.454,42.2966,2268.0435],[46.4567,42.3096,2053.0251],[46.4406,42.3221,1209.3043],[46.4174,42.3346,2345.7393],[46.3979,42.339,2771.4426],[46.3814,42.3365,2885.9255],[46.3639,42.3272,2976.4983],[46.3439,42.3194,2514.5547],[46.328,42.3261,3123.313],[46.3098,42.3578,3135.3469],[46.3139,42.3344,2743.8528],[46.2891,42.3166,2553.1155],[46.2476,42.3025,2407.9146],[46.2094,42.2925,3086.4941],[46.1809,42.2926,3278.5244],[46.1596,42.2871,3517.2351],[46.1563,42.2648,2986.6216],[46.1556,42.2425,3111.9155],[46.1041,42.2044,3309.7681],[46.0821,42.1919,2951.6824],[46.1352,42.1524,2332.1536],[46.162,42.1512,2377.8623],[46.1878,42.1592,2156.53],[46.2048,42.1564,1917.0376],[46.2339,42.1484,2256.1072],[46.26,42.1439,1519.5616],[46.2874,42.1424,2727.2568],[46.3063,42.1374,2940.3838],[46.3041,42.1261,2523.7446],[46.256,42.1087,1736.0663],[46.2533,42.0978,2169.7373],[46.2329,42.0854,2314.6003],[46.222,42.0745,2780.4368],[46.1915,42.0678,2046.9794],[46.162,42.0544,2131.4922],[46.114,42.0381,2604.9314],[46.071,42.0362,2413.0029],[46.0728,42.0349,2274.4624],[46.0775,42.0119,1812.1958],[46.0823,42.0044,2003.866],[46.0923,41.9961,2094.3188],[46.1034,41.9914,2230.1238],[46.109,41.9926,2350.7229],[46.1113,41.996,2454.3079],[46.1137,42.0122,2252.4243],[46.1183,42.0176,2123.1411],[46.1224,42.0188,2236.4812],[46.1332,42.0148,2356.3918],[46.1653,41.9889,2569.4951],[46.1766,41.9875,2181.293],[46.1916,41.9879,2152.4138],[46.2031,41.9903,1991.5236],[46.2262,42.0018,2439.7156],[46.2358,42.0033,2639.8677],[46.2412,42.0023,2778.3555],[46.2456,41.9987,2869.302],[46.2492,41.9913,2935.4294],[46.2591,41.9813,2752.8247],[46.2896,41.9603,2911.5911],[46.2955,41.9518,2800.0798],[46.3043,41.95,2652.2969],[46.3082,41.9471,2613.0908],[46.3098,41.9441,2622.2559],[46.3092,41.9374,2689.6819],[46.3251,41.9365,2824.9421],[46.3292,41.9391,2903.9966],[46.3324,41.9523,2730.5889],[46.336,41.9563,2825.1494],[46.3415,41.9566,2949.0515],[46.3463,41.9548,2950.6204],[46.353,41.9475,2697.3745],[46.3587,41.9451,2890.6611],[46.3634,41.9474,2938.1528],[46.3732,41.9579,2713.9888],[46.3776,41.9601,2978.9507],[46.3822,41.9599,3115.3071],[46.3842,41.9576,3190.0752],[46.3862,41.9481,3101.0737],[46.385,41.9385,2931.2485],[46.3885,41.9249,2932.6147],[46.3913,41.9198,3008.9585],[46.4187,41.9073,2865.8489],[46.4309,41.8947,2947.7122],[46.4426,41.8893,2763.7554],[46.4726,41.886,2759.9727],[46.5083,41.8869,2711.9185],[46.5334,41.8797,2516.3198],[46.5397,41.8738,2543.3672],[46.5409,41.8256,2422.0164],[46.5445,41.8195,2060.1223],[46.552,41.8127,2246.2573],[46.5609,41.8078,2449.1096],[46.5768,41.8066,2869.7534],[46.5846,41.8088,2937.6252],[46.5971,41.813,2950.6938],[46.6129,41.8214,2955.7969],[46.6473,41.8331,2928.7612],[46.6615,41.8347,2992.6956],[46.6929,41.8272,2450.1143],[46.7004,41.8299,2719.7598],[46.7031,41.8344,2883.3303],[46.7038,41.8412,2831.3704],[46.7063,41.846,3088.1675]]]]}
,"properties": {"GID_2": "RUS.15.44_1","GID_0": "RUS","country": "Russia","GID_1": "RUS.15_1","province": "Dagestan","NL_NAME_1": "РеспубликаДагестан","county": "Tlyaratinskiyrayon","VARNAME_2": "NA","NL_NAME_2": "Тляратинскийрайон","TYPE_2": "Raion","ENGTYPE_2": "District","CC_2": "R39003","HASC_2": "RU.DA.TL","name": "Tlyaratinskiyrayon.county","area_km2": 1644.853,"hist_schema_id": "Elevation0-9000","hist_area_km2": {"1150": 0.11,"1175": 0.172,"1200": 0.235,"1225": 0.549,"1250": 1.082,"1275": 1.161,"1300": 1.35,"1325": 1.884,"1350": 2.669,"1375": 2.748,"1400": 3.346,"1425": 4.1,"1450": 4.163,"1475": 4.32,"1500": 5.185,"1525": 5.389,"1550": 5.688,"1575": 5.971,"1600": 7.292,"1625": 7.134,"1650": 7.403,"1675": 8.205,"1700": 8.487,"1725": 9.054,"1750": 9.573,"1775": 10.942,"1800": 10.675,"1825": 12.043,"1850": 12.563,"1875": 13.303,"1900": 13.446,"1925": 14.751,"1950": 16.436,"1975": 16.264,"2000": 17.633,"2025": 17.555,"2050": 19.475,"2075": 20.687,"2100": 20.767,"2125": 21.538,"2150": 22.64,"2175": 22.326,"2200": 23.162,"2225": 23.522,"2250": 24.264,"2275": 26.027,"2300": 25.76,"2325": 26.878,"2350": 27.209,"2375": 27.193,"2400": 28.092,"2425": 28.503,"2450": 29.259,"2475": 29.26,"2500": 30.772,"2525": 30.318,"2550": 31.639,"2575": 31.562,"2600": 32.43,"2625": 33.217,"2650": 32.115,"2675": 34.006,"2700": 32.762,"2725": 32.73,"2750": 32.322,"2775": 32.906,"2800": 32.462,"2825": 31.867,"2850": 30.625,"2875": 31.203,"2900": 29.601,"2925": 28.591,"2950": 27.175,"2975": 27.05,"3000": 25.884,"3025": 23.443,"3050": 24.623,"3075": 22.704,"3100": 21.756,"3125": 18.861,"3150": 18.687,"3175": 17.507,"3200": 15.317,"3225": 14.654,"3250": 13.361,"3275": 11.978,"3300": 11.378,"3325": 10.039,"3350": 8.889,"3375": 8.651,"3400": 6.81,"3425": 6.526,"3450": 5.993,"3475": 4.654,"3500": 4.465,"3525": 3.506,"3550": 2.515,"3575": 2.06,"3600": 1.556,"3625": 1.132,"3650": 0.927,"3675": 0.644,"3700": 0.487,"3725": 0.393,"3750": 0.33,"3775": 0.141,"3800": 0.126,"3825": 0.063}}}