{"type": "Feature","bbox": [47.9638,55.1511,48.0585,55.1899],"geometry": {"type": "MultiPolygon","coordinates": [[[[48.0585,55.1746,138.8511],[48.0482,55.1899,161.0737],[47.9638,55.1672,120.1218],[47.9644,55.1545,105.7676],[48.016,55.1511,85.4839],[48.0585,55.1746,138.8511]]]]}
,"properties": {"GID_2": "RUS.13.27_1","GID_0": "RUS","country": "Russia","GID_1": "RUS.13_1","province": "Chuvash","NL_NAME_1": "ЧувашскаяРеспублика","county": "Yalchikskiy","VARNAME_2": "NA","NL_NAME_2": "Яльчикский","TYPE_2": "Gorod","ENGTYPE_2": "City","CC_2": "NA","HASC_2": "NA","name": "Yalchikskiy.county","area_km2": 14.36257,"hist_schema_id": "Elevation0-9000","hist_area_km2": {"75": 0.86008,"100": 5.31707,"125": 3.62097,"150": 4.22552,"175": 0.33894}}}