{"type": "Feature","bbox": [37.6468,55.5563,37.6978,55.595],"geometry": {"type": "MultiPolygon","coordinates": [[[[37.6468,55.5589,163.7754],[37.6978,55.5563,154.5293],[37.6936,55.5679,160.8061],[37.6824,55.5872,184.9479],[37.6741,55.595,170.5581],[37.6624,55.5842,176.2422],[37.6513,55.5777,185.4911],[37.6486,55.5723,182.548],[37.6468,55.5589,163.7754]]]]}
,"properties": {"GID_3": "RUS.43.8.2_1","GID_0": "RUS","country": "Russia","GID_1": "RUS.43_1","province": "MoscowCity","NL_NAME_1": "NA","GID_2": "RUS.43.8_1","county": "Southern","NL_NAME_2": "NA","city": "57","VARNAME_3": "NA","NL_NAME_3": "NA","TYPE_3": "Raion","ENGTYPE_3": "NA","CC_3": "NA","HASC_3": "NA","name": "57.city","area_km2": 8.498996,"hist_schema_id": "Elevation0-9000","hist_area_km2": {"125": 0.023981,"150": 2.997195,"175": 5.441869,"200": 0.035951}}}