{"type": "Feature","bbox": [39.5424,54.5218,39.8155,54.6498],"geometry": {"type": "MultiPolygon","coordinates": [[[[39.8155,54.5568,158.5783],[39.8067,54.6171,103.4679],[39.6297,54.6498,121.9486],[39.5696,54.6387,132.8434],[39.5424,54.6007,113.187],[39.6639,54.5475,129.8822],[39.7555,54.5218,156.0193],[39.8155,54.5568,158.5783]]]]}
,"properties": {"GID_2": "RUS.59.14_1","GID_0": "RUS","country": "Russia","GID_1": "RUS.59_1","province": "Ryazan'","NL_NAME_1": "Рязанскаяобласть","county": "Ryazan'","VARNAME_2": "NA","NL_NAME_2": "Рязань","TYPE_2": "Gorsovet","ENGTYPE_2": "District","CC_2": "NA","HASC_2": "RU.RZ.RG","name": "Ryazan'.county","area_km2": 156.0033,"hist_schema_id": "Elevation0-9000","hist_area_km2": {"100": 27.4325,"125": 49.5066,"150": 50.0076,"175": 28.6756,"200": 0.3809}}}