{"type": "Feature","bbox": [34.278,53.1972,34.5178,53.354],"geometry": {"type": "MultiPolygon","coordinates": [[[[34.5178,53.2085,182.7811],[34.3789,53.354,169.7878],[34.278,53.2896,182.1409],[34.3583,53.2218,151.2366],[34.4235,53.1972,162.1208],[34.5178,53.2085,182.7811]]]]}
,"properties": {"GID_2": "RUS.8.2_1","GID_0": "RUS","country": "Russia","GID_1": "RUS.8_1","province": "Bryansk","NL_NAME_1": "Брянскаяобласть","county": "Bryansk","VARNAME_2": "NA","NL_NAME_2": "Брянск","TYPE_2": "Gorsovet","ENGTYPE_2": "District","CC_2": "NA","HASC_2": "RU.BR.BG","name": "Bryansk.county","area_km2": 134.6856,"hist_schema_id": "Elevation0-9000","hist_area_km2": {"150": 76.4045,"175": 39.2705,"200": 12.4541,"225": 6.5564}}}