{"type": "Feature","bbox": [47.2395,52.0091,47.4295,52.1011],"geometry": {"type": "MultiPolygon","coordinates": [[[[47.4295,52.0749,192.9245],[47.3027,52.1011,184.8993],[47.2395,52.0514,251.9209],[47.3015,52.0091,142.9387],[47.4295,52.0749,192.9245]]]]}
,"properties": {"GID_2": "RUS.63.47_1","GID_0": "RUS","country": "Russia","GID_1": "RUS.63_1","province": "Saratov","NL_NAME_1": "Саратовскаяобласть","county": "Vol'sk","VARNAME_2": "Volsk","NL_NAME_2": "Вольск","TYPE_2": "Gorsovet","ENGTYPE_2": "District","CC_2": "NA","HASC_2": "RU.SR.VG","name": "Vol'sk.county","area_km2": 66.37995,"hist_schema_id": "Elevation0-9000","hist_area_km2": {"50": 0.73023,"75": 3.19454,"100": 6.54494,"125": 8.81338,"150": 12.00724,"175": 13.08903,"200": 8.44622,"225": 6.37305,"250": 5.21324,"275": 1.94201,"300": 0.02607}}}