{"type": "Feature","bbox": [43.416,42.7383,44.1832,43.2651],"geometry": {"type": "MultiPolygon","coordinates": [[[[43.8017,42.7383,3675.7429],[43.8297,42.7519,3287.5396],[43.8809,42.7659,3032.2642],[43.9266,42.7702,3093.7004],[43.9416,42.7772,3049.6826],[43.9575,42.799,1548.0994],[43.983,42.8295,2372.9026],[43.975,42.8436,2047.8918],[43.9706,42.8562,1623.0651],[43.983,42.8645,1984.1427],[43.9909,42.8844,2296.3938],[43.9908,42.9038,2908.6978],[43.9797,42.9137,2837.6658],[43.9553,42.9168,2901.1045],[43.9158,42.9071,2491.1257],[43.8921,42.9162,2414.2197],[43.8834,42.9322,2535.5906],[43.8947,42.9501,2582.9001],[43.9428,42.9831,1372.9966],[43.9166,42.9959,1226.2325],[43.9185,43.006,1138.4111],[43.95,43.0163,1013.1106],[44.0009,43.0368,880.5248],[44.0926,43.0546,759.3358],[44.1285,43.0923,525.6588],[44.1212,43.1132,514.0229],[44.1524,43.1335,474.2901],[44.1832,43.1619,439.0793],[44.1445,43.178,432.8789],[44.1135,43.1562,470.1778],[44.0613,43.1634,511.9087],[44.041,43.1879,573.5176],[44.0916,43.1936,498.0219],[44.0542,43.2275,638.684],[44.002,43.2114,649.074],[43.9875,43.2032,642.1651],[43.968,43.2151,676.3621],[43.9624,43.2317,647.6374],[43.933,43.2651,781.7064],[43.9179,43.2564,794.7224],[43.89,43.2091,675.5797],[43.8822,43.1707,732.8123],[43.8519,43.1304,997.9662],[43.7957,43.0753,1068.4561],[43.7519,43.0386,1867.0765],[43.6734,42.9628,2373.6938],[43.6566,42.9317,2729.0505],[43.6234,42.9122,2111.6812],[43.5927,42.9029,1814.0839],[43.5654,42.9022,2247.0266],[43.5403,42.9222,2654.7581],[43.5162,42.9371,3065.5156],[43.4859,42.9383,2879.511],[43.4562,42.9238,2794.3845],[43.4274,42.9011,2820.6921],[43.416,42.8989,2960.5469],[43.4176,42.8951,3301.2703],[43.4652,42.8909,3659.4709],[43.4894,42.8832,3759.7285],[43.5064,42.8728,3273.3608],[43.5617,42.8661,3526.8459],[43.5778,42.8594,3510.9026],[43.6047,42.8425,3140.3123],[43.6123,42.8266,3444.2014],[43.6166,42.822,3415.387],[43.6326,42.8116,3856.7461],[43.6449,42.7999,3483.1003],[43.6554,42.7973,3238.4856],[43.6704,42.8004,3265.3809],[43.689,42.7964,3865.9971],[43.6995,42.7901,3841.8623],[43.7084,42.7809,3804.7661],[43.7225,42.7732,3646.2209],[43.7742,42.7578,4121.9189],[43.7909,42.7501,3950.4058],[43.8017,42.7383,3675.7429]]]]}
,"properties": {"GID_2": "RUS.48.4_1","GID_0": "RUS","country": "Russia","GID_1": "RUS.48_1","province": "NorthOssetia","NL_NAME_1": "РеспубликаСевернаяОсетия-Алани","county": "Irafskiyrayon","VARNAME_2": "NA","NL_NAME_2": "Ирафскийрайон","TYPE_2": "Raion","ENGTYPE_2": "District","CC_2": "R41000","HASC_2": "RU.NO.IR","name": "Irafskiyrayon.county","area_km2": 1249.1144,"hist_schema_id": "Elevation0-9000","hist_area_km2": {"425": 0.7268,"450": 9.8363,"475": 12.1124,"500": 15.5947,"525": 22.1257,"550": 26.4878,"575": 25.6616,"600": 23.9548,"625": 27.6635,"650": 28.6229,"675": 30.0796,"700": 17.5434,"725": 13.2008,"750": 11.902,"775": 11.6238,"800": 12.7844,"825": 11.2082,"850": 10.2816,"875": 9.1364,"900": 8.982,"925": 9.1061,"950": 10.2059,"975": 9.3238,"1000": 9.2151,"1025": 9.5097,"1050": 9.9902,"1075": 10.564,"1100": 10.8587,"1125": 10.0383,"1150": 9.3571,"1175": 9.559,"1200": 8.1807,"1225": 7.778,"1250": 8.0106,"1275": 7.2525,"1300": 6.3389,"1325": 6.3856,"1350": 6.1851,"1375": 5.7986,"1400": 5.3345,"1425": 4.6835,"1450": 4.3583,"1475": 4.4832,"1500": 5.1509,"1525": 5.4771,"1550": 6.1294,"1575": 5.6484,"1600": 5.8193,"1625": 5.742,"1650": 5.8507,"1675": 7.0457,"1700": 7.6211,"1725": 7.0311,"1750": 7.3421,"1775": 7.7768,"1800": 8.1337,"1825": 9.0196,"1850": 8.3367,"1875": 8.9891,"1900": 9.5635,"1925": 8.834,"1950": 9.6261,"1975": 9.9065,"2000": 9.3469,"2025": 9.9991,"2050": 9.8291,"2075": 10.5589,"2100": 10.1711,"2125": 9.6124,"2150": 9.8608,"2175": 10.7934,"2200": 10.0479,"2225": 10.5454,"2250": 10.1412,"2275": 11.4312,"2300": 12.2389,"2325": 11.2299,"2350": 10.7327,"2375": 11.2146,"2400": 11.6507,"2425": 11.0296,"2450": 11.4955,"2475": 10.0976,"2500": 10.8593,"2525": 10.1596,"2550": 10.3308,"2575": 10.2997,"2600": 9.9745,"2625": 9.8191,"2650": 9.4149,"2675": 9.6798,"2700": 8.9032,"2725": 9.1203,"2750": 8.7327,"2775": 9.3077,"2800": 8.8882,"2825": 9.3544,"2850": 8.5467,"2875": 8.407,"2900": 8.6559,"2925": 7.6928,"2950": 7.8481,"2975": 7.8485,"3000": 7.662,"3025": 6.8541,"3050": 7.336,"3075": 7.2275,"3100": 7.228,"3125": 6.0466,"3150": 6.0934,"3175": 6.6689,"3200": 6.3117,"3225": 5.7054,"3250": 4.8197,"3275": 5.5503,"3300": 5.2398,"3325": 4.8827,"3350": 4.3851,"3375": 4.6494,"3400": 3.9654,"3425": 4.4786,"3450": 3.499,"3475": 3.748,"3500": 3.8413,"3525": 3.826,"3550": 3.7013,"3575": 3.0327,"3600": 3.795,"3625": 3.9666,"3650": 3.764,"3675": 3.7328,"3700": 3.3441,"3725": 3.0954,"3750": 3.718,"3775": 3.2357,"3800": 3.298,"3825": 2.8159,"3850": 3.1425,"3875": 3.4076,"3900": 3.2985,"3925": 2.6137,"3950": 2.3649,"3975": 2.2717,"4000": 1.7737,"4025": 1.6493,"4050": 1.6337,"4075": 1.3225,"4100": 0.8869,"4125": 1.0424,"4150": 0.9647,"4175": 0.638,"4200": 0.638,"4225": 0.5447,"4250": 0.638,"4275": 0.3735,"4300": 0.3735,"4325": 0.3424,"4350": 0.1712,"4375": 0.249,"4400": 0.0156,"4425": 0.0311,"4450": 0.0311,"4475": 0.0623,"4500": 0.0311,"4525": 0.0778,"4550": 0.0156,"4575": 0.0311}}}