{"type": "Feature","bbox": [46.4717,42.46,46.9266,42.6601],"geometry": {"type": "MultiPolygon","coordinates": [[[[46.5176,42.5273,2400.5264],[46.6331,42.5097,1229.7056],[46.6479,42.4987,1150.2264],[46.6609,42.4654,1187.188],[46.6889,42.4605,1015.0337],[46.7248,42.46,1192.5715],[46.7676,42.4619,1560.9838],[46.7762,42.4893,736.8024],[46.7974,42.4894,1005.9097],[46.8206,42.4866,980.8286],[46.8477,42.4715,711.5765],[46.8636,42.4708,698.8945],[46.9192,42.5036,1222.7686],[46.9266,42.5137,1324.3687],[46.9201,42.5421,666.9676],[46.886,42.5695,1200.0852],[46.8475,42.5834,1667.1854],[46.6708,42.6387,2023.4044],[46.6439,42.6438,1856.1068],[46.6306,42.6416,1595.3296],[46.615,42.6548,1499.1273],[46.5957,42.6601,1311.5773],[46.5588,42.6567,1054.4526],[46.5292,42.6508,1220.9246],[46.5169,42.6351,977.012],[46.4796,42.6053,1506.4583],[46.4717,42.5793,2166.7231],[46.5,42.5578,2675.2629],[46.5182,42.5387,2654.3992],[46.5176,42.5273,2400.5264]]]]}
,"properties": {"GID_2": "RUS.15.25_1","GID_0": "RUS","country": "Russia","GID_1": "RUS.15_1","province": "Dagestan","NL_NAME_1": "РеспубликаДагестан","county": "Khunzakhskiyrayon","VARNAME_2": "NA","NL_NAME_2": "Хунзахскийрайон","TYPE_2": "Raion","ENGTYPE_2": "District","CC_2": "R39003","HASC_2": "RU.DA.KH","name": "Khunzakhskiyrayon.county","area_km2": 498.9841,"hist_schema_id": "Elevation0-9000","hist_area_km2": {"600": 0.2812,"625": 0.7188,"650": 1.1409,"675": 1.1878,"700": 1.3911,"725": 1.5943,"750": 2.1729,"775": 4.9088,"800": 5.8784,"825": 3.8615,"850": 4.2991,"875": 4.3304,"900": 4.4398,"925": 5.3308,"950": 5.2839,"975": 5.0333,"1000": 5.4858,"1025": 5.7038,"1050": 6.0158,"1075": 5.0618,"1100": 5.4834,"1125": 5.4051,"1150": 5.1862,"1175": 5.5604,"1200": 5.0604,"1225": 5.8409,"1250": 6.1222,"1275": 5.1857,"1300": 5.4511,"1325": 4.9041,"1350": 4.8105,"1375": 5.3568,"1400": 5.5598,"1425": 5.6226,"1450": 6.2782,"1475": 6.7153,"1500": 6.6526,"1525": 6.5587,"1550": 6.8557,"1575": 6.0588,"1600": 6.5737,"1625": 7.151,"1650": 8.2908,"1675": 10.7581,"1700": 14.2397,"1725": 13.9578,"1750": 14.661,"1775": 13.2871,"1800": 13.5678,"1825": 15.0668,"1850": 15.2225,"1875": 12.9903,"1900": 11.8981,"1925": 11.9764,"1950": 13.07,"1975": 11.2903,"2000": 10.4003,"2025": 8.979,"2050": 7.6976,"2075": 5.6039,"2100": 5.3073,"2125": 5.0424,"2150": 4.7616,"2175": 4.6365,"2200": 4.5434,"2225": 3.9345,"2250": 3.7941,"2275": 3.1074,"2300": 3.1699,"2325": 3.498,"2350": 3.186,"2375": 3.7169,"2400": 2.9517,"2425": 3.1394,"2450": 2.9206,"2475": 2.8115,"2500": 1.9681,"2525": 2.4054,"2550": 1.9056,"2575": 1.562,"2600": 1.2026,"2625": 1.2183,"2650": 1.4681,"2675": 2.374,"2700": 2.5147,"2725": 3.5302,"2750": 1.89,"2775": 0.906,"2800": 0.0469}}}