{"type": "Feature","bbox": [46.5211,56.2585,46.5359,56.2702],"geometry": {"type": "MultiPolygon","coordinates": [[[[46.5341,56.2595,153.3353],[46.5359,56.2646,142.111],[46.5312,56.2702,161.9379],[46.5211,56.2666,133.2342],[46.5268,56.2585,162.4284],[46.5341,56.2595,153.3353]]]]}
,"properties": {"GID_2": "RUS.41.4_1","GID_0": "RUS","country": "Russia","GID_1": "RUS.41_1","province": "Mariy-El","NL_NAME_1": "РеспубликаМарийЭл","county": "Koz'modem'yansk","VARNAME_2": "Kozmodemyansk","NL_NAME_2": "Козьмодемьянск","TYPE_2": "Gorod","ENGTYPE_2": "City","CC_2": "NA","HASC_2": "RU.ME.KO","name": "Koz'modem'yansk.county","area_km2": 0.7182726,"hist_schema_id": "Elevation0-9000","hist_area_km2": {"125": 0.2354937,"150": 0.4827788}}}