{"type": "Feature","bbox": [56.9505,57.4202,56.9791,57.438],"geometry": {"type": "MultiPolygon","coordinates": [[[[56.979,57.4217,164.4788],[56.9791,57.4361,118.7775],[56.9613,57.438,119.6089],[56.9535,57.434,123.0029],[56.9505,57.4265,145.0778],[56.966,57.4202,149.7997],[56.979,57.4217,164.4788]]]]}
,"properties": {"GID_2": "RUS.55.30_1","GID_0": "RUS","country": "Russia","GID_1": "RUS.55_1","province": "Perm'","NL_NAME_1": "Пермскаякрай","county": "Kungur","VARNAME_2": "NA","NL_NAME_2": "Кунгур","TYPE_2": "Gorod","ENGTYPE_2": "City","CC_2": "NA","HASC_2": "RU.PE.KG","name": "Kungur.county","area_km2": 2.73937,"hist_schema_id": "Elevation0-9000","hist_area_km2": {"100": 0.011413,"125": 1.084207,"150": 1.62092,"175": 0.02283}}}