{"type": "Feature","bbox": [41.3418,56.8253,41.4152,56.8627],"geometry": {"type": "MultiPolygon","coordinates": [[[[41.4152,56.8309,104.2995],[41.3968,56.858,105.5135],[41.3537,56.8627,94.8156],[41.3418,56.8427,106.8145],[41.3493,56.8253,109.296],[41.4152,56.8309,104.2995]]]]}
,"properties": {"GID_2": "RUS.19.18_1","GID_0": "RUS","country": "Russia","GID_1": "RUS.19_1","province": "Ivanovo","NL_NAME_1": "Ивановскаяобласть","county": "Shuya","VARNAME_2": "NA","NL_NAME_2": "Шуя","TYPE_2": "Gorod","ENGTYPE_2": "City","CC_2": "NA","HASC_2": "RU.IV.SG","name": "Shuya.county","area_km2": 13.12692,"hist_schema_id": "Elevation0-9000","hist_area_km2": {"75": 0.17394,"100": 12.75585,"125": 0.19713}}}