{"type": "Feature","bbox": [36.7814,56.6733,36.8083,56.6884],"geometry": {"type": "MultiPolygon","coordinates": [[[[36.8024,56.6747,139.5047],[36.8083,56.6839,138.0385],[36.7947,56.6884,159.7371],[36.7814,56.6822,130.1821],[36.7924,56.6733,139.7009],[36.8024,56.6747,139.5047]]]]}
,"properties": {"GID_2": "RUS.72.15_1","GID_0": "RUS","country": "Russia","GID_1": "RUS.72_1","province": "Tver'","NL_NAME_1": "Тверскаяобласть","county": "Konakovo","VARNAME_2": "NA","NL_NAME_2": "Конаково","TYPE_2": "Gorod","ENGTYPE_2": "City","CC_2": "NA","HASC_2": "RU.TV.KG","name": "Konakovo.county","area_km2": 1.677086,"hist_schema_id": "Elevation0-9000","hist_area_km2": {"125": 1.141357,"150": 0.535728}}}