{"type": "Feature","bbox": [32.144419512591526,62.274022329285259,32.149129338625642,62.276082878175174],"geometry": {"type": "Polygon","coordinates": [[[32.149129338625642,62.274022329285259,147.4655],[32.144419512591526,62.276082878175174,144.5094],[32.144419512591526,62.27578851404806,144.5094],[32.145008240845783,62.275494149920917,144.5094],[32.145302604972926,62.275199785793774,146.1594],[32.147068789735727,62.274611057539516,146.1594],[32.149129338625642,62.274022329285259,147.4655]]]}
,"properties": {"featurecla": "Lake","scalerank": 9,"name": "null551","name_abb": null,"name_alt": null,"note": "_untitled_189","delta": null,"dam_name": null,"year": -99,"admin": null,"min_zoom": 7.0,"min_label": 8.0,"area_km2": 0.009863867,"hist_schema_id": "Elevation0-9000","hist_area_km2": {"150": 0.009863867}}}