{"type": "Feature","bbox": [34.052487784659007,61.916664278947422,34.133437919620206,61.94404014277066],"geometry": {"type": "Polygon","coordinates": [[[34.120191533899288,61.932854305939657,42.0],[34.098997316745823,61.94404014277066,42.0],[34.106062055796968,61.937858496100887,42.0],[34.089577664677591,61.9408021373722,42.0],[34.067500355142727,61.939624680863687,42.0],[34.052487784659007,61.9322655776854,70.8766],[34.057491974820238,61.916664278947422,70.3199],[34.116070436119458,61.91813609958308,60.9332],[34.133437919620206,61.916664278947422,42.0],[34.127845001204719,61.926083931015626,42.0],[34.120191533899288,61.932854305939657,42.0]]]}
,"properties": {"featurecla": "Lake","scalerank": 9,"name": "null523","name_abb": null,"name_alt": null,"note": "_untitled_220","delta": null,"dam_name": null,"year": -99,"admin": null,"min_zoom": 7.0,"min_label": 8.0,"area_km2": 8.730235,"hist_schema_id": "Elevation0-9000","hist_area_km2": {"50": 8.251233,"75": 0.479002}}}