{"type": "Feature","id": 33460.0,"bbox": [33.769053581646233,62.978033758587827,33.862071159771233,63.042242742962827],"geometry": {"type": "Polygon","coordinates": [[[33.769908073833733,62.980719305462827,149.5881],[33.769908073833733,62.980719305462827,149.5881],[33.774668816021233,62.980108953900327,149.8155],[33.802256706646233,62.978033758587827,156.5554],[33.832286003521233,62.982489324994077,149.8056],[33.843272331646233,62.986944891400327,160.9154],[33.862071159771233,63.011603094525327,154.9383],[33.849009636333733,63.042242742962827,148.0379],[33.822276237896233,63.035650946087827,159.2724],[33.802012566021233,63.025580145306577,160.733],[33.779185417583733,63.021124578900327,157.2178],[33.769053581646233,62.998785711712827,149.172],[33.769908073833733,62.980719305462827,149.5881]]]}
,"properties": {"name": null,"lge_id": null,"pfafstette": 4471.0,"lke_type": "N","altitude": 0,"objectid": 20069,"scalerank": 12,"featurecla": "Lake","note": "_untitled_20069","funkyname": 0,"min_zoom": 7.0,"min_label": 8.0,"area_km2": 23.03841,"hist_schema_id": "Elevation0-9000","hist_area_km2": {"125": 0.14421,"150": 20.22803,"175": 2.66617}}}