{"type": "Feature","id": 50806.0,"bbox": [31.667246941021233,62.003668524212827,31.746104362896233,62.052740789837827],"geometry": {"type": "Polygon","coordinates": [[[31.689707878521233,62.042975164837827,161.2259],[31.689707878521233,62.042975164837827,161.2259],[31.670298698833733,62.037298895306577,151.0],[31.667246941021233,62.023321844525327,151.0],[31.701182487896233,62.003668524212827,151.0],[31.737559441021233,62.010870672650327,151.0],[31.746104362896233,62.033453680462827,157.8694],[31.723155144146233,62.050055242962827,160.9304],[31.699961784771233,62.052740789837827,156.7255],[31.689707878521233,62.042975164837827,161.2259]]]}
,"properties": {"name": null,"lge_id": null,"pfafstette": 424593.0,"lke_type": "N","altitude": 0,"objectid": 26930,"scalerank": 12,"featurecla": "Lake","note": "_untitled_26930","funkyname": 0,"min_zoom": 7.0,"min_label": 8.0,"area_km2": 15.12589,"hist_schema_id": "Elevation0-9000","hist_area_km2": {"150": 14.05214,"175": 1.07375}}}