{"type": "Feature","bbox": [39.719,47.0698,39.8455,47.2176],"geometry": {"type": "MultiPolygon","coordinates": [[[[39.8378,47.0817,44.2935],[39.8455,47.0894,20.8705],[39.8065,47.1917,-0.4837],[39.7674,47.2176,5.7687],[39.719,47.1943,1.1873],[39.7487,47.1331,5.2101],[39.8143,47.0698,57.0787],[39.8378,47.0817,44.2935]]]]}
,"properties": {"GID_2": "RUS.58.5_1","GID_0": "RUS","country": "Russia","GID_1": "RUS.58_1","province": "Rostov","NL_NAME_1": "Ростовскаяобласть","county": "Bataysk","VARNAME_2": "NA","NL_NAME_2": "Батайск","TYPE_2": "Gorod","ENGTYPE_2": "City","CC_2": "NA","HASC_2": "RU.RO.BT","name": "Bataysk.county","area_km2": 79.84263,"hist_schema_id": "Elevation0-9000","hist_area_km2": {"0": 66.89514,"25": 9.43908,"50": 3.50841}}}