{"type": "Feature","bbox": [43.7317,52.237,43.8763,52.2934],"geometry": {"type": "MultiPolygon","coordinates": [[[[43.8763,52.2839,213.3301],[43.7521,52.2934,198.518],[43.7317,52.2475,179.7241],[43.8367,52.237,212.9979],[43.8763,52.2839,213.3301]]]]}
,"properties": {"GID_2": "RUS.63.40_1","GID_0": "RUS","country": "Russia","GID_1": "RUS.63_1","province": "Saratov","NL_NAME_1": "Саратовскаяобласть","county": "Rtishchevo","VARNAME_2": "NA","NL_NAME_2": "Ртищево","TYPE_2": "Gorod","ENGTYPE_2": "City","CC_2": "NA","HASC_2": "RU.SR.RG","name": "Rtishchevo.county","area_km2": 42.49536,"hist_schema_id": "Elevation0-9000","hist_area_km2": {"175": 4.0216,"200": 20.79964,"225": 17.67411}}}