{"type": "Feature","bbox": [44.3238,42.712,44.9804,43.1337],"geometry": {"type": "MultiPolygon","coordinates": [[[[44.5233,42.7512,3604.6401],[44.5722,42.9356,1240.2935],[44.6198,43.0214,687.4459],[44.6853,43.0482,668.8022],[44.7279,42.9745,903.611],[44.6851,42.9591,754.0374],[44.6192,42.8784,1251.524],[44.6289,42.8744,904.52],[44.6161,42.7873,1766.6024],[44.6567,42.7498,2714.4956],[44.6771,42.7479,2855.7607],[44.6794,42.7528,3233.3008],[44.6745,42.7905,2097.9829],[44.6886,42.8339,1473.1062],[44.7145,42.8562,2580.7432],[44.7384,42.8494,2494.9717],[44.7246,42.8337,1597.0437],[44.7317,42.819,1449.9227],[44.751,42.8058,1240.1613],[44.7941,42.7895,1593.3049],[44.8516,42.7888,2180.5356],[44.88,42.7954,1381.8564],[44.914,42.8174,1315.5836],[44.9201,42.8369,1246.7394],[44.9464,42.8565,1882.4852],[44.9804,42.8854,1729.6228],[44.9749,42.9077,949.1335],[44.9639,42.936,1307.4376],[44.9418,42.9563,1054.5591],[44.9463,42.9943,1130.0846],[44.9394,43.0201,1011.2126],[44.9295,43.0446,874.9626],[44.8859,43.0725,899.1349],[44.8623,43.0853,853.1484],[44.8362,43.1055,772.3485],[44.8157,43.1108,686.5068],[44.7918,43.12,606.892],[44.775,43.1337,596.9193],[44.7704,43.0979,618.9661],[44.759,43.0468,666.1775],[44.7479,43.0416,683.9186],[44.7304,43.0537,662.4178],[44.7211,43.0698,640.7057],[44.7037,43.079,624.9044],[44.6796,43.0773,634.8669],[44.6537,43.0655,642.317],[44.6244,43.0454,651.5004],[44.5715,42.9963,723.0405],[44.5724,42.9746,768.0378],[44.5472,42.9551,1193.4724],[44.5467,42.9237,944.6081],[44.5427,42.9084,1118.3583],[44.5133,42.893,1366.0503],[44.4966,42.8929,1893.873],[44.4661,42.896,1298.5417],[44.4391,42.8887,2071.0283],[44.4108,42.8535,1949.7892],[44.3891,42.831,1723.115],[44.3621,42.8117,2063.2397],[44.3622,42.7951,2030.781],[44.3828,42.7794,2502.8987],[44.3747,42.763,2493.3831],[44.3238,42.7348,3459.793],[44.3396,42.7154,3732.3186],[44.3591,42.7158,3530.4614],[44.4049,42.712,3946.7202],[44.4243,42.7175,4287.5244],[44.474,42.7436,2689.7979],[44.4913,42.7493,2716.3926],[44.5062,42.7516,3769.8613],[44.5233,42.7512,3604.6401]]]]}
,"properties": {"GID_2": "RUS.48.8_1","GID_0": "RUS","country": "Russia","GID_1": "RUS.48_1","province": "NorthOssetia","NL_NAME_1": "РеспубликаСевернаяОсетия-Алани","county": "Prigorodskiyrayon","VARNAME_2": "NA","NL_NAME_2": "Пригородныйрайон","TYPE_2": "Raion","ENGTYPE_2": "District","CC_2": "R41000","HASC_2": "RU.NO.PG","name": "Prigorodskiyrayon.county","area_km2": 1003.0974,"hist_schema_id": "Elevation0-9000","hist_area_km2": {"600": 2.5226,"625": 13.3773,"650": 28.4395,"675": 30.3989,"700": 17.8498,"725": 14.7358,"750": 12.9861,"775": 14.6486,"800": 19.8794,"825": 22.9846,"850": 24.1981,"875": 24.7767,"900": 24.5636,"925": 24.9835,"950": 24.1458,"975": 23.7581,"1000": 22.2538,"1025": 20.5482,"1050": 19.4016,"1075": 18.1602,"1100": 16.579,"1125": 14.8252,"1150": 13.3826,"1175": 11.862,"1200": 11.3652,"1225": 10.1095,"1250": 9.6135,"1275": 9.2423,"1300": 9.0407,"1325": 9.2123,"1350": 9.0115,"1375": 9.4318,"1400": 10.6288,"1425": 9.9924,"1450": 11.0032,"1475": 11.0968,"1500": 11.0816,"1525": 11.4702,"1550": 11.657,"1575": 11.16,"1600": 10.881,"1625": 11.3168,"1650": 10.8196,"1675": 9.949,"1700": 10.5558,"1725": 10.7426,"1750": 10.432,"1775": 10.3853,"1800": 9.9192,"1825": 9.7013,"1850": 9.3593,"1875": 9.4529,"1900": 8.6438,"1925": 8.4577,"1950": 8.0378,"1975": 8.3173,"2000": 7.2604,"2025": 7.1983,"2050": 7.027,"2075": 6.7164,"2100": 6.0787,"2125": 6.0323,"2150": 5.9235,"2175": 6.1567,"2200": 5.1154,"2225": 5.3172,"2250": 5.0377,"2275": 4.8044,"2300": 4.4469,"2325": 4.8826,"2350": 4.2761,"2375": 3.8876,"2400": 4.0275,"2425": 3.5613,"2450": 3.53,"2475": 3.0327,"2500": 3.328,"2525": 3.4525,"2550": 2.8617,"2575": 2.7062,"2600": 3.0952,"2625": 2.644,"2650": 2.7217,"2675": 2.6442,"2700": 2.4421,"2725": 2.551,"2750": 2.6136,"2775": 2.6912,"2800": 2.4113,"2825": 2.4581,"2850": 2.0226,"2875": 2.0694,"2900": 2.054,"2925": 1.914,"2950": 1.8361,"2975": 2.1788,"3000": 2.0857,"3025": 1.9923,"3050": 1.9146,"3075": 1.79,"3100": 1.6344,"3125": 1.5879,"3150": 1.9148,"3175": 1.9459,"3200": 1.5725,"3225": 2.3508,"3250": 1.8373,"3275": 1.8528,"3300": 2.2575,"3325": 1.8528,"3350": 1.6037,"3375": 1.5103,"3400": 1.6037,"3425": 1.4636,"3450": 1.697,"3475": 1.6037,"3500": 1.2768,"3525": 1.2768,"3550": 1.6973,"3575": 1.3235,"3600": 1.1211,"3625": 1.1523,"3650": 1.308,"3675": 1.199,"3700": 1.1679,"3725": 1.308,"3750": 1.09,"3775": 1.0588,"3800": 0.981,"3825": 0.9654,"3850": 0.9032,"3875": 1.0122,"3900": 0.9344,"3925": 0.7474,"3950": 0.5606,"3975": 0.7942,"4000": 0.4516,"4025": 0.6229,"4050": 0.5139,"4075": 0.3426,"4100": 0.436,"4125": 0.2647,"4150": 0.5606,"4175": 0.4049,"4200": 0.4516,"4225": 0.3893,"4250": 0.2025,"4275": 0.2647,"4300": 0.2025,"4325": 0.2025,"4350": 0.1713,"4375": 0.1557,"4400": 0.1557,"4425": 0.2181,"4450": 0.1869,"4475": 0.0935,"4500": 0.1246,"4525": 0.0935,"4550": 0.0467,"4575": 0.0467,"4600": 0.0623,"4625": 0.0156,"4650": 0.0156,"4675": 0.0312,"4700": 0.0156,"4725": 0.0312,"4750": 0.0156}}}