{"type": "Feature","bbox": [46.5266,41.8871,47.0107,42.3645],"geometry": {"type": "MultiPolygon","coordinates": [[[[46.936,42.1964,2752.1213],[46.9178,42.2093,2658.7788],[46.8684,42.239,1998.042],[46.8665,42.249,2075.5518],[46.8706,42.2775,1556.042],[46.8614,42.2872,1243.7705],[46.8386,42.2997,2089.3792],[46.8352,42.3131,1822.2172],[46.8382,42.326,1661.0222],[46.8345,42.3406,1806.3071],[46.8209,42.3508,2009.1895],[46.798,42.3645,2095.6399],[46.7318,42.3179,2151.4836],[46.7093,42.2978,2650.4656],[46.6832,42.2899,2480.8074],[46.6631,42.2928,2474.6475],[46.6412,42.2874,2642.1978],[46.6352,42.277,2870.4492],[46.6432,42.2549,2706.8938],[46.632,42.2314,2576.5181],[46.6055,42.2139,2675.8076],[46.5772,42.2025,3163.4075],[46.5611,42.1982,3426.7686],[46.549,42.1779,3744.3708],[46.5266,42.1552,3322.1746],[46.5349,42.1359,3272.168],[46.529,42.1208,2453.3281],[46.5458,42.11,2627.1506],[46.6188,42.1169,3281.4609],[46.6439,42.1118,2840.458],[46.6541,42.1017,2859.5471],[46.6403,42.0906,2967.946],[46.6148,42.0802,2607.6833],[46.6281,42.033,3496.4734],[46.6441,42.0104,3331.4727],[46.6405,41.9897,2501.1326],[46.6417,41.9644,2740.2522],[46.6612,41.9606,3099.2163],[46.6872,41.9622,3070.4382],[46.714,41.9677,3239.4285],[46.733,41.9655,3066.0225],[46.7461,41.9443,3167.3765],[46.7563,41.9229,3146.5278],[46.7571,41.8871,2697.0815],[46.7821,41.9126,2999.6758],[46.7958,41.9218,2987.8274],[46.822,41.9338,3553.676],[46.8486,41.9305,3752.7729],[46.8695,41.9139,3135.209],[46.8893,41.8924,3272.197],[46.9092,41.8895,3105.6118],[46.9425,41.9243,3178.7524],[46.9669,41.9418,3350.7036],[46.9574,41.9933,3273.9954],[46.9565,42.0261,3256.6504],[46.9654,42.0455,3131.6289],[47.0073,42.0755,2810.9941],[47.0107,42.0953,2557.4504],[46.9964,42.1017,2828.2627],[46.9702,42.0995,3235.5029],[46.9489,42.0939,2874.1587],[46.9363,42.0972,2734.3088],[46.9408,42.1091,2987.5586],[46.9458,42.1303,2972.7075],[46.9467,42.1765,2741.8442],[46.936,42.1964,2752.1213]]]]}
,"properties": {"GID_2": "RUS.15.9_1","GID_0": "RUS","country": "Russia","GID_1": "RUS.15_1","province": "Dagestan","NL_NAME_1": "РеспубликаДагестан","county": "Charodinskiyrayon","VARNAME_2": "NA","NL_NAME_2": "Чародинскийрайон","TYPE_2": "Raion","ENGTYPE_2": "District","CC_2": "R39003","HASC_2": "RU.DA.CH","name": "Charodinskiyrayon.county","area_km2": 1148.5691,"hist_schema_id": "Elevation0-9000","hist_area_km2": {"1200": 0.0157,"1225": 0.0941,"1250": 0.1569,"1275": 0.3922,"1300": 0.6118,"1325": 0.7374,"1350": 1.1141,"1375": 1.334,"1400": 1.5379,"1425": 1.4751,"1450": 2.0089,"1475": 2.1972,"1500": 2.935,"1525": 2.6994,"1550": 3.4688,"1575": 3.7513,"1600": 3.8456,"1625": 4.5049,"1650": 4.8818,"1675": 5.4473,"1700": 5.9338,"1725": 6.2478,"1750": 7.4885,"1775": 8.0232,"1800": 7.8503,"1825": 8.7768,"1850": 9.2795,"1875": 9.7662,"1900": 10.8347,"1925": 11.2904,"1950": 11.4631,"1975": 11.9346,"2000": 12.2492,"2025": 13.4281,"2050": 13.0979,"2075": 12.6124,"2100": 14.1669,"2125": 13.7602,"2150": 13.8556,"2175": 14.1064,"2200": 14.8787,"2225": 15.4295,"2250": 14.3771,"2275": 16.1704,"2300": 14.6939,"2325": 14.6934,"2350": 15.765,"2375": 15.7189,"2400": 16.003,"2425": 15.5975,"2450": 16.1646,"2475": 16.133,"2500": 16.3397,"2525": 16.2296,"2550": 16.797,"2575": 16.5772,"2600": 16.1207,"2625": 16.5321,"2650": 16.9564,"2675": 17.2262,"2700": 16.581,"2725": 16.52,"2750": 16.9144,"2775": 17.6539,"2800": 16.5223,"2825": 15.784,"2850": 16.2253,"2875": 16.3837,"2900": 16.0861,"2925": 16.872,"2950": 16.0231,"2975": 16.8276,"3000": 15.9453,"3025": 16.1047,"3050": 16.1518,"3075": 16.7809,"3100": 15.5845,"3125": 16.7028,"3150": 15.9468,"3175": 16.483,"3200": 16.1217,"3225": 16.4682,"3250": 15.8706,"3275": 15.8079,"3300": 14.5959,"3325": 14.6903,"3350": 13.8565,"3375": 13.8415,"3400": 11.5249,"3425": 12.4874,"3450": 11.7789,"3475": 10.9443,"3500": 9.938,"3525": 8.9443,"3550": 8.3156,"3575": 7.4021,"3600": 6.0168,"3625": 5.5276,"3650": 4.9933,"3675": 4.3161,"3700": 3.4026,"3725": 2.8989,"3750": 2.3635,"3775": 1.8906,"3800": 1.8595,"3825": 1.8122,"3850": 0.9771,"3875": 1.182,"3900": 0.7094,"3925": 0.6621,"3950": 0.599,"3975": 0.4413,"4000": 0.2522,"4025": 0.1103,"4050": 0.0158,"4075": 0.0473,"4100": 0.0315}}}