{"type": "Feature","bbox": [45.1473,42.7656,45.5486,43.3237],"geometry": {"type": "MultiPolygon","coordinates": [[[[45.2956,43.3194,297.3101],[45.3108,43.3086,254.9382],[45.3086,43.2747,208.329],[45.3019,43.2353,212.2586],[45.3044,43.2045,226.5293],[45.3017,43.1877,231.8039],[45.2573,43.1442,349.7025],[45.2307,43.1152,559.3148],[45.2022,43.0786,676.5023],[45.182,43.0472,766.9957],[45.1676,43.0034,847.0457],[45.1646,42.9766,1239.9539],[45.1581,42.9596,1695.9036],[45.1703,42.9389,1468.302],[45.1965,42.9247,1371.063],[45.2126,42.9099,1532.7814],[45.208,42.8903,1999.3911],[45.191,42.867,2140.3037],[45.1473,42.8263,2436.9797],[45.1487,42.8052,1945.1006],[45.2199,42.7901,2385.7168],[45.2832,42.7925,1756.3899],[45.3734,42.7886,1909.2299],[45.4287,42.7824,1999.3181],[45.4502,42.7708,1459.2654],[45.4753,42.7656,1895.2836],[45.4948,42.7713,1829.2548],[45.5061,42.7824,1929.6992],[45.5079,42.7982,1830.8693],[45.501,42.8125,1680.5449],[45.5302,42.8583,1740.0542],[45.5486,42.8823,888.7518],[45.5431,42.9024,887.84],[45.5201,42.9082,1035.3379],[45.499,42.9177,1016.4401],[45.4509,42.9309,1481.7938],[45.417,42.9541,1515.0487],[45.4218,42.9827,751.2902],[45.4155,42.9937,841.3972],[45.3554,43.0194,769.861],[45.3671,43.0371,679.2695],[45.3868,43.0604,648.7719],[45.4463,43.1161,301.4711],[45.5045,43.1751,205.7697],[45.5116,43.187,194.9716],[45.5172,43.2024,182.8351],[45.5259,43.2182,172.5409],[45.5149,43.2406,160.2044],[45.4975,43.2572,182.5716],[45.4697,43.2698,192.6893],[45.4105,43.2894,237.3701],[45.3879,43.3007,286.6008],[45.3812,43.3146,350.5396],[45.3669,43.3237,361.027],[45.2956,43.3194,297.3101]]]]}
,"properties": {"GID_2": "RUS.10.1_1","GID_0": "RUS","country": "Russia","GID_1": "RUS.10_1","province": "Chechnya","NL_NAME_1": "РеспубликаЧечено-Ингушская","county": "Achkhoy-Martanovskiyrayon","VARNAME_2": "NA","NL_NAME_2": "Ачхой-Мартановскийрайон","TYPE_2": "Raion","ENGTYPE_2": "District","CC_2": "R42020","HASC_2": "RU.CN.AC","name": "Achkhoy-Martanovskiyrayon.county","area_km2": 1153.3437,"hist_schema_id": "Elevation0-9000","hist_area_km2": {"150": 4.4015,"175": 61.5412,"200": 101.0608,"225": 59.719,"250": 38.5622,"275": 27.2642,"300": 21.9631,"325": 16.831,"350": 13.8783,"375": 10.7402,"400": 7.6928,"425": 7.1058,"450": 7.8343,"475": 9.0272,"500": 10.0345,"525": 10.7168,"550": 11.4765,"575": 11.5395,"600": 11.9434,"625": 12.3629,"650": 11.2022,"675": 11.6987,"700": 11.1575,"725": 11.0501,"750": 10.5707,"775": 10.0755,"800": 9.3629,"825": 8.3869,"850": 6.9457,"875": 5.7991,"900": 4.8229,"925": 4.9172,"950": 5.0419,"975": 4.4527,"1000": 4.7016,"1025": 4.7169,"1050": 4.717,"1075": 4.1588,"1100": 4.7173,"1125": 4.6555,"1150": 4.3296,"1175": 4.9967,"1200": 5.3542,"1225": 5.2146,"1250": 5.6185,"1275": 6.2703,"1300": 6.4878,"1325": 7.1091,"1350": 7.7302,"1375": 7.7928,"1400": 8.7243,"1425": 8.7867,"1450": 9.6109,"1475": 9.5953,"1500": 11.8645,"1525": 12.2067,"1550": 12.2241,"1575": 12.8304,"1600": 14.0583,"1625": 15.7829,"1650": 16.1721,"1675": 17.5551,"1700": 16.2195,"1725": 17.2939,"1750": 17.9781,"1775": 18.5228,"1800": 18.104,"1825": 18.9132,"1850": 18.758,"1875": 17.702,"1900": 17.7956,"1925": 17.2683,"1950": 17.1907,"1975": 17.1758,"2000": 15.4349,"2025": 13.9272,"2050": 13.6013,"2075": 12.5912,"2100": 11.4099,"2125": 10.8339,"2150": 9.7935,"2175": 8.5035,"2200": 7.5398,"2225": 5.9388,"2250": 5.1923,"2275": 3.9643,"2300": 3.0315,"2325": 2.2853,"2350": 2.2073,"2375": 1.4769,"2400": 0.8705,"2425": 0.4197,"2450": 0.342,"2475": 0.2332,"2500": 0.1399,"2525": 0.2488,"2550": 0.2799,"2575": 0.171,"2600": 0.171,"2625": 0.1088,"2650": 0.0933,"2675": 0.0466,"2700": 0.0933,"2725": 0.0777,"2750": 0.0622,"2775": 0.0777,"2800": 0.0466,"2825": 0.0466}}}