{"type": "Feature","bbox": [33.4086,69.1641,33.4736,69.1862],"geometry": {"type": "MultiPolygon","coordinates": [[[[33.4432,69.1862,59.6435],[33.4228,69.1842,40.3825],[33.4086,69.1738,38.1433],[33.4316,69.1641,57.8421],[33.456,69.1644,59.2471],[33.4736,69.174,8.7713],[33.4432,69.1862,59.6435]]]]}
,"properties": {"GID_2": "RUS.45.14_1","GID_0": "RUS","country": "Russia","GID_1": "RUS.45_1","province": "Murmansk","NL_NAME_1": "Мурманскаяобласть","county": "PolyarnyeZori","VARNAME_2": "NA","NL_NAME_2": "ПолярныеЗори","TYPE_2": "Gorsovet","ENGTYPE_2": "District","CC_2": "NA","HASC_2": "RU.MM.PZ","name": "Polyarnye_Zori.county","area_km2": 4.017693,"hist_schema_id": "Elevation0-9000","hist_area_km2": {"0": 0.067847,"25": 0.354346,"50": 1.062863,"75": 1.379327,"100": 0.859309,"125": 0.294002}}}