{"type": "Feature","bbox": [45.3846,52.2806,45.4981,52.3353],"geometry": {"type": "MultiPolygon","coordinates": [[[[45.4319,52.2822,207.4337],[45.4981,52.3152,183.7981],[45.3846,52.3353,227.2307],[45.3936,52.2806,196.905],[45.4319,52.2822,207.4337]]]]}
,"properties": {"GID_2": "RUS.63.33_1","GID_0": "RUS","country": "Russia","GID_1": "RUS.63_1","province": "Saratov","NL_NAME_1": "Саратовскаяобласть","county": "Petrovsk","VARNAME_2": "NA","NL_NAME_2": "Петровск","TYPE_2": "Gorod","ENGTYPE_2": "City","CC_2": "NA","HASC_2": "RU.SR.PT","name": "Petrovsk.county","area_km2": 27.14562,"hist_schema_id": "Elevation0-9000","hist_area_km2": {"175": 8.72438,"200": 16.32207,"225": 2.07326,"250": 0.02591}}}