{"type": "Feature","bbox": [36.8137,52.8989,37.3521,53.1585],"geometry": {"type": "MultiPolygon","coordinates": [[[[37.0101,53.1585,246.5768],[36.9105,53.1307,232.8951],[36.8137,53.0388,254.616],[36.9576,52.9495,217.9577],[37.0765,52.8989,234.023],[37.0934,52.9485,181.5189],[37.1749,52.9223,248.259],[37.2109,53.0142,251.2068],[37.237,53.0127,220.1356],[37.2989,52.9593,252.5917],[37.3521,52.98,259.5718],[37.3248,53.0548,238.1991],[37.3091,53.0548,229.1416],[37.1794,53.1323,234.5875],[37.0101,53.1544,244.58],[37.0101,53.1585,246.5768]]]]}
,"properties": {"GID_2": "RUS.52.16_1","GID_0": "RUS","country": "Russia","GID_1": "RUS.52_1","province": "Orel","NL_NAME_1": "Орловскаяобласть","county": "Novosil'skiyrayon","VARNAME_2": "NA","NL_NAME_2": "Новосильскийрайон","TYPE_2": "Raion","ENGTYPE_2": "District","CC_2": "R15001","HASC_2": "RU.OL.NS","name": "Novosil'skiyrayon.county","area_km2": 594.9141,"hist_schema_id": "Elevation0-9000","hist_area_km2": {"150": 7.1656,"175": 84.0096,"200": 98.5542,"225": 187.2383,"250": 195.6023,"275": 21.9494,"300": 0.3947}}}