{"type": "Feature","bbox": [41.3256,52.7087,41.38,52.7488],"geometry": {"type": "MultiPolygon","coordinates": [[[[41.38,52.7413,166.4757],[41.3485,52.7488,169.9966],[41.3256,52.7313,157.7527],[41.3316,52.7133,153.38],[41.3517,52.7087,171.2982],[41.38,52.7413,166.4757]]]]}
,"properties": {"GID_2": "RUS.67.23_1","GID_0": "RUS","country": "Russia","GID_1": "RUS.67_1","province": "Tambov","NL_NAME_1": "Тамбовскаяобласть","county": "Tambov","VARNAME_2": "NA","NL_NAME_2": "Тамбов","TYPE_2": "Gorod","ENGTYPE_2": "City","CC_2": "NA","HASC_2": "RU.TB.TG","name": "Tambov.county","area_km2": 9.539793,"hist_schema_id": "Elevation0-9000","hist_area_km2": {"150": 1.335371,"175": 8.204422}}}