{"type": "Feature","bbox": [45.8377,43.2789,45.8486,43.288],"geometry": {"type": "MultiPolygon","coordinates": [[[[45.8466,43.2815,119.381],[45.8486,43.284,119.6774],[45.8444,43.288,114.9171],[45.8377,43.2829,121.1802],[45.8432,43.2789,120.919],[45.8466,43.2815,119.381]]]]}
,"properties": {"GID_2": "RUS.10.2_1","GID_0": "RUS","country": "Russia","GID_1": "RUS.10_1","province": "Chechnya","NL_NAME_1": "РеспубликаЧечено-Ингушская","county": "Argun","VARNAME_2": "NA","NL_NAME_2": "Аргу́н","TYPE_2": "Gorod","ENGTYPE_2": "City","CC_2": "NA","HASC_2": "RU.CN.AR","name": "Argun.county","area_km2": 0.4630383,"hist_schema_id": "Elevation0-9000","hist_area_km2": {"100": 0.0154336,"125": 0.4476048}}}