{"type": "Feature","bbox": [39.6476,43.79,40.5004,44.7732],"geometry": {"type": "MultiPolygon","coordinates": [[[[40.0487,44.7732,184.5402],[40.0388,44.7588,190.8735],[40.019,44.7427,158.5665],[39.9824,44.7376,152.8073],[39.9168,44.7111,143.6759],[39.9054,44.6963,160.8806],[39.9066,44.6845,190.2049],[39.918,44.6649,212.2395],[39.9201,44.6379,243.785],[39.9039,44.6251,220.6134],[39.8662,44.6207,237.7444],[39.8408,44.5841,317.4965],[39.8667,44.5218,312.1817],[39.8661,44.5059,391.3527],[39.8862,44.4786,355.4341],[39.8958,44.452,343.0711],[39.8919,44.4176,432.6437],[39.8779,44.3909,462.5372],[39.8607,44.3721,338.7835],[39.8696,44.3588,423.6406],[39.9121,44.3344,446.3715],[39.9355,44.3278,399.4647],[39.9817,44.3367,448.8719],[39.9966,44.3243,502.3583],[39.9913,44.3038,532.4041],[40.0055,44.2863,509.8615],[40.0285,44.2738,711.515],[40.0903,44.2741,949.3847],[40.1046,44.259,960.6108],[40.096,44.2365,903.5903],[40.0845,44.1976,1191.9918],[40.0985,44.1659,920.0009],[40.0954,44.1492,972.7656],[40.0183,44.0985,1576.0068],[39.9777,44.092,1566.2946],[39.9465,44.0899,1714.4841],[39.9153,44.1059,1635.1698],[39.8961,44.1571,1120.9468],[39.8715,44.1873,1175.4446],[39.8441,44.2076,660.5128],[39.8052,44.2303,398.7106],[39.7704,44.2286,415.5032],[39.7363,44.2137,459.5523],[39.7121,44.1999,583.4093],[39.7172,44.1784,575.0369],[39.7298,44.1594,839.7665],[39.7361,44.1428,1085.4187],[39.7747,44.1272,1479.8749],[39.7887,44.1139,1297.6443],[39.7935,44.0989,1469.847],[39.7506,44.0906,1091.939],[39.7177,44.0745,538.3023],[39.7077,44.0585,554.0718],[39.7164,44.0424,585.4861],[39.7413,44.0205,1133.6758],[39.6599,43.9976,1218.9001],[39.6476,43.9891,833.2433],[39.6827,43.9637,1271.8547],[39.7314,43.9366,971.4146],[39.7943,43.9363,1496.744],[39.845,43.9433,1166.3929],[39.9049,43.9487,2436.4563],[39.9379,43.9468,1429.5461],[39.9598,43.9382,1459.3506],[40.004,43.9002,1383.6914],[40.0383,43.8807,1135.4689],[40.0803,43.8657,1493.1311],[40.1377,43.8656,1291.0913],[40.1648,43.8671,1198.1915],[40.1851,43.8579,2035.061],[40.1994,43.8473,1969.2935],[40.2175,43.8259,2369.8015],[40.2438,43.8028,2471.0352],[40.2902,43.79,2345.2129],[40.354,43.8088,1930.9768],[40.4013,43.86,2544.1074],[40.429,43.8766,2639.2383],[40.4447,43.8992,2096.5667],[40.4438,43.9237,2228.9304],[40.4482,43.9553,2103.5955],[40.4757,43.9757,2236.4895],[40.482,44.0033,1642.239],[40.463,44.0409,1596.7533],[40.4517,44.0753,1499.2217],[40.4363,44.1147,1150.6041],[40.4177,44.1563,1010.3848],[40.4163,44.1881,1307.2723],[40.4188,44.2171,811.7202],[40.426,44.2494,1008.1543],[40.4753,44.2956,711.9926],[40.4937,44.3224,595.801],[40.5004,44.3591,506.9094],[40.4838,44.4024,548.5629],[40.4525,44.4429,611.9949],[40.4273,44.4786,513.2917],[40.4151,44.5161,341.6417],[40.4021,44.5355,357.9109],[40.375,44.5635,332.0984],[40.3565,44.5881,325.5802],[40.3606,44.6142,302.1259],[40.375,44.6423,264.3523],[40.3872,44.6721,205.2994],[40.3996,44.6969,308.7316],[40.377,44.7128,249.2441],[40.3447,44.7201,201.4724],[40.3042,44.7319,224.3799],[40.2763,44.7448,221.6108],[40.261,44.7567,216.4315],[40.2421,44.7599,214.7216],[40.2233,44.7549,230.2499],[40.2102,44.7418,222.5635],[40.189,44.7252,204.841],[40.1616,44.7118,209.7592],[40.1252,44.7254,194.1189],[40.1215,44.7345,192.0893],[40.1106,44.7462,189.5958],[40.0963,44.7518,203.8394],[40.078,44.7537,199.0725],[40.0487,44.7732,184.5402]],
[[40.1318,44.6005,232.3094],[40.1104,44.5974,230.4563],[40.0954,44.608,222.7264],[40.124,44.6153,224.5043],[40.1318,44.6005,232.3094]]]]}
,"properties": {"GID_2": "RUS.1.5_1","GID_0": "RUS","country": "Russia","GID_1": "RUS.1_1","province": "Adygey","NL_NAME_1": "РеспубликаАдыгея","county": "Maykopskiyrayon","VARNAME_2": "NA","NL_NAME_2": "Майкопскийрайон","TYPE_2": "Raion","ENGTYPE_2": "District","CC_2": "R43010","HASC_2": "RU.AD.MR","name": "Maykopskiyrayon.county","area_km2": 4279.616,"hist_schema_id": "Elevation0-9000","hist_area_km2": {"150": 36.362,"175": 76.147,"200": 117.934,"225": 152.612,"250": 142.299,"275": 151.255,"300": 144.16,"325": 140.884,"350": 140.111,"375": 132.389,"400": 118.898,"425": 107.995,"450": 95.986,"475": 90.954,"500": 88.398,"525": 87.978,"550": 88.071,"575": 85.471,"600": 81.244,"625": 68.805,"650": 61.995,"675": 56.434,"700": 54.643,"725": 54.264,"750": 55.417,"775": 53.355,"800": 51.995,"825": 49.282,"850": 50.02,"875": 48.719,"900": 49.044,"925": 46.377,"950": 45.806,"975": 46.496,"1000": 44.844,"1025": 42.035,"1050": 37.568,"1075": 36.536,"1100": 35.26,"1125": 33.634,"1150": 33.788,"1175": 33.609,"1200": 34.04,"1225": 31.85,"1250": 31.501,"1275": 31.884,"1300": 33.199,"1325": 31.079,"1350": 30.564,"1375": 31.54,"1400": 31.07,"1425": 29.545,"1450": 31.118,"1475": 28.679,"1500": 27.659,"1525": 26.835,"1550": 26.836,"1575": 27.49,"1600": 26.12,"1625": 25.906,"1650": 26.607,"1675": 26.852,"1700": 25.312,"1725": 24.626,"1750": 24.978,"1775": 24.047,"1800": 21.865,"1825": 22.08,"1850": 21.089,"1875": 19.455,"1900": 20.278,"1925": 18.722,"1950": 18.326,"1975": 16.924,"2000": 17.062,"2025": 17.365,"2050": 15.917,"2075": 14.956,"2100": 14.315,"2125": 14.543,"2150": 11.753,"2175": 12.577,"2200": 10.655,"2225": 11.57,"2250": 11.234,"2275": 11.02,"2300": 10.198,"2325": 9.802,"2350": 9.679,"2375": 7.804,"2400": 6.461,"2425": 6.233,"2450": 5.056,"2475": 5.271,"2500": 4.37,"2525": 4.507,"2550": 3.636,"2575": 3.376,"2600": 2.964,"2625": 2.628,"2650": 2.567,"2675": 2.185,"2700": 1.971,"2725": 1.513,"2750": 1.253,"2775": 1.254,"2800": 0.979,"2825": 0.948,"2850": 0.902,"2875": 0.979,"2900": 0.566,"2925": 0.413,"2950": 0.596,"2975": 0.398,"3000": 0.336,"3025": 0.275,"3050": 0.214,"3075": 0.092,"3125": 0.061}}}