{"type": "Feature","bbox": [54.0822,54.0962,54.1095,54.113],"geometry": {"type": "MultiPolygon","coordinates": [[[[54.1011,54.0971,329.8058],[54.1069,54.0999,325.0567],[54.1095,54.1048,320.3849],[54.1078,54.1095,316.0756],[54.1054,54.1112,314.4352],[54.0917,54.113,317.7726],[54.0822,54.1039,348.06],[54.0848,54.0987,375.6936],[54.0913,54.0962,350.4014],[54.1011,54.0971,329.8058]]]]}
,"properties": {"GID_2": "RUS.6.11_1","GID_0": "RUS","country": "Russia","GID_1": "RUS.6_1","province": "Bashkortostan","NL_NAME_1": "РеспубликаБашкортостан","county": "Belebey","VARNAME_2": "NA","NL_NAME_2": "Белебей","TYPE_2": "Gorsovet","ENGTYPE_2": "District","CC_2": "NA","HASC_2": "RU.BK.BE","name": "Belebey.county","area_km2": 2.374334,"hist_schema_id": "Elevation0-9000","hist_area_km2": {"325": 1.466812,"350": 0.584285,"375": 0.323237}}}