{"type": "Feature","bbox": [44.433,43.6134,44.442,43.621],"geometry": {"type": "MultiPolygon","coordinates": [[[[44.442,43.6142,218.7894],[44.441,43.6197,210.0941],[44.4334,43.621,206.7218],[44.433,43.6164,214.9578],[44.4345,43.6134,222.5579],[44.442,43.6142,218.7894]]]]}
,"properties": {"GID_2": "RUS.20.5_1","GID_0": "RUS","country": "Russia","GID_1": "RUS.20_1","province": "Kabardin-Balkar","NL_NAME_1": "Кабардино-БалкарскаяРеспублика","county": "Malgobek","VARNAME_2": "NA","NL_NAME_2": "Малгобек","TYPE_2": "Gorod","ENGTYPE_2": "City","CC_2": "NA","HASC_2": "RU.IN.MG","name": "Malgobek.county","area_km2": 0.4758409,"hist_schema_id": "Elevation0-9000","hist_area_km2": {"200": 0.1534915,"225": 0.3223494}}}