{"type": "Feature","bbox": [39.8866,48.0223,40.0554,48.0908],"geometry": {"type": "MultiPolygon","coordinates": [[[[39.9882,48.0226,237.0785],[40.0554,48.0485,240.5358],[39.9378,48.0908,204.1462],[39.8866,48.0223,258.2687],[39.9882,48.0226,237.0785]]]]}
,"properties": {"GID_2": "RUS.58.13_1","GID_0": "RUS","country": "Russia","GID_1": "RUS.58_1","province": "Rostov","NL_NAME_1": "Ростовскаяобласть","county": "Gukovo","VARNAME_2": "NA","NL_NAME_2": "Гуково","TYPE_2": "Gorsovet","ENGTYPE_2": "District","CC_2": "NA","HASC_2": "RU.RO.GU","name": "Gukovo.county","area_km2": 53.16483,"hist_schema_id": "Elevation0-9000","hist_area_km2": {"200": 0.76488,"225": 5.25614,"250": 22.0711,"275": 24.93098,"300": 0.14174}}}