{"type": "Feature","bbox": [46.7501,42.1964,47.0897,42.5137],"geometry": {"type": "MultiPolygon","coordinates": [[[[46.936,42.1964,2752.1213],[46.9591,42.2167,2227.6499],[46.9691,42.2446,1891.9707],[46.9878,42.2675,1727.223],[47.003,42.2811,1414.4048],[47.0519,42.2996,2218.1289],[47.0638,42.3131,2072.8979],[47.0759,42.3318,1946.5083],[47.0842,42.3527,1804.553],[47.0897,42.4332,1480.0848],[47.0645,42.4221,1523.3474],[47.0392,42.4159,1057.5142],[47.007,42.4153,1463.564],[46.9825,42.4269,858.5121],[46.961,42.4489,1378.9174],[46.9289,42.4784,1289.6694],[46.9266,42.5137,1324.3687],[46.9192,42.5036,1222.7686],[46.8636,42.4708,698.8945],[46.8477,42.4715,711.5765],[46.8206,42.4866,980.8286],[46.7974,42.4894,1005.9097],[46.7762,42.4893,736.8024],[46.7724,42.4743,1076.8337],[46.797,42.4467,1808.6925],[46.8078,42.4384,1443.261],[46.7745,42.4266,2105.8369],[46.7501,42.4145,1710.6289],[46.7566,42.4018,2045.0007],[46.7787,42.3795,2075.7466],[46.798,42.3645,2095.6399],[46.8209,42.3508,2009.1895],[46.8345,42.3406,1806.3071],[46.8382,42.326,1661.0222],[46.8352,42.3131,1822.2172],[46.8386,42.2997,2089.3792],[46.8614,42.2872,1243.7705],[46.8706,42.2775,1556.042],[46.8665,42.249,2075.5518],[46.8684,42.239,1998.042],[46.9178,42.2093,2658.7788],[46.936,42.1964,2752.1213]]]]}
,"properties": {"GID_2": "RUS.15.16_1","GID_0": "RUS","country": "Russia","GID_1": "RUS.15_1","province": "Dagestan","NL_NAME_1": "РеспубликаДагестан","county": "Gunibskiyrayon","VARNAME_2": "NA","NL_NAME_2": "Гунибскийрайон","TYPE_2": "Raion","ENGTYPE_2": "District","CC_2": "R39001","HASC_2": "RU.DA.GN","name": "Gunibskiyrayon.county","area_km2": 502.7038,"hist_schema_id": "Elevation0-9000","hist_area_km2": {"650": 0.0469,"675": 0.2502,"700": 0.5786,"725": 1.7045,"750": 1.3762,"775": 1.47,"800": 1.4388,"825": 1.7829,"850": 3.1129,"875": 3.5042,"900": 4.0834,"925": 4.6315,"950": 5.3986,"975": 5.6336,"1000": 5.9786,"1025": 6.8245,"1050": 6.6999,"1075": 7.5142,"1100": 7.2955,"1125": 7.7029,"1150": 7.7816,"1175": 9.0504,"1200": 10.1472,"1225": 10.304,"1250": 11.5101,"1275": 12.3412,"1300": 12.514099999999999,"1325": 11.8248,"1350": 11.4025,"1375": 11.7002,"1400": 12.594,"1425": 11.8256,"1450": 11.8417,"1475": 12.0455,"1500": 11.701,"1525": 11.3407,"1550": 11.2164,"1575": 11.2009,"1600": 10.6536,"1625": 10.4191,"1650": 10.8885,"1675": 10.9838,"1700": 11.0935,"1725": 10.7337,"1750": 10.9219,"1775": 11.0003,"1800": 11.1415,"1825": 11.3143,"1850": 10.7823,"1875": 9.3251,"1900": 8.9649,"1925": 8.3067,"1950": 7.6641,"1975": 6.6297,"2000": 5.4236,"2025": 5.4085,"2050": 5.2055,"2075": 4.8134,"2100": 3.7007,"2125": 3.3715,"2150": 3.2152,"2175": 2.9799,"2200": 2.682,"2225": 2.6351,"2250": 2.2906,"2275": 2.2596,"2300": 1.8362,"2325": 1.5852,"2350": 1.46,"2375": 1.5071,"2400": 1.256,"2425": 1.0519,"2450": 1.2874,"2475": 1.1932,"2500": 1.1304,"2525": 0.9734,"2550": 0.8793,"2575": 0.8165,"2600": 0.5653,"2625": 0.6281,"2650": 0.3298,"2675": 0.4868,"2700": 0.2826,"2725": 0.2826,"2750": 0.2041,"2775": 0.1727,"2800": 0.2512,"2825": 0.2041,"2850": 0.0628,"2875": 0.0314,"2900": 0.0471}}}