{"type": "Feature","bbox": [39.5457,50.1772,39.6827,50.2261],"geometry": {"type": "MultiPolygon","coordinates": [[[[39.6596,50.2139,164.4719],[39.6186,50.2248,131.3761],[39.5457,50.2261,114.5973],[39.5542,50.2099,86.5527],[39.6827,50.1772,131.7102],[39.6596,50.2139,164.4719]]]]}
,"properties": {"GID_2": "RUS.79.29_1","GID_0": "RUS","country": "Russia","GID_1": "RUS.79_1","province": "Voronezh","NL_NAME_1": "Воронежскаяобласть","county": "Rossosh'","VARNAME_2": "NA","NL_NAME_2": "Россошь","TYPE_2": "Gorsovet","ENGTYPE_2": "District","CC_2": "NA","HASC_2": "RU.VR.RG","name": "Rossosh'.county","area_km2": 25.49745,"hist_schema_id": "Elevation0-9000","hist_area_km2": {"75": 5.38613,"100": 4.98005,"125": 10.40885,"150": 4.5189,"175": 0.20353}}}