{"type": "Feature","bbox": [46.7535,51.6915,46.7732,51.7057],"geometry": {"type": "MultiPolygon","coordinates": [[[[46.7708,51.6935,22.9168],[46.7732,51.7001,23.4057],[46.7674,51.7057,24.099],[46.7535,51.7021,21.6232],[46.7536,51.693,26.7019],[46.7577,51.6915,25.7212],[46.7708,51.6935,22.9168]]]]}
,"properties": {"GID_2": "RUS.63.27_1","GID_0": "RUS","country": "Russia","GID_1": "RUS.63_1","province": "Saratov","NL_NAME_1": "Саратовскаяобласть","county": "Marks","VARNAME_2": "NA","NL_NAME_2": "Маркс","TYPE_2": "Gorod","ENGTYPE_2": "City","CC_2": "NA","HASC_2": "RU.SR.MG","name": "Marks.county","area_km2": 1.62951,"hist_schema_id": "Elevation0-9000","hist_area_km2": {"25": 1.62951}}}