{"type": "Feature","bbox": [28.2802,59.3677,28.2987,59.3785],"geometry": {"type": "MultiPolygon","coordinates": [[[[28.2854,59.3704,26.814],[28.2891,59.3677,29.7449],[28.2983,59.37,22.1446],[28.2987,59.3749,22.5093],[28.2945,59.3785,18.2817],[28.2802,59.3759,21.2153],[28.2854,59.3704,26.814]]]]}
,"properties": {"GID_2": "RUS.38.5_1","GID_0": "RUS","country": "Russia","GID_1": "RUS.38_1","province": "Leningrad","NL_NAME_1": "Ленинградскаяобласть","county": "Ivangorod","VARNAME_2": "NA","NL_NAME_2": "Ивангород","TYPE_2": "Gorod","ENGTYPE_2": "City","CC_2": "NA","HASC_2": "RU.LN.IV","name": "Ivangorod.county","area_km2": 0.8208978,"hist_schema_id": "Elevation0-9000","hist_area_km2": {"25": 0.8208978}}}