{"type": "Feature","bbox": [46.6439,42.5631,47.0815,42.8706],"geometry": {"type": "MultiPolygon","coordinates": [[[[46.8698,42.8686,647.6207],[46.8555,42.8371,544.8112],[46.8099,42.7864,422.3704],[46.7757,42.7563,1125.3367],[46.7342,42.7618,844.9335],[46.7055,42.75,1759.7024],[46.6717,42.7285,1658.4825],[46.6487,42.7098,1344.1836],[46.6462,42.6963,1466.2622],[46.6602,42.6793,1728.8988],[46.6752,42.6686,2011.6504],[46.6439,42.6438,1856.1068],[46.6708,42.6387,2023.4044],[46.7206,42.6222,2055.7063],[46.7786,42.6054,2075.0227],[46.8475,42.5834,1667.1854],[46.8989,42.5645,1118.0645],[46.914,42.5697,1184.2853],[46.9602,42.5631,573.0652],[46.9782,42.5814,722.4832],[46.9918,42.598,726.8118],[47.0136,42.6048,1299.2432],[47.0421,42.6054,1568.401],[47.0776,42.6168,1649.8511],[47.0815,42.6292,1950.9021],[47.0692,42.6384,2109.9343],[47.0176,42.6465,1496.8629],[47.0106,42.6569,1218.3964],[47.0049,42.6825,1376.9346],[46.9455,42.7212,1647.1958],[46.8661,42.7809,1831.5985],[46.8688,42.7963,1587.3992],[46.8881,42.8485,1218.803],[46.8875,42.8706,453.723],[46.8698,42.8686,647.6207]]]]}
,"properties": {"GID_2": "RUS.15.47_1","GID_0": "RUS","country": "Russia","GID_1": "RUS.15_1","province": "Dagestan","NL_NAME_1": "РеспубликаДагестан","county": "Untsukul'skiyrayon","VARNAME_2": "NA","NL_NAME_2": "Унцукульскийрайон","TYPE_2": "Raion","ENGTYPE_2": "District","CC_2": "R39003","HASC_2": "RU.DA.UN","name": "Untsukul'skiyrayon.county","area_km2": 538.1638,"hist_schema_id": "Elevation0-9000","hist_area_km2": {"325": 0.3263,"350": 1.229,"375": 1.9298,"400": 1.603,"425": 2.039,"450": 2.0861,"475": 1.9147,"500": 2.1015,"525": 18.927,"550": 6.9228,"575": 6.3757,"600": 6.5315,"625": 6.2203,"650": 6.8755,"675": 6.7663,"700": 6.5785,"725": 6.75,"750": 6.5475,"775": 6.7653,"800": 7.2329,"825": 7.2486,"850": 8.3398,"875": 7.1544,"900": 8.7126,"925": 8.5869,"950": 8.1814,"975": 8.1502,"1000": 8.1971,"1025": 8.1816,"1050": 8.3056,"1075": 8.0878,"1100": 7.9163,"1125": 8.1974,"1150": 8.4934,"1175": 7.2318,"1200": 7.4342,"1225": 7.9956,"1250": 7.4347,"1275": 8.2142,"1300": 7.6374,"1325": 7.2006,"1350": 6.7955,"1375": 6.6235,"1400": 6.2805,"1425": 6.9499,"1450": 6.8717,"1475": 6.5919,"1500": 6.9816,"1525": 6.2959,"1550": 6.4676,"1575": 6.5613,"1600": 7.1228,"1625": 7.3408,"1650": 6.7952,"1675": 7.6834,"1700": 7.777,"1725": 8.8212,"1750": 9.8799,"1775": 10.1758,"1800": 9.398,"1825": 8.4473,"1850": 8.7912,"1875": 7.6535,"1900": 7.748,"1925": 7.1406,"1950": 7.3745,"1975": 6.1123,"2000": 6.4713,"2025": 5.3333,"2050": 5.0531,"2075": 5.818,"2100": 6.1776,"2125": 5.4913,"2150": 5.1943,"2175": 5.1941,"2200": 7.1592,"2225": 8.2349,"2250": 8.0639,"2275": 1.9968,"2300": 0.5149,"2325": 0.156}}}