{"type": "Feature","bbox": [43.0221,44.0076,43.1225,44.0827],"geometry": {"type": "MultiPolygon","coordinates": [[[[43.1225,44.0708,467.7465],[43.0686,44.0827,592.4786],[43.0336,44.0758,689.8741],[43.0221,44.0226,530.6422],[43.122,44.0076,554.9312],[43.1225,44.0708,467.7465]]]]}
,"properties": {"GID_2": "RUS.65.28_1","GID_0": "RUS","country": "Russia","GID_1": "RUS.65_1","province": "Stavropol'","NL_NAME_1": "Ставропольскийкрай","county": "Pyatigorsk","VARNAME_2": "NA","NL_NAME_2": "Пятигорск","TYPE_2": "Gorsovet","ENGTYPE_2": "District","CC_2": "NA","HASC_2": "RU.ST.PY","name": "Pyatigorsk.county","area_km2": 53.18708,"hist_schema_id": "Elevation0-9000","hist_area_km2": {"450": 0.4877,"475": 6.55445,"500": 10.80741,"525": 9.35801,"550": 6.82755,"575": 4.84551,"600": 4.5706,"625": 2.92514,"650": 2.23953,"675": 1.24934,"700": 0.68563,"725": 0.54857,"750": 0.36571,"775": 0.35047,"800": 0.32,"825": 0.19809,"850": 0.1981,"875": 0.22857,"900": 0.12191,"925": 0.15238,"950": 0.07619,"975": 0.07619}}}