{"type": "Feature","bbox": [42.6909,52.6475,42.7785,52.6766],"geometry": {"type": "MultiPolygon","coordinates": [[[[42.7785,52.6595,183.3533],[42.7084,52.6766,165.6199],[42.6909,52.6744,179.183],[42.706,52.6597,174.4666],[42.7705,52.6475,175.1823],[42.7785,52.6595,183.3533]]]]}
,"properties": {"GID_2": "RUS.67.4_1","GID_0": "RUS","country": "Russia","GID_1": "RUS.67_1","province": "Tambov","NL_NAME_1": "Тамбовскаяобласть","county": "Kirsanov","VARNAME_2": "NA","NL_NAME_2": "Кирсанов","TYPE_2": "Gorod","ENGTYPE_2": "City","CC_2": "NA","HASC_2": "RU.TB.KG","name": "Kirsanov.county","area_km2": 8.962981,"hist_schema_id": "Elevation0-9000","hist_area_km2": {"125": 1.080168,"150": 3.163342,"175": 4.719471}}}