{"type": "Feature","id": 124979.0,"bbox": [45.045909050396233,45.234625555462827,45.141612175396233,45.292364813275327],"geometry": {"type": "Polygon","coordinates": [[[45.103526237896233,45.245001532025327,13.8313],[45.103526237896233,45.245001532025327,13.8313],[45.116221550396233,45.234625555462827,12.5],[45.134410026958733,45.234625555462827,12.5],[45.141612175396233,45.250738836712827,12.5],[45.115122917583733,45.270941473431577,14.0579],[45.065806511333733,45.290533758587827,13.9941],[45.045909050396233,45.292364813275327,14.3231],[45.062266472271233,45.271246649212827,12.5],[45.090464714458733,45.256598211712827,12.5],[45.103526237896233,45.245001532025327,13.8313]]]}
,"properties": {"name": null,"lge_id": null,"pfafstette": 223.0,"lke_type": null,"altitude": 11,"objectid": 76613,"scalerank": 12,"featurecla": "Lake","note": "_untitled_76613","funkyname": 0,"min_zoom": 7.0,"min_label": 8.0,"area_km2": 18.92266,"hist_schema_id": "Elevation0-9000","hist_area_km2": {"0": 0.05967,"25": 18.86299}}}