{"type": "Feature","bbox": [43.8834,42.868899999999996,44.3337,43.2547],"geometry": {"type": "MultiPolygon","coordinates": [[[[44.1445,43.178,432.8789],[44.1832,43.1619,439.0793],[44.1524,43.1335,474.2901],[44.1212,43.1132,514.0229],[44.1285,43.0923,525.6588],[44.0926,43.0546,759.3358],[44.0009,43.0368,880.5248],[43.95,43.0163,1013.1106],[43.9185,43.006,1138.4111],[43.9166,42.9959,1226.2325],[43.9428,42.9831,1372.9966],[43.8947,42.9501,2582.9001],[43.8834,42.9322,2535.5906],[43.8921,42.9162,2414.2197],[43.9158,42.9071,2491.1257],[43.9553,42.9168,2901.1045],[43.9797,42.9137,2837.6658],[44.0425,42.8809,1958.212],[44.075,42.868899999999996,1481.6051],[44.0989,42.8781,1780.4963],[44.1139,42.8929,2753.679],[44.1187,42.9174,2218.7222],[44.1348,42.9568,1121.715],[44.1574,42.9613,1116.5018],[44.1803,42.9377,1543.1915],[44.1905,42.9409,1362.4508],[44.1985,42.9482,1210.4967],[44.1927,42.9667,1010.5094],[44.19,42.9871,823.7615],[44.1925,43.0012,782.3121],[44.2233,43.0246,642.951],[44.227,43.0335,619.5946],[44.2248,43.045,607.9787],[44.2196,43.0581,585.17],[44.2257,43.0755,558.2024],[44.2754,43.1244,480.8701],[44.3161,43.1599,426.9302],[44.3337,43.1952,391.5088],[44.3163,43.2327,363.9562],[44.3039,43.2497,355.5521],[44.2818,43.2547,345.9743],[44.2609,43.249,353.1696],[44.2415,43.2363,362.9334],[44.207,43.2258,381.8543],[44.1742,43.2224,393.7569],[44.1665,43.2011,408.8687],[44.1445,43.178,432.8789]]]]}
,"properties": {"GID_2": "RUS.48.3_1","GID_0": "RUS","country": "Russia","GID_1": "RUS.48_1","province": "NorthOssetia","NL_NAME_1": "РеспубликаСевернаяОсетия-Алани","county": "Digorskiyrayon","VARNAME_2": "NA","NL_NAME_2": "Дигорскийрайон","TYPE_2": "Raion","ENGTYPE_2": "District","CC_2": "R41000","HASC_2": "RU.NO.DI","name": "Digorskiyrayon.county","area_km2": 582.1864,"hist_schema_id": "Elevation0-9000","hist_area_km2": {"350": 6.873,"375": 30.7928,"400": 38.0845,"425": 34.9448,"450": 23.9756,"475": 23.5037,"500": 24.9043,"525": 20.3911,"550": 15.3325,"575": 9.9606,"600": 7.8089,"625": 5.6715,"650": 3.9823,"675": 3.5797,"700": 4.0137,"725": 5.1609,"750": 6.7732,"775": 8.1222,"800": 8.5254,"825": 9.2392,"850": 11.2244,"875": 11.6283,"900": 12.1561,"925": 12.9165,"950": 14.0958,"975": 13.3518,"1000": 12.67,"1025": 10.4992,"1050": 9.7241,"1075": 7.8325,"1100": 6.251,"1125": 5.0102,"1150": 4.0798,"1175": 3.2422,"1200": 2.7614,"1225": 2.8855,"1250": 2.5289,"1275": 2.746,"1300": 2.2342,"1325": 2.622,"1350": 2.1255,"1375": 2.467,"1400": 2.0636,"1425": 2.2655,"1450": 1.9861,"1475": 2.1104,"1500": 2.188,"1525": 2.3743,"1550": 2.3278,"1575": 2.2192,"1600": 2.2037,"1625": 2.1573,"1650": 2.1729,"1675": 2.1419,"1700": 2.4678,"1725": 2.0799,"1750": 2.1574,"1775": 2.3127,"1800": 2.2663,"1825": 2.0335,"1850": 2.2508,"1875": 2.2508,"1900": 2.1423,"1925": 2.0956,"1950": 1.9715,"1975": 2.0336,"2000": 2.0801,"2025": 1.9405,"2050": 2.0958,"2075": 1.8473,"2100": 2.0337,"2125": 2.5926,"2150": 2.0959,"2175": 2.1114,"2200": 2.4841,"2225": 1.9407,"2250": 2.453,"2275": 2.1581,"2300": 1.9408,"2325": 2.1115,"2350": 2.2514,"2375": 1.9564,"2400": 2.1271,"2425": 1.9097,"2450": 2.2048,"2475": 2.3135,"2500": 2.1583,"2525": 2.4222,"2550": 1.9719,"2575": 2.3136,"2600": 2.2049,"2625": 2.1118,"2650": 2.2049,"2675": 2.1273,"2700": 2.267,"2725": 2.3758,"2750": 1.972,"2775": 2.174,"2800": 1.8168,"2825": 1.7546,"2850": 1.6459,"2875": 1.2733,"2900": 1.1491,"2925": 1.1491,"2950": 0.9006,"2975": 0.9316,"3000": 0.559,"3025": 0.5124,"3050": 0.3571,"3075": 0.4813,"3100": 0.2484,"3125": 0.2794,"3150": 0.2795,"3175": 0.2174,"3200": 0.1708,"3225": 0.2484,"3250": 0.1708,"3275": 0.0621,"3300": 0.0311,"3325": 0.0311}}}