{"type": "Feature","bbox": [40.4765,45.3869,40.5934,45.5252],"geometry": {"type": "MultiPolygon","coordinates": [[[[40.5934,45.4145,83.5331],[40.5644,45.5218,120.7671],[40.5316,45.5252,111.1734],[40.4765,45.4559,114.7073],[40.4911,45.3869,72.6099],[40.5934,45.4145,83.5331]]]]}
,"properties": {"GID_2": "RUS.34.22_1","GID_0": "RUS","country": "Russia","GID_1": "RUS.34_1","province": "Krasnodar","NL_NAME_1": "Краснодарскийкрай","county": "Kropotkin","VARNAME_2": "NA","NL_NAME_2": "Кропоткин","TYPE_2": "Gorod","ENGTYPE_2": "City","CC_2": "NA","HASC_2": "RU.KD.KP","name": "Kropotkin.county","area_km2": 92.3189,"hist_schema_id": "Elevation0-9000","hist_area_km2": {"50": 1.22074,"75": 25.59819,"100": 21.742,"125": 43.13301,"150": 0.62496}}}