{"type": "Feature","bbox": [44.5839,42.6253,45.3108,43.5749],"geometry": {"type": "MultiPolygon","coordinates": [[[[45.0829,42.6946,3152.366],[45.0889,42.6959,3120.9998],[45.1001,42.7091,3267.9697],[45.1327,42.7338,2351.9683],[45.1591,42.7616,2721.3228],[45.1542,42.7878,2537.4631],[45.1487,42.8052,1945.1006],[45.1473,42.8263,2436.9797],[45.191,42.867,2140.3037],[45.208,42.8903,1999.3911],[45.2126,42.9099,1532.7814],[45.1965,42.9247,1371.063],[45.1703,42.9389,1468.302],[45.1581,42.9596,1695.9036],[45.1646,42.9766,1239.9539],[45.1676,43.0034,847.0457],[45.182,43.0472,766.9957],[45.2022,43.0786,676.5023],[45.2307,43.1152,559.3148],[45.2573,43.1442,349.7025],[45.3017,43.1877,231.8039],[45.3044,43.2045,226.5293],[45.3019,43.2353,212.2586],[45.3086,43.2747,208.329],[45.3108,43.3086,254.9382],[45.2956,43.3194,297.3101],[45.2773,43.3245,300.3549],[45.2511,43.3206,291.5331],[45.2159,43.3259,295.998],[45.1978,43.3476,420.5175],[45.1956,43.3599,478.2314],[45.1973,43.4094,249.2282],[45.2183,43.4378,285.6982],[45.1966,43.4375,302.6567],[45.1641,43.4409,282.8971],[45.1345,43.4514,316.8524],[45.0953,43.4733,340.9033],[45.0618,43.4948,390.0374],[45.0398,43.5045,404.8759],[45.0081,43.5105,409.8298],[44.9808,43.5086,374.0166],[44.9603,43.5118,420.532],[44.9282,43.5359,329.4281],[44.9092,43.5332,356.9519],[44.8928,43.5435,427.8795],[44.886,43.5604,387.0363],[44.8766,43.5728,371.5573],[44.8292,43.5749,302.2773],[44.8166,43.5581,477.7058],[44.8268,43.5309,470.6764],[44.826,43.5074,365.0174],[44.8182,43.4867,327.5946],[44.7907,43.4766,319.1661],[44.7582,43.4759,317.5843],[44.735,43.4835,323.03],[44.7235,43.5017,347.137],[44.7273,43.5252,423.9694],[44.7102,43.5384,515.2079],[44.6738,43.5369,492.136],[44.6451,43.5414,533.0296],[44.6123,43.5349,522.4703],[44.5979,43.5271,460.8257],[44.5963,43.5076,357.5379],[44.5974,43.4778,407.1305],[44.6022,43.4557,529.6855],[44.5944,43.4248,713.894],[44.5839,43.3984,689.335],[44.5959,43.3758,607.0156],[44.6121,43.3621,568.228],[44.6614,43.3461,529.8978],[44.6565,43.3196,574.4047],[44.6574,43.2897,637.5504],[44.6642,43.2567,565.1163],[44.662,43.2284,544.6702],[44.6623,43.2043,518.154],[44.6441,43.1821,528.0138],[44.6772,43.173,541.083],[44.7035,43.1825,539.9634],[44.7308,43.182,542.0303],[44.7504,43.1788,545.5572],[44.7637,43.16,561.1609],[44.775,43.1337,596.9193],[44.7918,43.12,606.892],[44.8157,43.1108,686.5068],[44.8362,43.1055,772.3485],[44.8623,43.0853,853.1484],[44.8859,43.0725,899.1349],[44.9295,43.0446,874.9626],[44.9394,43.0201,1011.2126],[44.9463,42.9943,1130.0846],[44.9418,42.9563,1054.5591],[44.9639,42.936,1307.4376],[44.9749,42.9077,949.1335],[44.9804,42.8854,1729.6228],[44.9464,42.8565,1882.4852],[44.9201,42.8369,1246.7394],[44.914,42.8174,1315.5836],[44.88,42.7954,1381.8564],[44.8516,42.7888,2180.5356],[44.7941,42.7895,1593.3049],[44.751,42.8058,1240.1613],[44.7317,42.819,1449.9227],[44.7246,42.8337,1597.0437],[44.7384,42.8494,2494.9717],[44.7145,42.8562,2580.7432],[44.6886,42.8339,1473.1062],[44.6745,42.7905,2097.9829],[44.6794,42.7528,3233.3008],[44.6771,42.7479,2855.7607],[44.6872,42.746,3231.085],[44.7068,42.7381,3273.0972],[44.7274,42.7206,3203.1189],[44.7465,42.644,3125.5815],[44.753,42.6334,3325.9697],[44.7679,42.6256,3303.0847],[44.7834,42.6253,3059.2349],[44.7982,42.6317,2996.0161],[44.8179,42.6669,3146.532],[44.8321,42.7017,3309.2136],[44.8511,42.7249,2536.5771],[44.8691,42.7416,2946.0872],[44.8783,42.7469,2911.7876],[44.8917,42.7499,2988.6543],[44.9275,42.7527,3062.1689],[44.9711,42.7446,2060.9641],[44.9957,42.7299,2861.6128],[45.0351,42.7012,3343.4004],[45.0455,42.6985,3310.0037],[45.0829,42.6946,3152.366]]]]}
,"properties": {"GID_1": "RUS.17_1","GID_0": "RUS","country": "Russia","province": "Ingush","VARNAME_1": "Ingouchie|Inguchétia|Inguschetie","NL_NAME_1": "Респу́бликаИнгуше́тия","TYPE_1": "Respublika","ENGTYPE_1": "Republic","CC_1": "4201","HASC_1": "RU.IN","ISO_1": "NA","name": "Ingush.province","area_km2": 3221.105,"hist_schema_id": "Elevation0-9000","hist_area_km2": {"200": 7.688,"225": 56.063,"250": 77.188,"275": 100.239,"300": 152.201,"325": 186.235,"350": 161.03,"375": 123.834,"400": 104.019,"425": 96.894,"450": 89.176,"475": 92.622,"500": 96.131,"525": 135.578,"550": 128.717,"575": 100.455,"600": 91.812,"625": 83.162,"650": 75.416,"675": 62.314,"700": 53.339,"725": 47.006,"750": 41.671,"775": 38.231,"800": 35.241,"825": 31.361,"850": 29.136,"875": 26.074,"900": 25.92,"925": 25.473,"950": 23.569,"975": 20.859,"1000": 18.986,"1025": 17.979,"1050": 14.836,"1075": 13.382,"1100": 12.582,"1125": 11.854,"1150": 11.083,"1175": 10.186,"1200": 9.986,"1225": 9.785,"1250": 11.03,"1275": 10.516,"1300": 11.046,"1325": 11.963,"1350": 12.367,"1375": 11.685,"1400": 11.11,"1425": 12.028,"1450": 11.159,"1475": 10.941,"1500": 10.927,"1525": 10.927,"1550": 10.601,"1575": 10.664,"1600": 10.726,"1625": 11.549,"1650": 11.488,"1675": 11.41,"1700": 10.044,"1725": 10.495,"1750": 10.029,"1775": 10.262,"1800": 10.294,"1825": 10.108,"1850": 9.736,"1875": 10.109,"1900": 9.86,"1925": 10.281,"1950": 10.156,"1975": 10.25,"2000": 10.328,"2025": 9.736,"2050": 9.13,"2075": 8.913,"2100": 8.618,"2125": 8.665,"2150": 8.572,"2175": 8.65,"2200": 7.685,"2225": 7.406,"2250": 7.063,"2275": 7.219,"2300": 6.691,"2325": 6.613,"2350": 6.224,"2375": 6.256,"2400": 6.241,"2425": 5.93,"2450": 5.727,"2475": 6.039,"2500": 5.51,"2525": 5.759,"2550": 6.163,"2575": 5.604,"2600": 5.775,"2625": 5.308,"2650": 5.588,"2675": 5.496,"2700": 5.215,"2725": 4.935,"2750": 5.543,"2775": 4.966,"2800": 4.655,"2825": 4.858,"2850": 4.656,"2875": 4.454,"2900": 4.812,"2925": 4.314,"2950": 4.127,"2975": 3.878,"3000": 3.676,"3025": 3.801,"3050": 3.193,"3075": 3.333,"3100": 3.583,"3125": 3.24,"3150": 3.162,"3175": 3.209,"3200": 3.194,"3225": 3.676,"3250": 3.069,"3275": 3.599,"3300": 3.536,"3325": 3.521,"3350": 3.49,"3375": 3.054,"3400": 2.929,"3425": 3.334,"3450": 2.945,"3475": 2.695,"3500": 2.415,"3525": 2.711,"3550": 2.197,"3575": 2.026,"3600": 1.698,"3625": 1.854,"3650": 1.963,"3675": 1.371,"3700": 1.371,"3725": 1.106,"3750": 1.2,"3775": 0.951,"3800": 1.06,"3825": 0.779,"3850": 0.826,"3875": 0.67,"3900": 0.577,"3925": 0.53,"3950": 0.343,"3975": 0.343,"4000": 0.187,"4025": 0.296,"4050": 0.265,"4075": 0.14,"4100": 0.249,"4125": 0.187,"4150": 0.296,"4175": 0.234,"4200": 0.249,"4225": 0.187,"4250": 0.031,"4275": 0.078,"4300": 0.047}}}