{"type": "Feature","id": "2303","bbox": [44.49747,42.60965,45.18022,43.61984],"geometry": {"type": "Polygon","coordinates": [[[44.80567,43.57595,365.2586],[44.79492,43.58137,344.0595],[44.79027,43.59119,290.4576],[44.78644,43.60142,265.7554],[44.7819,43.61119,222.701],[44.77849,43.61532,210.067],[44.77404,43.61853,205.3483],[44.76753,43.61984,204.1834],[44.71131,43.61522,225.4827],[44.70573,43.61336,223.4811],[44.70087,43.60984,235.4649],[44.69922,43.6024,262.2316],[44.69891,43.59594,287.1049],[44.70221,43.57238,427.8066],[44.70046,43.56662,448.5568],[44.69611,43.56163,431.1742],[44.68444,43.55763,515.3156],[44.6216,43.54845,551.488],[44.61498,43.54889,478.908],[44.61064,43.55119,482.0424],[44.61012,43.55584,436.3775],[44.61126,43.56132,382.3755],[44.62284,43.59579,243.3914],[44.62408,43.60163,228.9309],[44.62397,43.60674,219.1967],[44.62129,43.60979,214.6515],[44.61591,43.60995,218.0077],[44.55039,43.59964,215.6731],[44.54326,43.5968,230.5217],[44.53674,43.592529999999996,231.3958],[44.530029999999996,43.5839,299.4789],[44.52662,43.57721,311.795],[44.52196,43.56447,469.0977],[44.4984,43.41533,647.3389],[44.49747,43.40267,799.5686],[44.49778,43.39694,834.6163],[44.49871,43.39213,828.7977],[44.50202,43.38893,821.6022],[44.50791,43.38593,792.5039],[44.52217,43.38392,661.5393],[44.53457,43.38474,640.1719],[44.55804,43.39255,615.8739],[44.5723,43.39265,623.6094],[44.5724,43.39249,623.6094],[44.58201,43.3573,589.9102],[44.58284,43.33976,567.9771],[44.57488,43.24031,528.876],[44.58253,43.23261,483.8986],[44.58883,43.22723,483.8113],[44.66015,43.20858,514.3888],[44.65684,43.21757,510.0979],[44.64568,43.22868,545.7263],[44.64258,43.2325,535.9152],[44.64134,43.23679,537.2657],[44.64392,43.24062,544.5701],[44.64847,43.24382,547.3097],[44.6649,43.25183,573.7011],[44.67172,43.25214,594.7245],[44.67937,43.24987,569.7218],[44.7048,43.22382,553.0677],[44.71286,43.21788,552.424],[44.78221,43.17845,538.5994],[44.79916,43.17705,541.1687],[44.80856,43.1724,557.6268],[44.81838,43.16295,582.0046],[44.83471,43.14005,661.8347],[44.8375,43.12967,705.7837],[44.84877,43.11194,867.1811],[44.91533,43.07091,1067.8315],[44.92029,43.06487,1105.1709],[44.92266,43.06125,974.517],[44.92514,43.05644,989.4056],[44.92721,43.05138,911.6022],[44.92856,43.04595,890.7512],[44.92856,43.03717,934.3591],[44.92752,43.02575,947.5715],[44.92328,43.00451,1113.6281],[44.92277,42.9936,1079.0583],[44.92401,42.98549,1095.4669],[44.9269,42.9811,1116.9752],[44.94023,42.9641,1018.5179],[44.94271,42.95929,1051.83],[44.94437,42.95412,1103.1941],[44.94437,42.94717,1356.0072],[44.94302,42.93896,1173.2402],[44.93662,42.92025,1455.2896],[44.93248,42.91374,1225.3812],[44.9269,42.9086,1354.8566],[44.90013,42.89834,1333.7135],[44.88515,42.88433,1639.8755],[44.85218,42.8364,2894.8259],[44.79523,42.84018,2740.8201],[44.77384,42.83824,2040.2384],[44.76474,42.8387,1964.8953],[44.75348,42.84173,2185.7739],[44.70345,42.87077,2802.981],[44.68402,42.87669,2062.5781],[44.62842,42.88278,888.2353],[44.62532,42.81292,1684.8481],[44.62346,42.80736,1789.5333],[44.61467,42.79269,1660.9309],[44.6156,42.7785,1663.302],[44.63824,42.74881,2062.7893],[44.63875,42.74023,1709.3197],[44.63876,42.74015,1709.3197],[44.64242,42.73928,1773.4602],[44.67942,42.72367,2039.3357],[44.69503,42.71422,2477.2593],[44.72448,42.69104,2627.8806],[44.73637,42.67755,3240.7444],[44.76107,42.61923,3581.4023],[44.77347,42.60965,2923.4639],[44.78231,42.61665,2769.834],[44.79848,42.67174,2332.8015],[44.82742,42.71796,3274.8555],[44.83368,42.73409,2288.4434],[44.85936,42.75951,2425.3467],[44.90297,42.75308,2849.385],[45.01212,42.6953,3429.4617],[45.02979,42.68876,3533.7642],[45.04808,42.6859,3583.7319],[45.067,42.68845,3570.0786],[45.07602,42.69141,3222.2441],[45.07594,42.69168,3222.2441],[45.07521,42.69409,3303.5415],[45.06901,42.7068,3719.3059],[45.06839,42.70897,3559.5146],[45.07056,42.71357,3311.9194],[45.17185,42.7917,2375.6958],[45.17733,42.79798,2271.6997],[45.17929,42.80411,2151.8638],[45.18022,42.81026,2002.5596],[45.17081,42.82516,2211.3818],[45.1366,42.83514,2775.7576],[45.14053,42.8524,2366.4082],[45.15221,42.87868,1628.4807],[45.15448,42.88849,1868.7922],[45.16131,42.94642,1676.3855],[45.16058,42.9534,1855.8149],[45.1581,42.96089,1717.5554],[45.15138,42.96942,1441.0503],[45.14549,42.97324,1439.0276],[45.13971,42.97578,1625.9915],[45.13567,42.97882,1562.994],[45.13381,42.98342,1439.1304],[45.13557,42.99229,1136.2136],[45.13929,43.00446,844.4987],[45.14002,43.00973,811.501],[45.13971,43.01815,760.7173],[45.13371,43.05071,556.9675],[45.1335,43.06238,746.3113],[45.13722,43.07458,731.1599],[45.16027,43.1014,757.8347],[45.16627,43.1138,507.2781],[45.16926,43.12737,610.0463],[45.1672,43.13781,518.5438],[45.16244,43.15251,610.7072],[45.14859,43.1762,392.5894],[45.14064,43.18672,349.7993],[45.13381,43.19369,373.8653],[45.12472,43.20041,380.1093],[45.121,43.20406,375.6761],[45.11769,43.21039,365.9238],[45.11583,43.21809,336.3214],[45.11552,43.23989,339.4679],[45.10332,43.32268,291.4327],[45.09082,43.35035,403.3366],[45.08079,43.36433,506.9059],[45.07335,43.388,358.8844],[45.0688,43.43895,286.0421],[45.06974,43.4512,287.8446],[45.06508,43.46686,307.5882],[45.04669,43.49435,380.8827],[44.94747,43.54856,317.7854],[44.90695,43.55657,370.6224],[44.88081,43.56204,443.1192],[44.86262,43.56879,339.94],[44.83853,43.58411,301.2354],[44.80567,43.57595,365.2586]]]}
,"properties": {"ISO3166-1-Alpha-3": "RUS","country": "Russia","fill": "#F0F","name": "Ingush","area_km2": 3246.719,"hist_schema_id": "Elevation0-9000","hist_area_km2": {"200": 1.105,"225": 12.912,"250": 12.683,"275": 26.837,"300": 90.397,"325": 165.289,"350": 170.189,"375": 134.868,"400": 114.66,"425": 105.512,"450": 96.044,"475": 98.646,"500": 109.555,"525": 144.047,"550": 130.35,"575": 113.376,"600": 104.43,"625": 91.258,"650": 80.805,"675": 64.488,"700": 55.192,"725": 48.892,"750": 43.451,"775": 39.614,"800": 36.18,"825": 31.071,"850": 28.188,"875": 26.28,"900": 26.3,"925": 25.419,"950": 24.057,"975": 21.951,"1000": 20.451,"1025": 20.53,"1050": 18.21,"1075": 16.833,"1100": 16.809,"1125": 15.816,"1150": 14.657,"1175": 13.03,"1200": 12.954,"1225": 12.334,"1250": 13.688,"1275": 13.144,"1300": 13.549,"1325": 14.436,"1350": 14.934,"1375": 13.817,"1400": 13.926,"1425": 14.595,"1450": 14.441,"1475": 14.379,"1500": 14.892,"1525": 15.017,"1550": 15.158,"1575": 14.583,"1600": 14.304,"1625": 15.423,"1650": 14.74,"1675": 14.646,"1700": 13.404,"1725": 14.493,"1750": 13.451,"1775": 13.654,"1800": 13.764,"1825": 13.282,"1850": 12.894,"1875": 13.593,"1900": 13.065,"1925": 13.19,"1950": 13.486,"1975": 13.206,"2000": 13.129,"2025": 12.459,"2050": 11.542,"2075": 11.589,"2100": 10.78,"2125": 11.341,"2150": 11.201,"2175": 11.217,"2200": 10.439,"2225": 9.957,"2250": 9.179,"2275": 9.273,"2300": 8.869,"2325": 8.604,"2350": 7.811,"2375": 7.827,"2400": 7.812,"2425": 6.832,"2450": 6.847,"2475": 6.676,"2500": 6.334,"2525": 6.77,"2550": 6.832,"2575": 6.054,"2600": 6.225,"2625": 5.883,"2650": 5.961,"2675": 5.619,"2700": 5.526,"2725": 5.137,"2750": 5.713,"2775": 5.495,"2800": 4.888,"2825": 4.749,"2850": 4.453,"2875": 4.563,"2900": 4.454,"2925": 4.174,"2950": 3.924,"2975": 4.408,"3000": 3.551,"3025": 4.065,"3050": 2.99,"3075": 3.302,"3100": 3.302,"3125": 3.147,"3150": 3.053,"3175": 2.975,"3200": 2.944,"3225": 3.302,"3250": 2.57,"3275": 3.178,"3300": 2.991,"3325": 2.711,"3350": 3.023,"3375": 2.493,"3400": 2.742,"3425": 2.914,"3450": 2.789,"3475": 2.54,"3500": 2.415,"3525": 2.664,"3550": 2.275,"3575": 2.119,"3600": 1.621,"3625": 1.886,"3650": 1.886,"3675": 1.512,"3700": 1.48,"3725": 1.138,"3750": 1.184,"3775": 0.92,"3800": 1.169,"3825": 0.748,"3850": 0.842,"3875": 0.639,"3900": 0.577,"3925": 0.53,"3950": 0.343,"3975": 0.343,"4000": 0.187,"4025": 0.296,"4050": 0.265,"4075": 0.14,"4100": 0.249,"4125": 0.187,"4150": 0.296,"4175": 0.234,"4200": 0.249,"4225": 0.187,"4250": 0.031,"4275": 0.078,"4300": 0.047}}}