{"type": "Feature","bbox": [32.2701,67.3339,32.6074,67.4434],"geometry": {"type": "MultiPolygon","coordinates": [[[[32.6074,67.4144,126.0],[32.6068,67.4299,126.0],[32.5514,67.4418,126.0],[32.4898,67.4434,126.0],[32.3371,67.4154,140.7549],[32.2701,67.3878,203.1036],[32.3697,67.3652,146.4715],[32.4174,67.3599,138.9933],[32.5264,67.3339,113.0],[32.6074,67.4144,126.0]]]]}
,"properties": {"GID_2": "RUS.45.12_1","GID_0": "RUS","country": "Russia","GID_1": "RUS.45_1","province": "Murmansk","NL_NAME_1": "Мурманскаяобласть","county": "Polyarnye","VARNAME_2": "NA","NL_NAME_2": "Полярный","TYPE_2": "Gorsovet","ENGTYPE_2": "District","CC_2": "NA","HASC_2": "RU.MM.PO","name": "Polyarnye.county","area_km2": 100.94876,"hist_schema_id": "Elevation0-9000","hist_area_km2": {"125": 37.8628,"150": 35.32158,"175": 15.00127,"200": 7.84565,"225": 2.51645,"250": 0.91188,"275": 0.34179,"300": 0.31736,"325": 0.33362,"350": 0.23597,"375": 0.20342,"400": 0.05696}}}