{"type": "Feature","bbox": [36.9165,51.8494,37.0166,51.8967],"geometry": {"type": "MultiPolygon","coordinates": [[[[37.0042,51.8615,218.9468],[37.0166,51.8684,222.9597],[37.0062,51.8767,180.335],[36.9705,51.8796,212.7139],[36.9371,51.8967,230.1264],[36.9165,51.889,232.1949],[36.9191,51.8752,195.6461],[36.928,51.8494,239.2915],[37.0042,51.8615,218.9468]]]]}
,"properties": {"GID_2": "RUS.37.26_1","GID_0": "RUS","country": "Russia","GID_1": "RUS.37_1","province": "Kursk","NL_NAME_1": "Курскаяобласть","county": "Shchigry","VARNAME_2": "NA","NL_NAME_2": "Щигры","TYPE_2": "Gorod","ENGTYPE_2": "City","CC_2": "NA","HASC_2": "RU.KS.SG","name": "Shchigry.county","area_km2": 19.87199,"hist_schema_id": "Elevation0-9000","hist_area_km2": {"175": 1.78026,"200": 7.47493,"225": 8.70574,"250": 1.91107}}}