{"type": "Feature","bbox": [42.5228,43.2803,43.56,43.8801],"geometry": {"type": "MultiPolygon","coordinates": [[[[43.56,43.7735,394.2661],[43.5238,43.761,444.595],[43.4764,43.7418,484.4585],[43.4427,43.7689,480.3641],[43.4338,43.7837,502.7009],[43.4241,43.8202,630.2421],[43.419,43.8532,486.5965],[43.4035,43.8727,492.6908],[43.3741,43.8801,503.2754],[43.3402,43.8697,550.4837],[43.2982,43.8315,629.7413],[43.248,43.8315,680.0463],[43.2136,43.8261,700.3651],[43.1284,43.798,834.8376],[43.0919,43.804,1019.8465],[43.0659,43.806,1076.709],[43.0306,43.7921,1239.5763],[43.0043,43.7714,979.2429],[42.9572,43.7585,1253.4873],[42.8797,43.7499,1351.7915],[42.8505,43.7486,1309.99],[42.8607,43.704,1440.9663],[42.8528,43.6655,1810.436],[42.8246,43.643,1982.8533],[42.7836,43.6243,2246.4038],[42.6528,43.5871,2106.6633],[42.6069,43.5574,1984.8505],[42.5858,43.5389,2046.7241],[42.5808,43.5267,1860.8307],[42.5797,43.5011,2189.5588],[42.6019,43.4392,2436.4092],[42.592,43.4113,2831.0015],[42.5418,43.376,3259.1716],[42.5228,43.3594,3525.4541],[42.5385,43.3267,3430.7065],[42.5385,43.3029,3131.9282],[42.5278,43.2803,2923.2605],[42.6674,43.294,2267.5339],[42.7624,43.3088,1520.2181],[42.7905,43.3251,1485.1128],[42.8119,43.3342,1591.7539],[42.8444,43.3342,1845.2756],[42.8767,43.3667,1346.8225],[42.8905,43.3875,2042.1758],[42.8721,43.4199,2584.5127],[42.8342,43.4325,2243.4102],[42.8421,43.453,2228.3005],[42.9722,43.529,2041.644],[43.0088,43.5384,1729.2781],[43.0296,43.5502,1574.1218],[43.0595,43.5889,1315.4255],[43.0953,43.5934,1223.6498],[43.1011,43.581,1003.6549],[43.1176,43.5719,1325.2122],[43.1619,43.568,1103.7385],[43.2194,43.5691,789.0779],[43.259,43.5802,1053.1846],[43.2837,43.5998,767.8429],[43.3005,43.6025,685.7941],[43.3097,43.5927,865.1693],[43.3372,43.5961,813.8566],[43.3705,43.615,696.6223],[43.4061,43.642,580.4621],[43.4247,43.6757,603.2334],[43.4602,43.6974,547.2054],[43.5469,43.7272,426.2184],[43.5547,43.7452,427.4274],[43.56,43.7735,394.2661]]]]}
,"properties": {"GID_2": "RUS.20.12_1","GID_0": "RUS","country": "Russia","GID_1": "RUS.20_1","province": "Kabardin-Balkar","NL_NAME_1": "Кабардино-БалкарскаяРеспублика","county": "Zol'skiyrayon","VARNAME_2": "NA","NL_NAME_2": "Зольскийрайон","TYPE_2": "Raion","ENGTYPE_2": "District","CC_2": "R40000","HASC_2": "RU.KB.ZO","name": "Zol'skiyrayon.county","area_km2": 2079.656,"hist_schema_id": "Elevation0-9000","hist_area_km2": {"400": 1.026,"425": 5.575,"450": 7.015,"475": 10.982,"500": 25.147,"525": 30.486,"550": 31.15,"575": 36.394,"600": 36.766,"625": 33.005,"650": 31.326,"675": 33.336,"700": 35.557,"725": 40.588,"750": 40.945,"775": 40.215,"800": 37.102,"825": 33.045,"850": 34.763,"875": 33.291,"900": 30.702,"925": 28.834,"950": 28.037,"975": 27.119,"1000": 25.97,"1025": 26.738,"1050": 25.13,"1075": 25.668,"1100": 26.084,"1125": 24.735,"1150": 22.373,"1175": 23.188,"1200": 21.026,"1225": 20.46,"1250": 19.08,"1275": 18.744,"1300": 17.517,"1325": 15.586,"1350": 14.405,"1375": 15.344,"1400": 14.995,"1425": 11.696,"1450": 10.42,"1475": 10.667,"1500": 10.534,"1525": 10.225,"1550": 10.822,"1575": 10.716,"1600": 10.209,"1625": 11.13,"1650": 10.655,"1675": 10.963,"1700": 9.982,"1725": 9.752,"1750": 9.14,"1775": 8.571,"1800": 8.971,"1825": 9.065,"1850": 9.295,"1875": 8.834,"1900": 9.035,"1925": 10.296,"1950": 10.664,"1975": 11.449,"2000": 12.249,"2025": 13.417,"2050": 14.402,"2075": 14.894,"2100": 16.295,"2125": 17.094,"2150": 17.31,"2175": 19.126,"2200": 20.126,"2225": 20.68,"2250": 23.695,"2275": 25.538,"2300": 25.555,"2325": 24.712,"2350": 22.977,"2375": 21.796,"2400": 20.137,"2425": 18.77,"2450": 16.556,"2475": 15.88,"2500": 15.343,"2525": 14.82,"2550": 14.744,"2575": 13.591,"2600": 13.206,"2625": 13.206,"2650": 12.284,"2675": 12.485,"2700": 11.822,"2725": 11.44,"2750": 10.04,"2775": 10.118,"2800": 10.319,"2825": 10.367,"2850": 9.736,"2875": 9.336,"2900": 9.537,"2925": 9.321,"2950": 9.491,"2975": 9.013,"3000": 9.075,"3025": 9.091,"3050": 9.137,"3075": 9.014,"3100": 9.215,"3125": 8.845,"3150": 8.892,"3175": 8.615,"3200": 8.646,"3225": 8.523,"3250": 8.168,"3275": 7.706,"3300": 8.277,"3325": 6.874,"3350": 7.245,"3375": 6.443,"3400": 6.181,"3425": 5.365,"3450": 5.35,"3475": 4.795,"3500": 4.394,"3525": 3.67,"3550": 3.207,"3575": 3.176,"3600": 2.205,"3625": 2.483,"3650": 2.02,"3675": 1.588,"3700": 1.681,"3725": 1.481,"3750": 0.864,"3775": 0.879,"3800": 0.787,"3825": 0.524,"3850": 0.478,"3875": 0.416,"3900": 0.185,"3925": 0.123,"3950": 0.031,"3975": 0.046}}}