{"type": "Feature","bbox": [41.9495,43.7309,42.5006,44.0982],"geometry": {"type": "MultiPolygon","coordinates": [[[[42.4243,43.7309,2025.2947],[42.4499,43.7347,2216.6865],[42.4792,43.75,2166.8943],[42.4975,43.7776,2090.0066],[42.5006,43.8245,1734.7081],[42.4937,43.8575,1536.2419],[42.47,43.8865,1088.9114],[42.4343,43.9213,1093.8527],[42.4377,43.9498,1178.4871],[42.4573,43.9788,1356.0065],[42.4731,44.0106,1124.0342],[42.4574,44.0472,1011.2808],[42.4048,44.0412,996.9668],[42.3612,44.0518,832.5171],[42.225,44.0931,851.9119],[42.176,44.0982,834.578],[42.1471,44.0891,898.0632],[42.1292,44.0736,1045.4182],[42.1053,44.0634,885.4766],[42.0771,44.0669,848.4503],[42.0476,44.0744,758.4652],[42.0072,44.0404,716.4044],[41.9495,44.0011,660.2722],[41.9573,43.9882,928.8266],[41.9928,43.9694,1078.7142],[42.0004,43.9565,1075.2578],[41.9559,43.8815,1311.147],[41.9802,43.8611,1463.1646],[42.0313,43.8449,1845.1927],[42.0866,43.836,1743.0884],[42.1823,43.8277,1998.4321],[42.1969,43.8199,1960.1382],[42.2018,43.8057,2023.8643],[42.1927,43.7877,2095.3025],[42.2112,43.7746,1975.1663],[42.27,43.7589,2007.8462],[42.3466,43.7432,2398.7124],[42.4243,43.7309,2025.2947]]]]}
,"properties": {"GID_2": "RUS.25.10_1","GID_0": "RUS","country": "Russia","GID_1": "RUS.25_1","province": "Karachay-Cherkess","NL_NAME_1": "Карачаево-ЧеркессияРеспублика","county": "Ust'-Dzhegutinskiyrayon","VARNAME_2": "NA","NL_NAME_2": "Усть-Джегутинскийрайон","TYPE_2": "Raion","ENGTYPE_2": "District","CC_2": "R44010","HASC_2": "RU.KC.US","name": "Ust'-Dzhegutinskiyrayon.county","area_km2": 1222.8829,"hist_schema_id": "Elevation0-9000","hist_area_km2": {"650": 0.0153,"675": 0.7778,"700": 0.5489,"725": 1.5246,"750": 2.5765,"775": 4.7871,"800": 6.0832,"825": 7.5467,"850": 11.2197,"875": 14.7406,"900": 17.9272,"925": 21.922,"950": 22.2438,"975": 25.523,"1000": 26.972,"1025": 29.3229,"1050": 32.161,"1075": 35.2605,"1100": 38.9401,"1125": 39.5096,"1150": 39.9402,"1175": 39.8682,"1200": 40.8953,"1225": 38.7634,"1250": 39.4859,"1275": 38.9419,"1300": 39.2202,"1325": 37.317,"1350": 33.3672,"1375": 29.5212,"1400": 27.5401,"1425": 23.9713,"1450": 24.1265,"1475": 21.3642,"1500": 22.2231,"1525": 21.1253,"1550": 19.691,"1575": 19.8601,"1600": 20.5038,"1625": 19.6794,"1650": 18.5494,"1675": 19.0097,"1700": 18.2464,"1725": 17.4367,"1750": 17.0245,"1775": 15.6028,"1800": 14.9307,"1825": 15.6202,"1850": 15.8341,"1875": 14.2899,"1900": 13.1439,"1925": 12.2729,"1950": 9.9935,"1975": 10.1163,"2000": 8.2649,"2025": 8.6021,"2050": 7.1635,"2075": 6.3984,"2100": 6.5978,"2125": 6.4602,"2150": 5.8176,"2175": 5.5575,"2200": 4.5167,"2225": 3.9658,"2250": 3.2464,"2275": 2.4042,"2300": 1.7917,"2325": 1.2405,"2350": 0.6279,"2375": 0.4748,"2400": 0.3217,"2425": 0.291,"2450": 0.0613}}}