{"type": "Feature","bbox": [41.9436,43.7168,42.0077,43.7622],"geometry": {"type": "MultiPolygon","coordinates": [[[[42.0077,43.7622,1360.7832],[41.952,43.753,1468.0245],[41.9436,43.7203,1182.0802],[41.9626,43.7168,1471.8325],[42.0077,43.7622,1360.7832]]]]}
,"properties": {"GID_2": "RUS.25.3_1","GID_0": "RUS","country": "Russia","GID_1": "RUS.25_1","province": "Karachay-Cherkess","NL_NAME_1": "Карачаево-ЧеркессияРеспублика","county": "Karachayevsk","VARNAME_2": "NA","NL_NAME_2": "Карачаевск","TYPE_2": "Gorsovet","ENGTYPE_2": "District","CC_2": "NA","HASC_2": "RU.KC.KG","name": "Karachayevsk.county","area_km2": 12.315744,"hist_schema_id": "Elevation0-9000","hist_area_km2": {"1075": 0.015323,"1100": 0.030646,"1125": 0.061292,"1150": 0.107248,"1175": 0.183854,"1200": 0.22981,"1225": 0.291088,"1250": 0.337034,"1275": 0.582126,"1300": 0.597418,"1325": 0.474883,"1350": 0.658669,"1375": 0.857796,"1400": 0.75057,"1425": 0.796519,"1450": 0.811839,"1475": 0.811822,"1500": 0.59741,"1525": 0.673977,"1550": 0.781204,"1575": 0.719929,"1600": 0.505468,"1625": 0.536093,"1650": 0.306336,"1675": 0.352305,"1700": 0.045953,"1725": 0.061271,"1750": 0.045954,"1775": 0.045953,"1800": 0.045953}}}