{"type": "Feature","bbox": [47.0907,41.7854,47.4469,42.1774],"geometry": {"type": "MultiPolygon","coordinates": [[[[47.4256,41.8905,2351.3062],[47.4449,41.9238,2107.0576],[47.43,41.9394,1812.9958],[47.4185,41.9611,2063.2329],[47.418,41.9823,1781.3457],[47.4308,41.9975,2027.2394],[47.4469,42.0223,2140.0728],[47.4385,42.0378,1917.8951],[47.4128,42.0614,1778.0747],[47.3939,42.0783,1752.9824],[47.3606,42.1007,2092.9417],[47.3373,42.1223,2082.4441],[47.3365,42.1354,1963.2449],[47.329,42.1534,1886.2771],[47.3135,42.1711,1767.6829],[47.2909,42.1774,1902.8611],[47.2787,42.1735,1934.8885],[47.2543,42.1613,2111.5073],[47.2318,42.164,2266.4016],[47.2063,42.1617,1952.1881],[47.1915,42.1484,1621.8927],[47.1823,42.1297,1728.507],[47.1746,42.1188,1589.2417],[47.1185,42.1146,1718.9061],[47.0997,42.0939,2028.1379],[47.0907,42.0746,2227.0513],[47.0942,42.0509,2601.2075],[47.1234,42.022,2488.8574],[47.1385,42.0038,2291.282],[47.1362,41.9841,2864.8755],[47.1258,41.9614,2823.2661],[47.1182,41.931,3326.6482],[47.1079,41.9082,3176.0811],[47.1023,41.8875,3408.28],[47.0936,41.8735,3427.0962],[47.1197,41.8484,3223.6677],[47.1517,41.8389,2609.3638],[47.1738,41.8413,3332.9023],[47.198,41.8387,2998.2297],[47.2114,41.8263,2754.0681],[47.2206,41.8106,3072.7104],[47.2387,41.8007,2847.7979],[47.2677,41.7931,3611.9331],[47.3112,41.7854,2949.1404],[47.364,41.7952,3526.9456],[47.368,41.8129,3267.1726],[47.3693,41.8404,2903.3521],[47.3857,41.8652,2533.8772],[47.4256,41.8905,2351.3062]]]]}
,"properties": {"GID_2": "RUS.15.30_1","GID_0": "RUS","country": "Russia","GID_1": "RUS.15_1","province": "Dagestan","NL_NAME_1": "РеспубликаДагестан","county": "Kulinskiyrayon","VARNAME_2": "NA","NL_NAME_2": "Кулинскийрайон","TYPE_2": "Raion","ENGTYPE_2": "District","CC_2": "R39001","HASC_2": "RU.DA.KU","name": "Kulinskiyrayon.county","area_km2": 894.3202,"hist_schema_id": "Elevation0-9000","hist_area_km2": {"1525": 0.1416,"1550": 0.3618,"1575": 0.4404,"1600": 0.6765,"1625": 1.3058,"1650": 1.7307,"1675": 2.8637,"1700": 3.9807,"1725": 5.7589,"1750": 7.2542,"1775": 9.112,"1800": 11.0168,"1825": 12.6858,"1850": 15.2826,"1875": 15.7556,"1900": 15.7261,"1925": 16.1366,"1950": 17.429,"1975": 17.7921,"2000": 20.5967,"2025": 21.4471,"2050": 20.2206,"2075": 21.5288,"2100": 22.2237,"2125": 21.736,"2150": 20.9949,"2175": 20.0813,"2200": 21.1042,"2225": 21.7498,"2250": 20.6803,"2275": 21.1837,"2300": 19.5941,"2325": 18.192,"2350": 16.8384,"2375": 15.2177,"2400": 14.3524,"2425": 13.2196,"2450": 11.9142,"2475": 11.27,"2500": 10.5006,"2525": 9.3026,"2550": 9.2246,"2575": 9.336,"2600": 8.8321,"2625": 8.6432,"2650": 7.7595,"2675": 7.5232,"2700": 8.4535,"2725": 7.4121,"2750": 7.5853,"2775": 7.6169,"2800": 8.2005,"2825": 7.8074,"2850": 7.604,"2875": 8.0145,"2900": 8.3936,"2925": 7.7002,"2950": 7.3074,"2975": 7.4028,"3000": 6.6932,"3025": 7.3092,"3050": 7.6566,"3075": 8.3991,"3100": 8.5254,"3125": 8.8894,"3150": 9.5998,"3175": 10.1053,"3200": 10.5948,"3225": 10.389,"3250": 10.2473,"3275": 10.1689,"3300": 9.6635,"3325": 8.6849,"3350": 8.4479,"3375": 7.7377,"3400": 7.8794,"3425": 7.3428,"3450": 6.4585,"3475": 6.0324,"3500": 5.2112,"3525": 4.7055,"3550": 4.1692,"3575": 3.3479,"3600": 2.7794,"3625": 2.3057,"3650": 2.1479,"3675": 1.5951,"3700": 1.1686,"3725": 0.6791,"3750": 0.5213,"3775": 0.3791,"3800": 0.1422,"3825": 0.1106,"3850": 0.0158}}}