{"type": "Feature","bbox": [40.7162,43.1849,42.8797,44.4746],"geometry": {"type": "MultiPolygon","coordinates": [[[[42.1287,43.2162,3008.1104],[42.1368,43.2207,3240.1003],[42.1454,43.2212,3230.9805],[42.1551,43.2189,3302.2886],[42.1556,43.22,3302.2886],[42.1813,43.2171,3544.9338],[42.1876,43.2181,3580.5701],[42.2131,43.2299,3276.1467],[42.2213,43.23,3252.1382],[42.241,43.226,3311.3394],[42.264,43.2101,3259.2095],[42.2885,43.2084,3235.6221],[42.2969,43.2114,3398.26],[42.318,43.2264,3042.8362],[42.3406,43.2247,3367.5491],[42.3462,43.2259,3436.9893],[42.3552,43.239,3261.7649],[42.3589,43.2408,3163.5933],[42.394,43.2442,3225.3628],[42.4052,43.2465,3204.1128],[42.4261,43.254,3259.9238],[42.4365,43.2542,3219.2573],[42.4563,43.2456,3374.7769],[42.4647,43.2402,3260.6626],[42.4663,43.2354,3058.0811],[42.4548,43.2289,3234.0771],[42.4508,43.2238,3176.2617],[42.4496,43.2197,3357.4346],[42.4511,43.2154,3067.2817],[42.4543,43.2129,3106.2544],[42.4759,43.21,3055.71],[42.5163,43.1991,4134.2148],[42.5502,43.1849,3255.2329],[42.5256,43.2103,3651.0896],[42.509,43.2356,2575.5854],[42.5081,43.258,2168.988],[42.5278,43.2803,2923.2605],[42.5385,43.3029,3131.9282],[42.5385,43.3267,3430.7065],[42.5228,43.3594,3525.4541],[42.5418,43.376,3259.1716],[42.592,43.4113,2831.0015],[42.6019,43.4392,2436.4092],[42.5797,43.5011,2189.5588],[42.5808,43.5267,1860.8307],[42.5858,43.5389,2046.7241],[42.6069,43.5574,1984.8505],[42.6528,43.5871,2106.6633],[42.7836,43.6243,2246.4038],[42.8246,43.643,1982.8533],[42.8528,43.6655,1810.436],[42.8607,43.704,1440.9663],[42.8505,43.7486,1309.99],[42.8797,43.7499,1351.7915],[42.825,43.7755,1479.8517],[42.8015,43.8176,1383.6431],[42.8001,43.8451,1196.1663],[42.8093,43.8769,1253.8591],[42.7801,43.9143,1267.5437],[42.75,43.9333,899.5885],[42.7333,43.97,1054.2354],[42.6839,43.9841,1129.5977],[42.6603,43.9829,1175.9109],[42.6499,43.9601,935.8215],[42.6731,43.929,793.9839],[42.6603,43.9099,926.7396],[42.6226,43.9097,1077.4553],[42.5783,43.9145,1038.7104],[42.5476,43.9393,949.2127],[42.5206,43.9655,998.4286],[42.4573,43.9788,1356.0065],[42.4731,44.0106,1124.0342],[42.4574,44.0472,1011.2808],[42.4978,44.0844,783.0549],[42.5641,44.1106,630.4999],[42.6159,44.144,565.0118],[42.6983,44.152,513.8208],[42.7252,44.1831,435.1171],[42.7514,44.1987,512.655],[42.7986,44.1931,524.5863],[42.8288,44.2156,495.4971],[42.8081,44.2477,389.5446],[42.7533,44.284,390.7694],[42.7349,44.2995,385.5576],[42.7214,44.3191,428.2056],[42.7243,44.3312,467.124],[42.681399999999996,44.3237,423.2658],[42.6971,44.3001,416.8206],[42.6956,44.2766,425.2194],[42.672,44.2632,554.7468],[42.6254,44.2677,580.8724],[42.5926,44.2736,592.1802],[42.5719,44.2678,596.1165],[42.585,44.2381,506.3379],[42.567,44.218,550.0883],[42.5057,44.2391,594.5188],[42.487,44.2552,633.1685],[42.4786,44.2839,571.0502],[42.4571,44.3007,541.5132],[42.3828,44.3067,698.9991],[42.257,44.3315,627.8856],[42.1906,44.3225,734.6324],[42.1319,44.3449,635.6916],[42.0848,44.3717,632.6136],[42.0561,44.3998,595.3214],[42.0486,44.4364,532.0787],[42.0306,44.4656,559.6925],[41.967,44.4746,441.2722],[41.9217,44.4735,371.0246],[41.9037,44.453,435.3425],[41.8698,44.4412,447.9476],[41.8525,44.4106,505.5889],[41.8227,44.3983,559.4854],[41.7757,44.3894,481.4469],[41.7299,44.371,572.092],[41.6994,44.3498,632.2716],[41.7089,44.326,646.4854],[41.7606,44.3023,525.4302],[41.7977,44.2736,588.7413],[41.8126,44.2479,671.4188],[41.8157,44.2185,752.7508],[41.8083,44.1872,687.3588],[41.7906,44.1545,700.2639],[41.7751,44.1209,886.2706],[41.7375,44.0755,1064.9219],[41.7241,44.0554,934.7338],[41.698,44.0557,1160.4653],[41.6722,44.0693,975.3173],[41.6338,44.0553,824.2941],[41.6216,44.0147,1031.9069],[41.5874,43.9714,1090.6587],[41.5556,43.9467,944.8154],[41.5063,43.9497,863.9993],[41.4442,43.9623,1459.9526],[41.4107,43.9858,1376.5603],[41.4067,44.0168,1184.9929],[41.3788,44.0471,966.0488],[41.3214,44.0431,1084.9783],[41.2765,44.0517,942.1691],[41.2519,44.075,889.2727],[41.2109,44.085,842.2182],[41.1608,44.0758,1010.4166],[41.1219,44.0799,1000.8434],[41.069,44.1055,857.9771],[41.0216,44.1173,755.3802],[40.9702,44.1106,1142.3813],[40.9416,44.0947,897.9857],[40.9225,44.0701,775.8624],[40.9509,44.0387,746.8896],[40.9601,44.0067,778.719],[40.9524,43.9765,880.5818],[40.9338,43.9437,1156.8179],[40.9167,43.9229,1051.8091],[40.851,43.9213,1450.0842],[40.8191,43.9114,1657.6987],[40.8094,43.8627,1565.7266],[40.7679,43.8285,1851.426],[40.7766,43.7924,2453.3376],[40.762,43.7599,2570.5193],[40.7238,43.7308,2043.9147],[40.7309,43.6731,2452.2375],[40.7287,43.6207,2679.0435],[40.7162,43.5309,2630.9346],[40.7283,43.5305,2449.9609],[40.7401,43.5265,2556.2473],[40.7651,43.5153,2440.4285],[40.7741,43.5087,2478.7783],[40.8187,43.4925,2402.9546],[40.8318,43.4855,2194.2136],[40.8791,43.4851,2572.8264],[40.8921,43.4793,2403.0261],[40.8973,43.4755,2370.303],[40.8985,43.4705,2380.0676],[40.895,43.4611,2425.0935],[40.8955,43.4581,2376.0552],[40.8999,43.4543,2488.9675],[40.918,43.4477,2668.3779],[40.9255,43.4425,2654.3022],[40.9357,43.4255,2587.9973],[40.949,43.4221,2642.0562],[40.9647,43.4231,2703.9807],[40.9737,43.4253,2703.1094],[40.9835,43.4331,2787.5549],[40.9897,43.4339,2658.9395],[41.0305,43.4159,2493.7866],[41.0422,43.4029,2549.6907],[41.0432,43.3907,2312.7751],[41.0614,43.3823,2502.811],[41.0901,43.3773,2272.3914],[41.1014,43.3777,2505.6802],[41.1064,43.3809,2521.5776],[41.114,43.3912,2389.3657],[41.1197,43.395,2593.9414],[41.1392,43.3946,2559.0371],[41.2193,43.3733,2691.9053],[41.2357,43.3671,3247.3218],[41.2529,43.3579,2879.9839],[41.2841,43.3535,2794.689],[41.292,43.3509,2511.6831],[41.3013,43.3447,2667.1689],[41.3119,43.334,2520.5938],[41.3317,43.3341,2524.6917],[41.3315,43.3327,2541.1797],[41.3337,43.3359,2428.8262],[41.3505,43.3453,2814.9038],[41.3615,43.3583,2929.9199],[41.3686,43.3616,2772.1948],[41.3787,43.3585,2368.0303],[41.3929,43.3619,2571.9722],[41.4015,43.3627,2868.8079],[41.4078,43.3614,3079.895],[41.4203,43.3531,3043.5737],[41.4229,43.3095,3110.6487],[41.4255,43.3058,2871.2563],[41.4377,43.3026,2947.9795],[41.4681,43.3001,3178.209],[41.4787,43.2969,3096.0254],[41.4943,43.2833,3396.5093],[41.5038,43.2781,3703.1462],[41.5257,43.2702,3188.1729],[41.5453,43.2608,3044.9248],[41.5507,43.2559,3224.613],[41.5543,43.2488,3202.9839],[41.5733,43.2435,3265.5039],[41.5825,43.2354,3501.959],[41.5991,43.2333,3329.1975],[41.6307,43.2229,3294.5315],[41.6407,43.2239,3282.8887],[41.6499,43.2295,3202.6294],[41.6575,43.2301,3026.6113],[41.6919,43.2167,3012.0413],[41.7073,43.2151,2530.7681],[41.7156,43.2183,2824.2339],[41.7224,43.2239,2870.6243],[41.7274,43.2314,2690.5781],[41.736,43.2328,2430.9165],[41.748,43.227,2417.9556],[41.7629,43.2156,2743.47],[41.7817,43.2117,2509.8984],[41.7937,43.2109,3072.8521],[41.8147,43.2038,2979.4368],[41.8201,43.2038,2825.7744],[41.8523,43.2109,3479.5884],[41.8633,43.2157,3067.5061],[41.8679,43.2229,2734.3921],[41.8621,43.2323,3110.5464],[41.8609,43.2371,2802.9482],[41.8663,43.2457,2765.0403],[41.8719,43.2469,2887.2917],[41.8782,43.2461,3239.6819],[41.8906,43.2368,2749.7512],[41.917,43.2283,2712.188],[41.9427,43.2253,3425.769],[41.9543,43.2125,2801.1824],[41.9593,43.2097,2803.6095999999998],[41.967,43.2102,2918.7227],[41.9799,43.2149,3059.5347],[42.0008,43.2158,2785.1396],[42.0177,43.2145,3167.6997],[42.0301,43.2063,3350.3501],[42.0387,43.1969,3212.333],[42.0483,43.1947,3058.5959],[42.0577,43.1941,3137.1538],[42.0811,43.2045,3881.7251],[42.1039,43.2054,3370.145],[42.1129,43.2075,3113.7156],[42.1287,43.2162,3008.1104]]]]}
,"properties": {"GID_1": "RUS.25_1","GID_0": "RUS","country": "Russia","province": "Karachay-Cherkess","VARNAME_1": "Karaçay-Çerkes|Karachay-Cherkess","NL_NAME_1": "Карачаево-ЧеркессияРеспублика","TYPE_1": "Respublika","ENGTYPE_1": "Republic","CC_1": "NA","HASC_1": "RU.KC","ISO_1": "NA","name": "Karachay-Cherkess.province","area_km2": 15058.86,"hist_schema_id": "Elevation0-9000","hist_area_km2": {"375": 15.47,"400": 48.71,"425": 61.53,"450": 93.37,"475": 112.88,"500": 122.53,"525": 137.65,"550": 137.64,"575": 158.11,"600": 187.17,"625": 267.53,"650": 201.49,"675": 140.94,"700": 126.31,"725": 127.4,"750": 117.34,"775": 109.23,"800": 110.66,"825": 127.43,"850": 135.23,"875": 141.82,"900": 152.16,"925": 177.04,"950": 186.84,"975": 197.12,"1000": 201.39,"1025": 196.29,"1050": 197.29,"1075": 198.22,"1100": 199.02,"1125": 197.62,"1150": 195.85,"1175": 198.01,"1200": 197.29,"1225": 192.82,"1250": 189.58,"1275": 184.89,"1300": 180.43,"1325": 175.66,"1350": 161.37,"1375": 154.79,"1400": 148.62,"1425": 147.0,"1450": 149.98,"1475": 148.76,"1500": 143.11,"1525": 147.16,"1550": 143.85,"1575": 150.99,"1600": 148.66,"1625": 150.52,"1650": 146.97,"1675": 146.46,"1700": 145.08,"1725": 147.34,"1750": 151.25,"1775": 149.34,"1800": 151.54,"1825": 153.41,"1850": 154.93,"1875": 155.11,"1900": 157.57,"1925": 157.06,"1950": 155.94,"1975": 157.28,"2000": 153.59,"2025": 156.18,"2050": 152.6,"2075": 153.93,"2100": 151.33,"2125": 144.03,"2150": 140.51,"2175": 140.3,"2200": 136.11,"2225": 131.41,"2250": 129.57,"2275": 120.77,"2300": 115.54,"2325": 110.46,"2350": 103.29,"2375": 99.55,"2400": 92.0,"2425": 91.05,"2450": 89.41,"2475": 88.77,"2500": 87.15,"2525": 89.09,"2550": 89.0,"2575": 86.85,"2600": 87.74,"2625": 87.34,"2650": 85.06,"2675": 85.02,"2700": 85.14,"2725": 82.31,"2750": 82.86,"2775": 82.47,"2800": 79.91,"2825": 78.36,"2850": 78.65,"2875": 76.91,"2900": 73.96,"2925": 72.6,"2950": 71.28,"2975": 68.36,"3000": 66.82,"3025": 62.46,"3050": 60.85,"3075": 55.25,"3100": 54.82,"3125": 51.79,"3150": 45.82,"3175": 43.76,"3200": 41.87,"3225": 38.17,"3250": 35.62,"3275": 34.08,"3300": 30.52,"3325": 26.27,"3350": 23.58,"3375": 22.15,"3400": 18.74,"3425": 15.89,"3450": 14.64,"3475": 11.74,"3500": 10.92,"3525": 10.06,"3550": 8.14,"3575": 7.57,"3600": 7.03,"3625": 6.26,"3650": 5.43,"3675": 4.72,"3700": 4.5,"3725": 4.29,"3750": 4.4,"3775": 4.18,"3800": 3.44,"3825": 2.84,"3850": 2.81,"3875": 2.88,"3900": 2.61,"3925": 2.54,"3950": 2.5,"3975": 2.05,"4000": 2.08,"4025": 1.76,"4050": 1.7,"4075": 1.67,"4100": 1.36,"4125": 1.5,"4150": 1.53,"4175": 1.22,"4200": 1.17,"4225": 1.39,"4250": 1.31,"4275": 1.16,"4300": 1.19,"4325": 1.14,"4350": 1.14,"4375": 1.06,"4400": 1.16,"4425": 0.99,"4450": 1.05,"4475": 1.11,"4500": 1.02,"4525": 0.86,"4550": 1.19,"4575": 1.03,"4600": 0.85,"4625": 0.86,"4650": 1.03,"4675": 0.72,"4700": 0.8,"4725": 0.82,"4750": 0.83,"4775": 0.76,"4800": 0.69,"4825": 0.71,"4850": 0.72,"4875": 0.66,"4900": 0.76,"4925": 0.59,"4950": 0.82,"4975": 0.57,"5000": 0.62,"5025": 0.56,"5050": 0.6,"5075": 0.68,"5100": 0.6,"5125": 0.56,"5150": 0.42,"5175": 0.43,"5200": 0.46,"5225": 0.32,"5250": 0.32,"5275": 0.35,"5300": 0.34,"5325": 0.34,"5350": 0.29,"5375": 0.4,"5400": 0.22,"5425": 0.31,"5450": 0.26,"5475": 0.29,"5500": 0.26,"5525": 0.2,"5550": 0.15,"5575": 0.29,"5600": 0.14}}}