{"type": "Feature","bbox": [42.1174,47.5042,42.1553,47.5299],"geometry": {"type": "MultiPolygon","coordinates": [[[[42.146,47.5073,51.2578],[42.1553,47.518,47.9928],[42.1398,47.5299,39.8913],[42.1174,47.5222,33.137],[42.1241,47.5088,43.594],[42.1351,47.5042,51.092],[42.146,47.5073,51.2578]]]]}
,"properties": {"GID_2": "RUS.58.54_1","GID_0": "RUS","country": "Russia","GID_1": "RUS.58_1","province": "Rostov","NL_NAME_1": "Ростовскаяобласть","county": "Volgodonsk","VARNAME_2": "NA","NL_NAME_2": "Волгодонск","TYPE_2": "Gorsovet","ENGTYPE_2": "District","CC_2": "NA","HASC_2": "RU.RO.VG","name": "Volgodonsk.county","area_km2": 4.98315,"hist_schema_id": "Elevation0-9000","hist_area_km2": {"25": 0.429536,"50": 4.553614}}}