{"type": "Feature","bbox": [47.4256,41.8294,47.7904,42.2633],"geometry": {"type": "MultiPolygon","coordinates": [[[[47.7176,41.9656,1890.865],[47.7194,41.9912,1511.6582],[47.7398,42.0064,1309.2067],[47.7293,42.0272,1320.5635],[47.7333,42.0615,1124.9381],[47.7458,42.0677,1016.1074],[47.7865,42.0761,698.4371],[47.7904,42.0929,891.9702],[47.7871,42.1131,923.922],[47.7364,42.149,1303.5294],[47.7178,42.1692,978.7395],[47.7347,42.18,965.6917],[47.7456,42.209,641.7106],[47.747,42.2318,831.2772],[47.7291,42.2386,1042.541],[47.7025,42.2424,915.0515],[47.651,42.2457,1186.8492],[47.6289,42.2372,1471.4609],[47.5884,42.2374,1527.5961],[47.5706,42.2506,1831.9556],[47.5656,42.2633,1779.3739],[47.5499,42.2335,2027.7686],[47.5268,42.2059,1603.537],[47.5114,42.1816,1674.2286],[47.5153,42.1655,1678.5714],[47.536,42.1388,1366.9048],[47.5525,42.131,1091.5203],[47.5563,42.1124,1594.1545],[47.5467,42.0898,1507.9408],[47.5354,42.075,1707.1301],[47.5379,42.0423,1728.5959],[47.5353,42.0118,2044.6403],[47.5369,41.995,1929.3182],[47.4535,41.9344,1967.2715],[47.4449,41.9238,2107.0576],[47.4256,41.8905,2351.3062],[47.4576,41.8917,2082.1401],[47.4846,41.8995,1864.8728],[47.5163,41.9046,2263.6267],[47.5341,41.8921,2288.6184],[47.5518,41.8725,2200.6162],[47.5537,41.8567,2346.9436],[47.5644,41.8419,2147.5227],[47.588,41.8321,2055.6643],[47.606,41.8294,2198.0288],[47.6146,41.8378,2236.8271],[47.6226,41.8601,2075.3594],[47.6383,41.8814,2114.8994],[47.7163,41.9495,2201.4824],[47.7176,41.9656,1890.865]]]]}
,"properties": {"GID_2": "RUS.15.11_1","GID_0": "RUS","country": "Russia","GID_1": "RUS.15_1","province": "Dagestan","NL_NAME_1": "РеспубликаДагестан","county": "Dakhadayevskiyrayon","VARNAME_2": "NA","NL_NAME_2": "Дахадаевскийрайон","TYPE_2": "Raion","ENGTYPE_2": "District","CC_2": "R39001","HASC_2": "RU.DA.DA","name": "Dakhadayevskiyrayon.county","area_km2": 731.1046,"hist_schema_id": "Elevation0-9000","hist_area_km2": {"500": 0.0629,"525": 0.3775,"550": 0.5191,"575": 0.928,"600": 1.2265,"625": 1.148,"650": 1.5094,"675": 1.7296,"700": 2.2483,"725": 2.3897,"750": 2.5631,"775": 2.8458,"800": 3.2858,"825": 3.9938,"850": 4.4973,"875": 5.6924,"900": 5.7874,"925": 6.7305,"950": 6.9033,"975": 7.737,"1000": 7.8308,"1025": 9.34,"1050": 10.4572,"1075": 10.9914,"1100": 12.0609,"1125": 13.3022,"1150": 15.2042,"1175": 16.6037,"1200": 16.9182,"1225": 16.3679,"1250": 16.5878,"1275": 15.9906,"1300": 16.9019,"1325": 15.7858,"1350": 14.4657,"1375": 14.3564,"1400": 13.6969,"1425": 13.3683,"1450": 11.6708,"1475": 12.412,"1500": 12.3807,"1525": 12.727,"1550": 13.3103,"1575": 13.1216,"1600": 12.8405,"1625": 12.9519,"1650": 11.7879,"1675": 11.6321,"1700": 10.3896,"1725": 11.1312,"1750": 9.8735,"1775": 9.7632,"1800": 9.3243,"1825": 8.9642,"1850": 8.9798,"1875": 9.2168,"1900": 9.5012,"1925": 9.8325,"1950": 9.1529,"1975": 9.6599,"2000": 9.4245,"2025": 8.0566,"2050": 8.2317,"2075": 7.9014,"2100": 8.5809,"2125": 8.3608,"2150": 8.7245,"2175": 8.5514,"2200": 9.2773,"2225": 9.9721,"2250": 9.3094,"2275": 9.5943,"2300": 9.1052,"2325": 8.1905,"2350": 7.7959,"2375": 7.275,"2400": 7.0224,"2425": 5.428,"2450": 3.8968,"2475": 2.6029,"2500": 2.4134,"2525": 1.94,"2550": 1.6403,"2575": 1.94,"2600": 1.3722,"2625": 1.6404,"2650": 1.325,"2675": 1.2461,"2700": 1.183,"2725": 1.2146,"2750": 0.8833,"2775": 0.8675,"2800": 0.6625,"2825": 0.8676,"2850": 0.5836,"2875": 0.5206,"2900": 0.1578,"2925": 0.142,"2950": 0.0789,"2975": 0.0631,"3000": 0.0316}}}