{"type": "Feature","bbox": [46.0422,42.5613,46.5398,42.8951],"geometry": {"type": "MultiPolygon","coordinates": [[[[46.3943,42.8868,1433.0494],[46.3762,42.8951,1592.6396],[46.3223,42.8656,1577.0543],[46.2486,42.8652,2240.5474],[46.2061,42.8357,1786.9604],[46.1678,42.8121,2283.5278],[46.1453,42.8021,2042.2772],[46.146,42.7829,1900.3988],[46.1586,42.7696,2035.6063],[46.1962,42.7485,2184.8022],[46.2192,42.7326,2030.4426],[46.2334,42.7128,1382.0525],[46.2182,42.7028,1491.9408],[46.181399999999996,42.6905,1111.5201],[46.1184,42.6906,1084.6997],[46.0719,42.6856,2169.3796],[46.0488,42.6744,2023.4908],[46.0481,42.6582,2171.2661],[46.0422,42.6291,2401.8733],[46.0703,42.6031,1722.4214],[46.09,42.6003,1326.224],[46.1107,42.5876,1441.3154],[46.1328,42.5769,1399.5981],[46.1555,42.577,1139.1324],[46.1854,42.5803,1495.3018],[46.2057,42.5687,1445.9814],[46.2521,42.5613,1844.7549],[46.2721,42.579,1857.4358],[46.2845,42.5962,1511.5231],[46.3159,42.6071,1210.9004],[46.3843,42.6219,2016.6061],[46.4049,42.6184,1607.3701],[46.4576,42.5977,1939.5679],[46.4796,42.6053,1506.4583],[46.5169,42.6351,977.012],[46.5292,42.6508,1220.9246],[46.5398,42.6524,1163.4115],[46.4997,42.6575,1198.1364],[46.4783,42.6661,695.4022],[46.4482,42.6707,721.8257],[46.4238,42.6666,768.6254],[46.3966,42.6721,753.5901],[46.3704,42.6839,983.4194],[46.3492,42.7045,1398.46],[46.3619,42.7126,1520.9736],[46.3736,42.7234,1551.5015],[46.3822,42.7397,1840.4561],[46.3704,42.7521,1972.8695],[46.3331,42.8076,2318.6997],[46.3471,42.8208,2391.979],[46.3684,42.835,2467.2253],[46.4045,42.8471,2380.6814],[46.3972,42.8712,1601.0469],[46.3943,42.8868,1433.0494]]]]}
,"properties": {"GID_2": "RUS.15.6_1","GID_0": "RUS","country": "Russia","GID_1": "RUS.15_1","province": "Dagestan","NL_NAME_1": "РеспубликаДагестан","county": "Botlikhskiyrayon","VARNAME_2": "NA","NL_NAME_2": "Ботлихскийрайон","TYPE_2": "Raion","ENGTYPE_2": "District","CC_2": "R39000","HASC_2": "RU.DA.BO","name": "Botlikhskiyrayon.county","area_km2": 652.8748,"hist_schema_id": "Elevation0-9000","hist_area_km2": {"600": 0.2806,"625": 2.7282,"650": 3.4607,"675": 3.5854,"700": 4.1938,"725": 5.8627,"750": 6.3616,"775": 6.7205,"800": 8.5142,"825": 9.0135,"850": 8.031,"875": 8.9043,"900": 8.5762,"925": 9.1217,"950": 10.3849,"975": 10.5872,"1000": 10.7742,"1025": 11.4765,"1050": 10.6027,"1075": 10.9306,"1100": 8.9349,"1125": 9.1378,"1150": 9.2623,"1175": 10.2279,"1200": 10.1189,"1225": 8.6531,"1250": 8.1226,"1275": 7.8724,"1300": 8.8076,"1325": 9.2436,"1350": 9.4457,"1375": 9.3353,"1400": 10.2695,"1425": 9.1469,"1450": 9.8938,"1475": 9.6293,"1500": 9.8474,"1525": 10.1893,"1550": 10.7661,"1575": 9.6913,"1600": 8.7408,"1625": 8.5389,"1650": 9.1457,"1675": 9.2225,"1700": 9.4725,"1725": 9.6582,"1750": 9.8451,"1775": 9.0509,"1800": 9.1446,"1825": 9.4408,"1850": 10.3894,"1875": 10.872,"1900": 10.4194,"1925": 11.0882,"1950": 11.3072,"1975": 10.9008,"2000": 11.7565,"2025": 12.5806,"2050": 12.2996,"2075": 12.2845,"2100": 11.2705,"2125": 11.0841,"2150": 11.4258,"2175": 10.8494,"2200": 9.3542,"2225": 9.2625,"2250": 7.2247,"2275": 5.6359,"2300": 4.2206,"2325": 3.178,"2350": 2.6791,"2375": 2.6633,"2400": 2.6466,"2425": 2.9266,"2450": 3.1597,"2475": 2.1012,"2500": 1.7594,"2525": 1.681,"2550": 1.4477,"2575": 1.0271,"2600": 0.9962,"2625": 0.7158,"2650": 0.4826,"2675": 0.1247,"2700": 0.0935}}}