{"type": "Feature","bbox": [44.7557,53.1654,45.0079,53.2462],"geometry": {"type": "MultiPolygon","coordinates": [[[[44.9622,53.1677,194.0376],[45.0079,53.2101,152.7092],[44.8457,53.2462,216.7833],[44.788,53.2254,230.9402],[44.7557,53.2069,238.3006],[44.7857,53.1654,207.1015],[44.9622,53.1677,194.0376]]]]}
,"properties": {"GID_2": "RUS.54.24_1","GID_0": "RUS","country": "Russia","GID_1": "RUS.54_1","province": "Penza","NL_NAME_1": "Пензенскаяобласть","county": "Penza","VARNAME_2": "NA","NL_NAME_2": "Пенза","TYPE_2": "Gorsovet","ENGTYPE_2": "District","CC_2": "NA","HASC_2": "RU.PZ.PG","name": "Penza.county","area_km2": 103.52179,"hist_schema_id": "Elevation0-9000","hist_area_km2": {"150": 2.41264,"175": 11.99844,"200": 19.82744,"225": 28.17156,"250": 20.25731,"275": 20.85441}}}