{"type": "Feature","bbox": [43.5919,54.0024,43.6816,54.0367],"geometry": {"type": "MultiPolygon","coordinates": [[[[43.6816,54.0324,202.438],[43.6168,54.0367,203.4537],[43.5919,54.0121,207.6732],[43.6614,54.0024,216.3163],[43.6816,54.0324,202.438]]]]}
,"properties": {"GID_2": "RUS.42.12_1","GID_0": "RUS","country": "Russia","GID_1": "RUS.42_1","province": "Mordovia","NL_NAME_1": "РеспубликаМордовия","county": "Kovylkino","VARNAME_2": "NA","NL_NAME_2": "Ковылкино","TYPE_2": "Gorsovet","ENGTYPE_2": "District","CC_2": "NA","HASC_2": "RU.MR.KG","name": "Kovylkino.county","area_km2": 14.47411,"hist_schema_id": "Elevation0-9000","hist_area_km2": {"175": 0.38604,"200": 10.57512,"225": 3.51295}}}