{"type": "Feature","bbox": [48.6971,52.0049,48.8941,52.1088],"geometry": {"type": "MultiPolygon","coordinates": [[[[48.8941,52.0481,38.4029],[48.8723,52.0789,55.0668],[48.8148,52.1088,92.6815],[48.6971,52.043,105.3917],[48.7452,52.0057,90.6078],[48.8303,52.0049,27.9517],[48.8941,52.0481,38.4029]]]]}
,"properties": {"GID_2": "RUS.63.36_1","GID_0": "RUS","country": "Russia","GID_1": "RUS.63_1","province": "Saratov","NL_NAME_1": "Саратовскаяобласть","county": "Pugachev","VARNAME_2": "NA","NL_NAME_2": "Пугачев","TYPE_2": "Gorod","ENGTYPE_2": "City","CC_2": "NA","HASC_2": "RU.SR.PG","name": "Pugachev.county","area_km2": 94.29749,"hist_schema_id": "Elevation0-9000","hist_area_km2": {"25": 9.14497,"50": 37.39988,"75": 13.24514,"100": 25.85132,"125": 8.65618}}}