{"type": "Feature","bbox": [47.0595,42.2655,47.583,42.6285],"geometry": {"type": "MultiPolygon","coordinates": [[[[47.5615,42.3623,1303.3068],[47.5763,42.3778,1422.2316],[47.5814,42.404,1003.9186],[47.583,42.4239,1198.3608],[47.5595,42.4464,1351.762],[47.5388,42.4421,1396.53],[47.4896,42.4426,1493.0226],[47.4592,42.4517,1695.5242],[47.4349,42.4694,1377.4526],[47.4391,42.4797,1363.1721],[47.4517,42.4965,1264.9658],[47.4436,42.5034,1137.3398],[47.3852,42.5329,984.4838],[47.3491,42.5397,1072.5944],[47.3409,42.5558,1246.4513],[47.3276,42.6285,1086.8099],[47.303,42.6185,1110.7776],[47.2561,42.6043,1077.1796],[47.206,42.6015,1122.9103],[47.1694,42.6013,1262.655],[47.0707,42.6065,2068.501],[47.0595,42.5937,1542.4103],[47.094,42.5701,1707.6046],[47.1223,42.5596,1637.3336],[47.1331,42.5516,1484.8406],[47.131,42.5334,1460.5375],[47.1564,42.525,1462.3569],[47.1844,42.518,1738.4988],[47.1919,42.5093,1620.4114],[47.1694,42.4885,2216.2148],[47.1412,42.4576,882.6973],[47.114,42.4401,1280.6143],[47.0897,42.4332,1480.0848],[47.0875,42.4071,1406.257],[47.0842,42.3527,1804.553],[47.1101,42.3138,1433.8633],[47.14,42.288,1154.2885],[47.1713,42.2655,1554.2758],[47.1821,42.3045,1590.476],[47.1968,42.3302,1429.5729],[47.2063,42.3639,1620.0878],[47.2333,42.3638,1517.0909],[47.2971,42.3446,1405.8563],[47.3375,42.3351,1607.7317],[47.3851,42.3575,1470.6992],[47.4242,42.3717,1701.2604],[47.4599,42.3736,1631.2892],[47.5033,42.3456,1670.6866],[47.5266,42.3464,1659.8047],[47.5525,42.3523,1351.4871],[47.5615,42.3623,1303.3068]]]]}
,"properties": {"GID_2": "RUS.15.33_1","GID_0": "RUS","country": "Russia","GID_1": "RUS.15_1","province": "Dagestan","NL_NAME_1": "РеспубликаДагестан","county": "Levashinskiyrayon","VARNAME_2": "NA","NL_NAME_2": "Левашинскийрайон","TYPE_2": "Raion","ENGTYPE_2": "District","CC_2": "R39002","HASC_2": "RU.DA.LE","name": "Levashinskiyrayon.county","area_km2": 835.3189,"hist_schema_id": "Elevation0-9000","hist_area_km2": {"775": 0.0939,"800": 0.8137,"825": 1.377,"850": 2.3628,"875": 3.4272,"900": 3.8343,"925": 4.9612,"950": 4.0847,"975": 5.0701,"1000": 6.6502,"1025": 8.0569,"1050": 10.5754,"1075": 13.2966,"1100": 16.7374,"1125": 19.7402,"1150": 26.7262,"1175": 31.8562,"1200": 31.203,"1225": 33.8035,"1250": 36.1544,"1275": 35.6875,"1300": 35.1091,"1325": 36.5798,"1350": 37.4113,"1375": 37.2252,"1400": 38.5902,"1425": 40.1887,"1450": 37.09,"1475": 32.8601,"1500": 27.912,"1525": 24.6245,"1550": 20.1219,"1575": 18.448,"1600": 16.8817,"1625": 16.5048,"1650": 14.0309,"1675": 12.826,"1700": 10.9484,"1725": 9.3984,"1750": 8.7401,"1775": 7.9578,"1800": 7.8805,"1825": 7.4748,"1850": 6.8161,"1875": 5.8633,"1900": 5.9407,"1925": 3.3763,"1950": 2.2975,"1975": 1.8444,"2000": 2.1257,"2025": 1.8913,"2050": 1.7661,"2075": 1.5004,"2100": 1.344,"2125": 1.2505,"2150": 1.0315,"2175": 1.1409,"2200": 0.7503,"2225": 0.6566,"2250": 0.4066}}}