{"type": "Feature","bbox": [42.0079,51.3718,42.1407,51.4499],"geometry": {"type": "MultiPolygon","coordinates": [[[[42.1407,51.38,104.3373],[42.1194,51.4427,99.6961],[42.0565,51.4499,164.1847],[42.0079,51.3992,189.546],[42.0536,51.3718,88.0338],[42.1407,51.38,104.3373]]]]}
,"properties": {"GID_2": "RUS.79.4_1","GID_0": "RUS","country": "Russia","GID_1": "RUS.79_1","province": "Voronezh","NL_NAME_1": "Воронежскаяобласть","county": "Borisoglebsk","VARNAME_2": "NA","NL_NAME_2": "Борисоглебск","TYPE_2": "Gorod","ENGTYPE_2": "City","CC_2": "NA","HASC_2": "RU.VR.BG","name": "Borisoglebsk.county","area_km2": 54.79184,"hist_schema_id": "Elevation0-9000","hist_area_km2": {"75": 0.47637,"100": 31.22929,"125": 3.66282,"150": 7.31167,"175": 11.78103,"200": 0.33067}}}