{"type": "Feature","bbox": [43.05,42.8896,43.8965,43.4122],"geometry": {"type": "MultiPolygon","coordinates": [[[[43.357,42.8896,3421.1021],[43.383,42.8951,3362.4861],[43.4176,42.8951,3301.2703],[43.416,42.8989,2960.5469],[43.4274,42.9011,2820.6921],[43.4562,42.9238,2794.3845],[43.4859,42.9383,2879.511],[43.5162,42.9371,3065.5156],[43.5403,42.9222,2654.7581],[43.5654,42.9022,2247.0266],[43.5927,42.9029,1814.0839],[43.6234,42.9122,2111.6812],[43.6566,42.9317,2729.0505],[43.6734,42.9628,2373.6938],[43.7519,43.0386,1867.0765],[43.7088,43.0562,2244.1296],[43.7006,43.0755,2000.6003],[43.7138,43.0966,1383.7999],[43.782,43.1521,980.6971],[43.8115,43.1796,835.0892],[43.8269,43.21,778.2767],[43.829,43.2385,765.9792],[43.8121,43.2696,683.4459],[43.811,43.2796,737.9307],[43.8792,43.3352,622.3287],[43.8957,43.3533,522.6007],[43.8965,43.3709,508.8209],[43.8872,43.387,472.8878],[43.8759,43.4122,405.6072],[43.8491,43.3971,526.0256],[43.7971,43.4005,571.6169],[43.763,43.3809,549.1956],[43.7417,43.3645,596.8568],[43.7116,43.3618,562.9498],[43.701,43.3547,577.6748],[43.6785,43.3288,618.3201],[43.6601,43.3001,820.7074],[43.6393,43.293,844.4506],[43.6153,43.3223,682.2292],[43.6005,43.3326,1022.0784],[43.5691,43.3419,1034.5862],[43.5369,43.3277,1041.2568],[43.4952,43.3184,1137.5243],[43.4469,43.3182,1551.5475],[43.4087,43.3211,1423.1782],[43.3849,43.3192,1246.8535],[43.3651,43.3016,1373.9719],[43.3404,43.2705,2045.4216],[43.3199,43.2324,1409.2313],[43.298,43.2014,2060.6389],[43.2775,43.1866,2009.4402],[43.246,43.1717,1746.5863],[43.2366,43.1603,2142.4656],[43.2315,43.145,2694.4846],[43.2247,43.1314,3314.4346],[43.1354,43.0927,2813.769],[43.0973,43.0656,2903.6797],[43.05,43.0262,4380.2529],[43.0599,43.0196,4734.6948],[43.1132,42.9927,4453.2148],[43.1679,42.9562,3553.8062],[43.1775,42.9489,3779.8081],[43.1856,42.9386,4158.8374],[43.1921,42.9344,3688.2085],[43.2618,42.9219,3298.6016],[43.3205,42.9015,3164.2974],[43.3295,42.8946,3663.3564],[43.3431,42.89,3512.8979],[43.357,42.8896,3421.1021]]]]}
,"properties": {"GID_2": "RUS.20.3_1","GID_0": "RUS","country": "Russia","GID_1": "RUS.20_1","province": "Kabardin-Balkar","NL_NAME_1": "Кабардино-БалкарскаяРеспублика","county": "Cherekskiyrayon","VARNAME_2": "Sovetskiy","NL_NAME_2": "Черекскийрайон","TYPE_2": "Raion","ENGTYPE_2": "District","CC_2": "R40000","HASC_2": "RU.KB.CR","name": "Cherekskiyrayon.county","area_km2": 2111.096,"hist_schema_id": "Elevation0-9000","hist_area_km2": {"400": 0.37,"425": 1.464,"450": 1.664,"475": 3.051,"500": 3.96,"525": 6.195,"550": 10.372,"575": 13.04,"600": 14.382,"625": 13.829,"650": 13.847,"675": 14.481,"700": 19.02,"725": 19.348,"750": 24.43,"775": 28.016,"800": 28.809,"825": 28.38,"850": 28.8,"875": 28.215,"900": 29.422,"925": 30.767,"950": 32.776,"975": 32.732,"1000": 31.391,"1025": 28.551,"1050": 23.994,"1075": 23.332,"1100": 21.555,"1125": 19.391,"1150": 16.457,"1175": 15.686,"1200": 14.313,"1225": 13.54,"1250": 13.23,"1275": 12.58,"1300": 11.575,"1325": 11.73,"1350": 12.488,"1375": 12.751,"1400": 11.362,"1425": 10.109,"1450": 10.573,"1475": 10.002,"1500": 9.864,"1525": 9.153,"1550": 9.88,"1575": 9.634,"1600": 9.464,"1625": 9.001,"1650": 9.681,"1675": 10.024,"1700": 10.056,"1725": 9.451,"1750": 9.762,"1775": 9.561,"1800": 10.289,"1825": 9.499,"1850": 9.887,"1875": 10.088,"1900": 9.502,"1925": 10.213,"1950": 9.997,"1975": 10.524,"2000": 11.61,"2025": 11.718,"2050": 12.229,"2075": 12.538,"2100": 11.936,"2125": 12.028,"2150": 13.391,"2175": 13.408,"2200": 13.006,"2225": 13.408,"2250": 13.595,"2275": 13.689,"2300": 13.458,"2325": 13.179,"2350": 14.047,"2375": 14.11,"2400": 14.545,"2425": 14.436,"2450": 15.52,"2475": 15.66,"2500": 15.336,"2525": 15.816,"2550": 16.019,"2575": 16.684,"2600": 15.91,"2625": 16.592,"2650": 16.561,"2675": 17.242,"2700": 17.818,"2725": 17.615,"2750": 18.158,"2775": 18.206,"2800": 18.36,"2825": 18.083,"2850": 18.454,"2875": 18.549,"2900": 18.471,"2925": 18.767,"2950": 18.843,"2975": 19.48,"3000": 19.218,"3025": 19.205,"3050": 19.299,"3075": 17.703,"3100": 18.525,"3125": 17.332,"3150": 17.751,"3175": 17.845,"3200": 17.675,"3225": 16.838,"3250": 17.412,"3275": 16.482,"3300": 16.158,"3325": 16.033,"3350": 15.956,"3375": 15.011,"3400": 15.15,"3425": 14.637,"3450": 13.97,"3475": 14.156,"3500": 12.281,"3525": 11.474,"3550": 11.21,"3575": 10.807,"3600": 11.101,"3625": 10.264,"3650": 8.932,"3675": 8.853,"3700": 8.621,"3725": 7.659,"3750": 7.985,"3775": 6.403,"3800": 5.984,"3825": 5.69,"3850": 5.783,"3875": 5.705,"3900": 5.038,"3925": 4.464,"3950": 4.573,"3975": 3.984,"4000": 3.751,"4025": 3.534,"4050": 3.317,"4075": 3.348,"4100": 2.79,"4125": 2.666,"4150": 2.542,"4175": 2.434,"4200": 2.139,"4225": 2.232,"4250": 1.953,"4275": 2.061,"4300": 1.658,"4325": 1.813,"4350": 1.271,"4375": 1.255,"4400": 1.085,"4425": 1.147,"4450": 1.085,"4475": 0.821,"4500": 0.666,"4525": 0.837,"4550": 0.666,"4575": 0.573,"4600": 0.62,"4625": 0.511,"4650": 0.372,"4675": 0.387,"4700": 0.512,"4725": 0.403,"4750": 0.294,"4775": 0.434,"4800": 0.248,"4825": 0.48,"4850": 0.31,"4875": 0.232,"4900": 0.387,"4925": 0.325,"4950": 0.171,"4975": 0.232,"5000": 0.139,"5025": 0.031,"5050": 0.14,"5075": 0.031}}}