{"type": "Feature","bbox": [47.788,41.6457,48.1232,41.8776],"geometry": {"type": "MultiPolygon","coordinates": [[[[47.788,41.6786,2021.2595],[47.8172,41.6741,1927.293],[47.8485,41.6719,1599.5229],[47.8677,41.6642,1685.3379],[47.8937,41.6457,1486.1714],[47.9346,41.6683,1326.4153],[47.9504,41.6738,1120.6068],[47.9749,41.6666,1084.3785],[47.9964,41.6521,1073.0892],[48.0111,41.6461,978.0991],[48.022,41.6529,969.0836],[48.0256,41.6694,755.0417],[48.0222,41.6821,838.5081],[48.0216,41.692,853.0723],[48.0405,41.7007,836.2058],[48.0686,41.7034,864.5807],[48.101,41.7143,610.1885],[48.1232,41.7325,633.8923],[48.1191,41.7597,477.3042],[48.0892,41.7589,717.5793],[48.0677,41.7671,771.3972],[47.9792,41.8422,1092.8228],[47.9573,41.8485,1526.8932],[47.9133,41.8396,1617.0977],[47.9003,41.8457,1530.7568],[47.8719,41.8733,1207.8264],[47.7997,41.8776,1490.5309],[47.8084,41.8682,1554.6705],[47.8158,41.8203,1857.7734],[47.8245,41.7944,1796.5326],[47.8449,41.7641,1655.4634],[47.8376,41.7531,1511.1936],[47.8183,41.7367,1239.9249],[47.8048,41.7191,2097.2202],[47.7915,41.695,2141.1382],[47.788,41.6786,2021.2595]]]]}
,"properties": {"GID_2": "RUS.15.24_1","GID_0": "RUS","country": "Russia","GID_1": "RUS.15_1","province": "Dagestan","NL_NAME_1": "РеспубликаДагестан","county": "Khivskiyrayon","VARNAME_2": "NA","NL_NAME_2": "Хивскийрайон","TYPE_2": "Raion","ENGTYPE_2": "District","CC_2": "R39003","HASC_2": "RU.DA.KV","name": "Khivskiyrayon.county","area_km2": 419.154,"hist_schema_id": "Elevation0-9000","hist_area_km2": {"400": 0.4429,"425": 1.1705,"450": 0.7276,"475": 0.7435,"500": 0.8226,"525": 0.8701,"550": 1.0282,"575": 1.1864,"600": 2.0248,"625": 2.8795,"650": 3.7972,"675": 3.4173,"700": 4.2242,"725": 5.2371,"750": 6.4397,"775": 7.0728,"800": 6.472,"825": 5.3489,"850": 6.4408,"875": 7.4374,"900": 8.0065,"925": 9.0188,"950": 9.6514,"975": 10.2362,"1000": 10.0465,"1025": 10.5678,"1050": 10.6311,"1075": 11.1846,"1100": 11.7214,"1125": 9.996,"1150": 10.2798,"1175": 10.6582,"1200": 11.7017,"1225": 12.3489,"1250": 12.5384,"1275": 11.7155,"1300": 11.3511,"1325": 10.4343,"1350": 10.2281,"1375": 9.8964,"1400": 9.0271,"1425": 8.5691,"1450": 8.1423,"1475": 7.464,"1500": 7.0212,"1525": 7.5905,"1550": 6.8632,"1575": 6.0891,"1600": 5.6144,"1625": 5.2353,"1650": 5.2355,"1675": 4.4919,"1700": 4.6024,"1725": 4.2231,"1750": 3.6854,"1775": 4.097,"1800": 4.3504,"1825": 4.43,"1850": 4.2402,"1875": 3.9241,"1900": 4.003,"1925": 3.513,"1950": 3.5923,"1975": 2.5479,"2000": 2.0258,"2025": 1.8361,"2050": 1.3295,"2075": 1.1555,"2100": 1.0606,"2125": 0.8864,"2150": 0.744,"2175": 0.459,"2200": 0.3324,"2225": 0.2532,"2250": 0.1899,"2275": 0.1424,"2300": 0.1108,"2325": 0.0633,"2350": 0.0158}}}