{"type": "Feature","bbox": [42.9079,44.0451,43.0153,44.0965],"geometry": {"type": "MultiPolygon","coordinates": [[[[43.0153,44.0521,550.3264],[42.9942,44.0965,744.0319],[42.9499,44.0772,600.9924],[42.9079,44.0717,629.7761],[42.9312,44.0508,558.6463],[42.9803,44.0451,530.918],[43.0153,44.0521,550.3264]]]]}
,"properties": {"GID_2": "RUS.65.18_1","GID_0": "RUS","country": "Russia","GID_1": "RUS.65_1","province": "Stavropol'","NL_NAME_1": "Ставропольскийкрай","county": "Lermontov","VARNAME_2": "NA","NL_NAME_2": "Лермонтов","TYPE_2": "Gorsovet","ENGTYPE_2": "District","CC_2": "NA","HASC_2": "RU.ST.LR","name": "Lermontov.county","area_km2": 27.14805,"hist_schema_id": "Elevation0-9000","hist_area_km2": {"525": 0.4267,"550": 5.69898,"575": 8.04439,"600": 5.78871,"625": 4.37173,"650": 1.17273,"675": 0.70058,"700": 0.57874,"725": 0.24366,"750": 0.12182}}}