{"type": "Feature","bbox": [38.0834,54.8798,38.1345,54.9172],"geometry": {"type": "MultiPolygon","coordinates": [[[[38.1345,54.9046,197.2507],[38.1117,54.9172,194.5444],[38.0834,54.9079,190.1985],[38.106,54.8999,191.5492],[38.1067,54.8815,163.3764],[38.1313,54.8798,169.9037],[38.1345,54.9046,197.2507]]]]}
,"properties": {"GID_2": "RUS.44.70_1","GID_0": "RUS","country": "Russia","GID_1": "RUS.44_1","province": "Moskva","NL_NAME_1": "Московскаяобласть","county": "Stupino","VARNAME_2": "NA","NL_NAME_2": "Ступино","TYPE_2": "Gorod","ENGTYPE_2": "City","CC_2": "NA","HASC_2": "RU.MS.SN","name": "Stupino.county","area_km2": 7.254088,"hist_schema_id": "Elevation0-9000","hist_area_km2": {"150": 0.134164,"175": 2.49982,"200": 4.620104}}}