{"type": "Feature","bbox": [37.7878,55.7895,37.8781,55.8027],"geometry": {"type": "MultiPolygon","coordinates": [[[[37.8384,55.7903,169.6602],[37.8781,55.7904,157.7647],[37.8778,55.8027,185.4127],[37.8462,55.7982,183.237],[37.8135,55.7967,169.5368],[37.7878,55.7895,159.9371],[37.799,55.7896,162.6328],[37.8384,55.7903,169.6602]]]]}
,"properties": {"GID_3": "RUS.43.2.9_1","GID_0": "RUS","country": "Russia","GID_1": "RUS.43_1","province": "MoscowCity","NL_NAME_1": "NA","GID_2": "RUS.43.2_1","county": "Eastern","NL_NAME_2": "NA","city": "169","VARNAME_3": "NA","NL_NAME_3": "NA","TYPE_3": "Raion","ENGTYPE_3": "NA","CC_3": "NA","HASC_3": "NA","name": "169.city","area_km2": 4.493508,"hist_schema_id": "Elevation0-9000","hist_area_km2": {"150": 0.655596,"175": 3.551877,"200": 0.286035}}}