{"type": "Feature","bbox": [33.5901,59.643,33.6211,59.6615],"geometry": {"type": "MultiPolygon","coordinates": [[[[33.6136,59.6458,73.8691],[33.6211,59.6528,53.5842],[33.6119,59.6601,63.0011],[33.6051,59.6615,61.0524],[33.5936,59.6593,59.439],[33.5901,59.6553,60.5578],[33.5921,59.6503,71.0064],[33.599,59.6438,72.3024],[33.6065,59.643,74.895],[33.6136,59.6458,73.8691]]]]}
,"properties": {"GID_2": "RUS.38.25_1","GID_0": "RUS","country": "Russia","GID_1": "RUS.38_1","province": "Leningrad","NL_NAME_1": "Ленинградскаяобласть","county": "Tikhvin","VARNAME_2": "NA","NL_NAME_2": "Тихвин","TYPE_2": "Gorod","ENGTYPE_2": "City","CC_2": "NA","HASC_2": "RU.LN.TI","name": "Tikhvin.county","area_km2": 2.410265,"hist_schema_id": "Elevation0-9000","hist_area_km2": {"50": 1.092596,"75": 1.317668}}}