{"type": "Feature","bbox": [55.543,55.3912,55.5705,55.4069],"geometry": {"type": "MultiPolygon","coordinates": [[[[55.5704,55.3962,144.8306],[55.5705,55.4008,129.3865],[55.5643,55.4053,170.9658],[55.5574,55.4069,182.9162],[55.5498,55.4054,188.2171],[55.543,55.3997,184.446],[55.5449,55.396,181.4393],[55.5504,55.392,158.7071],[55.5611,55.3912,136.5034],[55.5704,55.3962,144.8306]]]]}
,"properties": {"GID_3": "RUS.6.14.1_1","GID_0": "RUS","country": "Russia","GID_1": "RUS.6_1","province": "Bashkortostan","NL_NAME_1": "РеспубликаБашкортостан","GID_2": "RUS.6.14_1","county": "Birsk","NL_NAME_2": "Бирск","city": "NA","VARNAME_3": "NA","NL_NAME_3": "NA","TYPE_3": "NA","ENGTYPE_3": "NA","CC_3": "NA","HASC_3": "NA","name": "N_A.city","area_km2": 2.19126,"hist_schema_id": "Elevation0-9000","hist_area_km2": {"125": 0.39734,"150": 0.529789,"175": 1.059468,"200": 0.204663}}}