{"type": "Feature","bbox": [53.4402,54.4414,53.4843,54.4686],"geometry": {"type": "MultiPolygon","coordinates": [[[[53.4798,54.4476,241.3144],[53.4843,54.4535,257.8792],[53.4812,54.4613,176.7803],[53.4691,54.4686,169.1927],[53.453,54.4674,120.619],[53.4405,54.4615,105.9446],[53.4402,54.4539,105.84],[53.452,54.4455,180.8596],[53.4628,54.4414,174.8471],[53.4798,54.4476,241.3144]]]]}
,"properties": {"GID_2": "RUS.6.53_1","GID_0": "RUS","country": "Russia","GID_1": "RUS.6_1","province": "Bashkortostan","NL_NAME_1": "РеспубликаБашкортостан","county": "Oktyabr'skiy","VARNAME_2": "Oktabrskiy","NL_NAME_2": "Октябрьский","TYPE_2": "Gorod","ENGTYPE_2": "City","CC_2": "NA","HASC_2": "RU.BK.OK","name": "Oktyabr'skiy.county","area_km2": 6.051833,"hist_schema_id": "Elevation0-9000","hist_area_km2": {"100": 0.197193,"125": 1.03518,"150": 2.600615,"175": 1.614848,"200": 0.221879,"225": 0.320484,"250": 0.061632}}}