{"type": "Feature","bbox": [29.7344,58.8,29.7535,58.8109],"geometry": {"type": "MultiPolygon","coordinates": [[[[29.7482,58.8008,78.4336],[29.7535,58.8026,78.4564],[29.7523,58.8087,79.338],[29.7451,58.8109,80.4894],[29.7367,58.8092,80.6085],[29.7344,58.8058,77.4817],[29.7425,58.8,79.8714],[29.7482,58.8008,78.4336]]]]}
,"properties": {"GID_2": "RUS.38.15_1","GID_0": "RUS","country": "Russia","GID_1": "RUS.38_1","province": "Leningrad","NL_NAME_1": "Ленинградскаяобласть","county": "Luga","VARNAME_2": "NA","NL_NAME_2": "Луга","TYPE_2": "Gorod","ENGTYPE_2": "City","CC_2": "NA","HASC_2": "RU.LN.LG","name": "Luga.county","area_km2": 0.8895077,"hist_schema_id": "Elevation0-9000","hist_area_km2": {"75": 0.8895077}}}