{"type": "Feature","bbox": [43.4658,56.6719,43.4714,56.6755],"geometry": {"type": "MultiPolygon","coordinates": [[[[43.4688,56.672,111.7774],[43.4714,56.6746,113.8583],[43.4675,56.6755,112.4032],[43.4658,56.6744,110.8094],[43.467,56.6719,111.3173],[43.4688,56.672,111.7774]]]]}
,"properties": {"GID_2": "RUS.47.17_1","GID_0": "RUS","country": "Russia","GID_1": "RUS.47_1","province": "Nizhegorod","NL_NAME_1": "Нижегородскаяобласть","county": "Gorodets","VARNAME_2": "NA","NL_NAME_2": "Городец","TYPE_2": "Gorod","ENGTYPE_2": "City","CC_2": "NA","HASC_2": "RU.NZ.GG","name": "Gorodets.county","area_km2": 0.06989168,"hist_schema_id": "Elevation0-9000","hist_area_km2": {"100": 0.04659445,"125": 0.02329723}}}