{"type": "Feature","bbox": [32.3563,59.939,32.3828,59.9515],"geometry": {"type": "MultiPolygon","coordinates": [[[[32.379,59.9391,29.6604],[32.3828,59.9447,36.6875],[32.3773,59.9498,37.3441],[32.3693,59.9515,41.4997],[32.3593,59.9504,33.7781],[32.3563,59.9454,26.6168],[32.3601,59.9417,27.6084],[32.3686,59.939,29.4674],[32.379,59.9391,29.6604]]]]}
,"properties": {"GID_2": "RUS.38.29_1","GID_0": "RUS","country": "Russia","GID_1": "RUS.38_1","province": "Leningrad","NL_NAME_1": "Ленинградскаяобласть","county": "Volkhov","VARNAME_2": "NA","NL_NAME_2": "Волхов","TYPE_2": "Gorod","ENGTYPE_2": "City","CC_2": "NA","HASC_2": "RU.LN.VK","name": "Volkhov.county","area_km2": 1.529095,"hist_schema_id": "Elevation0-9000","hist_area_km2": {"25": 1.295495,"50": 0.233599}}}