{"type": "Feature","bbox": [47.2531,41.1889,48.0012,41.5772],"geometry": {"type": "MultiPolygon","coordinates": [[[[48.0012,41.402,2256.6982],[47.9525,41.4348,907.0806],[47.9416,41.4494,916.6478],[47.9302,41.4529,1186.2264],[47.9185,41.453,1525.9028],[47.9092,41.4497,1573.3484],[47.9025,41.4447,1421.4048],[47.9036,41.4395,1341.4158],[47.8909,41.4439,1344.2947],[47.8526,41.4598,1601.8948],[47.8454,41.4681,2002.2994],[47.8149,41.4796,2075.8896],[47.741,41.5118,1843.5033],[47.7177,41.5288,2440.8037],[47.693,41.538,2479.9929],[47.6251,41.5713,2759.762],[47.5984,41.5772,2573.4905],[47.5859,41.5737,2869.1875],[47.5537,41.5684,2454.5898],[47.5432,41.5617,2446.45],[47.5422,41.5548,2208.0044],[47.5557,41.5414,2368.4199],[47.5514,41.5303,2067.2441],[47.5286,41.5162,1332.1763],[47.5143,41.5052,1231.3761],[47.51,41.4757,1790.1516],[47.5029,41.4641,2176.5122],[47.4689,41.453,3198.562],[47.4336,41.4459,3482.0662],[47.4176,41.4449,3598.8096],[47.4204,41.4554,3252.0444],[47.4281,41.4674,3324.4561],[47.4116,41.4698,3035.6082],[47.3761,41.4512,2906.1714],[47.3246,41.4112,2737.4832],[47.3004,41.3982,3464.0874],[47.2964,41.4074,3220.5266],[47.2825,41.4003,2776.3542],[47.2758,41.4045,2696.0562],[47.2631,41.4008,3008.417],[47.2531,41.3915,2676.7827],[47.2531,41.364,2862.3213],[47.257,41.3574,3103.1943],[47.2624,41.3247,2770.5894],[47.2699,41.3185,2664.7393],[47.3251,41.2915,3227.9165],[47.4049,41.2663,3043.6877],[47.4134,41.2657,2917.6426],[47.4319,41.2704,2891.1533],[47.442,41.2712,2886.7844],[47.4492,41.2697,2683.249],[47.4585,41.2645,2819.249],[47.4782,41.2681,3064.6738],[47.4845,41.2664,3013.0225],[47.4971,41.2563,2794.0005],[47.497,41.2432,2705.019],[47.4954,41.2373,3018.1011],[47.5004,41.2316,3239.9583],[47.5359,41.2072,3409.9578],[47.5419,41.2063,3389.5879],[47.5607,41.2103,3031.8896],[47.5717,41.2146,3216.8787],[47.5842,41.2162,3251.1667],[47.5974,41.2222,3170.98],[47.6057,41.231,3221.5652],[47.6137,41.2364,3636.364],[47.6244,41.238,3587.7546],[47.631,41.2366,3206.1646],[47.6442,41.2262,3181.1577],[47.6507,41.2238,3228.7327],[47.6621,41.2227,3176.1025],[47.6835,41.2252,3506.7466],[47.691,41.2235,3460.9316],[47.702,41.2172,3523.875],[47.7199,41.1974,3557.2637],[47.731,41.1915,3672.7031],[47.7532,41.1889,3770.449],[47.7673,41.1898,3517.0911],[47.7738,41.1928,3350.1367],[47.7901,41.2106,3111.8076],[47.7984,41.216,3220.9426],[47.8211,41.2191,3699.1384],[47.8495,41.2167,4139.2646],[47.8653,41.2173,4337.1445],[47.8788,41.2192,4083.7771],[47.8911,41.2253,3866.1719],[47.8991,41.238,3688.3899],[47.8994,41.2481,3334.4473],[47.8956,41.2661,3516.6162],[47.8977,41.2725,3526.0686],[47.9031,41.28,3703.7935],[47.93,41.3003,3618.0935],[47.9371,41.3124,3399.8445],[47.9409,41.3599,2046.5808],[47.9499,41.3723,2334.491],[47.9579,41.3774,2498.4075],[47.986,41.3865,2267.1174],[48.0012,41.402,2256.6982]]]]}
,"properties": {"GID_2": "RUS.15.2_1","GID_0": "RUS","country": "Russia","GID_1": "RUS.15_1","province": "Dagestan","NL_NAME_1": "РеспубликаДагестан","county": "Akhtynskiyrayon","VARNAME_2": "NA","NL_NAME_2": "Ахтынскийрайон","TYPE_2": "Raion","ENGTYPE_2": "District","CC_2": "R39000","HASC_2": "RU.DA.AT","name": "Akhtynskiyrayon.county","area_km2": 1550.342,"hist_schema_id": "Elevation0-9000","hist_area_km2": {"800": 0.636,"825": 1.049,"850": 2.559,"875": 3.052,"900": 2.544,"925": 3.449,"950": 4.896,"975": 6.548,"1000": 5.754,"1025": 7.819,"1050": 7.31,"1075": 8.375,"1100": 8.55,"1125": 9.583,"1150": 9.884,"1175": 10.25,"1200": 10.377,"1225": 10.107,"1250": 9.456,"1275": 10.012,"1300": 10.108,"1325": 9.758,"1350": 10.585,"1375": 10.824,"1400": 11.222,"1425": 10.602,"1450": 12.081,"1475": 11.604,"1500": 11.604,"1525": 11.874,"1550": 12.447,"1575": 12.765,"1600": 12.973,"1625": 13.211,"1650": 12.989,"1675": 13.927,"1700": 14.389,"1725": 14.724,"1750": 14.23,"1775": 15.059,"1800": 14.041,"1825": 15.234,"1850": 15.584,"1875": 14.885,"1900": 15.045,"1925": 15.252,"1950": 15.937,"1975": 16.047,"2000": 16.207,"2025": 16.542,"2050": 17.211,"2075": 16.638,"2100": 17.308,"2125": 16.893,"2150": 18.135,"2175": 16.798,"2200": 17.818,"2225": 17.53,"2250": 17.899,"2275": 17.659,"2300": 19.013,"2325": 18.075,"2350": 18.028,"2375": 18.443,"2400": 18.634,"2425": 18.62,"2450": 19.112,"2475": 19.145,"2500": 18.843,"2525": 18.558,"2550": 19.116,"2575": 19.26,"2600": 18.352,"2625": 19.373,"2650": 18.179,"2675": 18.419,"2700": 17.097,"2725": 18.499,"2750": 17.958,"2775": 17.003,"2800": 16.671,"2825": 16.352,"2850": 16.941,"2875": 16.512,"2900": 16.672,"2925": 16.848,"2950": 16.498,"2975": 15.988,"3000": 16.865,"3025": 16.737,"3050": 17.041,"3075": 16.626,"3100": 15.48,"3125": 15.655,"3150": 16.022,"3175": 15.703,"3200": 16.483,"3225": 15.719,"3250": 14.874,"3275": 13.76,"3300": 14.477,"3325": 13.425,"3350": 11.626,"3375": 10.973,"3400": 9.571,"3425": 9.38,"3450": 8.441,"3475": 7.725,"3500": 7.104,"3525": 6.244,"3550": 5.321,"3575": 5.162,"3600": 5.194,"3625": 4.43,"3650": 3.521,"3675": 3.617,"3700": 3.617,"3725": 2.71,"3750": 2.455,"3775": 1.817,"3800": 1.738,"3825": 2.518,"3850": 2.295,"3875": 1.578,"3900": 1.02,"3925": 0.558,"3950": 0.43,"3975": 0.351,"4000": 0.287,"4025": 0.207,"4050": 0.128,"4075": 0.064,"4100": 0.096,"4125": 0.112,"4150": 0.191,"4175": 0.032,"4200": 0.128,"4225": 0.048,"4250": 0.08,"4275": 0.08,"4300": 0.08,"4325": 0.08,"4350": 0.207,"4375": 0.064,"4400": 0.096,"4425": 0.048}}}