{"type": "Feature","bbox": [55.7422,52.7426,55.7694,52.7585],"geometry": {"type": "MultiPolygon","coordinates": [[[[55.7635,52.745,290.6829],[55.7694,52.7487,324.6455],[55.7693,52.7523,355.9667],[55.7613,52.7585,336.2268],[55.751,52.7583,322.1416],[55.7425,52.7543,337.8317],[55.7422,52.7487,357.0292],[55.7471,52.7437,329.6969],[55.7545,52.7426,303.1464],[55.7635,52.745,290.6829]]]]}
,"properties": {"GID_2": "RUS.6.43_1","GID_0": "RUS","country": "Russia","GID_1": "RUS.6_1","province": "Bashkortostan","NL_NAME_1": "РеспубликаБашкортостан","county": "Kumertay","VARNAME_2": "Kumertau","NL_NAME_2": "Кумертау","TYPE_2": "Gorod","ENGTYPE_2": "City","CC_2": "NA","HASC_2": "RU.BK.KU","name": "Kumertay.county","area_km2": 2.425501,"hist_schema_id": "Elevation0-9000","hist_area_km2": {"275": 0.012835,"300": 0.385042,"325": 1.116478,"350": 0.885478,"375": 0.025667}}}