{"type": "Feature","bbox": [45.2424,42.462,46.045,42.9902],"geometry": {"type": "MultiPolygon","coordinates": [[[[45.7733,42.462,3612.0205],[45.7905,42.4632,3235.804],[45.8131,42.4706,2630.6621],[45.8736,42.5008,2456.3684],[45.9037,42.5183,2487.386],[45.924,42.5522,3105.3782],[45.9415,42.5865,2395.729],[45.9514,42.5897,2350.3721],[45.9603,42.5854,2615.1152],[45.9773,42.5707,2883.0396],[45.9903,42.5685,2829.4128],[46.0191,42.5775,2296.6953],[46.0355,42.5991,2044.9221],[46.0422,42.6291,2401.8733],[45.987,42.6387,2429.5735],[45.9751,42.6603,1799.0894],[45.9721,42.6741,2394.147],[45.9828,42.699,1901.7864],[46.028,42.7753,2029.1658],[46.0442,42.8158,2139.7913],[46.045,42.8348,2259.0564],[46.0364,42.8538,1602.063],[46.0251,42.8613,1901.3398],[46.0112,42.8597,1835.24],[45.9804,42.8423,1797.219],[45.9596,42.8368,2030.8574],[45.9252,42.8345,1611.4338],[45.8848,42.845,1426.1069],[45.8611,42.8645,1647.6124],[45.848,42.885,1576.5919],[45.8433,42.9018,1507.6278],[45.8617,42.9334,771.8912],[45.8681,42.9556,773.1644],[45.8691,42.9779,738.8143],[45.8561,42.9902,680.2271],[45.8466,42.9791,728.9191],[45.8286,42.9737,623.3929],[45.8067,42.9774,660.5403],[45.7869,42.9878,537.6625],[45.7918,42.9653,545.2961],[45.7855,42.9047,599.3979],[45.7589,42.883,1657.9413],[45.7555,42.8486,1011.7576],[45.743,42.8113,875.6558],[45.7191,42.7791,1564.7079],[45.672,42.7228,1693.616],[45.6258,42.701,1619.8159],[45.6017,42.6797,1711.7793],[45.5637,42.6636,1615.7694],[45.5345,42.6607,2425.5889],[45.5084,42.6553,2749.6848],[45.4758,42.6551,1515.0911],[45.4339,42.6522,2718.3921],[45.3881,42.6545,3177.8462],[45.3476,42.6645,2332.1162],[45.2855,42.6612,3413.8098],[45.2621,42.6454,2411.96],[45.2424,42.6353,3413.3911],[45.2623,42.6112,3223.9922],[45.2891,42.5949,3845.4333],[45.296,42.5872,3479.6133],[45.3016,42.5642,3528.0474],[45.3117,42.5477,3383.7456],[45.3316,42.5326,3648.896],[45.3401,42.5299,3391.345],[45.35,42.529,3231.8938],[45.4063,42.5422,3256.7244],[45.431399999999996,42.5435,3012.2017],[45.4877,42.5406,2766.5139],[45.5131,42.5416,3531.0845],[45.5398,42.5499,3341.2786],[45.5568,42.5502,3294.5215],[45.5698,42.5485,3879.1396],[45.5774,42.5458,3654.4048],[45.602,42.5278,3835.7715],[45.6299,42.5159,3251.6697],[45.6601,42.5067,3635.301],[45.7087,42.4851,3342.9746],[45.7514,42.4859,3575.5393],[45.7608,42.4811,3368.4443],[45.7679,42.4743,3403.4956],[45.7733,42.462,3612.0205]]]]}
,"properties": {"GID_2": "RUS.10.13_1","GID_0": "RUS","country": "Russia","GID_1": "RUS.10_1","province": "Chechnya","NL_NAME_1": "РеспубликаЧечено-Ингушская","county": "Shatoyskiyrayon","VARNAME_2": "Sovetskiy","NL_NAME_2": "Шатойскийрайон","TYPE_2": "Raion","ENGTYPE_2": "District","CC_2": "R42020","HASC_2": "RU.CN.ST","name": "Shatoyskiyrayon.county","area_km2": 1550.519,"hist_schema_id": "Elevation0-9000","hist_area_km2": {"525": 0.124,"550": 0.419,"575": 0.9,"600": 2.079,"625": 2.747,"650": 3.445,"675": 4.501,"700": 5.169,"725": 5.278,"750": 5.387,"775": 5.141,"800": 4.35,"825": 4.538,"850": 4.849,"875": 5.363,"900": 5.658,"925": 6.499,"950": 6.686,"975": 7.666,"1000": 7.792,"1025": 8.616,"1050": 8.399,"1075": 9.318,"1100": 10.065,"1125": 9.786,"1150": 10.658,"1175": 10.332,"1200": 10.754,"1225": 11.159,"1250": 11.363,"1275": 11.099,"1300": 11.816,"1325": 12.891,"1350": 13.515,"1375": 14.185,"1400": 14.902,"1425": 15.573,"1450": 15.699,"1475": 16.838,"1500": 17.072,"1525": 18.164,"1550": 18.615,"1575": 18.539,"1600": 19.537,"1625": 18.884,"1650": 19.648,"1675": 20.848,"1700": 20.008,"1725": 19.977,"1750": 21.257,"1775": 20.324,"1800": 20.573,"1825": 21.649,"1850": 22.026,"1875": 21.917,"1900": 22.899,"1925": 22.119,"1950": 22.62,"1975": 22.853,"2000": 22.371,"2025": 22.14,"2050": 21.501,"2075": 21.813,"2100": 21.72,"2125": 21.176,"2150": 20.225,"2175": 20.912,"2200": 21.224,"2225": 21.287,"2250": 19.603,"2275": 20.182,"2300": 18.826,"2325": 17.923,"2350": 17.878,"2375": 16.772,"2400": 15.682,"2425": 15.23,"2450": 14.295,"2475": 13.75,"2500": 13.891,"2525": 13.782,"2550": 12.94,"2575": 13.362,"2600": 12.067,"2625": 13.238,"2650": 12.005,"2675": 11.756,"2700": 11.163,"2725": 10.835,"2750": 10.429,"2775": 10.008,"2800": 9.868,"2825": 10.462,"2850": 9.025,"2875": 9.135,"2900": 9.775,"2925": 9.369,"2950": 9.525,"2975": 9.712,"3000": 9.307,"3025": 8.823,"3050": 8.932,"3075": 9.182,"3100": 9.01,"3125": 8.011,"3150": 8.12,"3175": 8.058,"3200": 7.901,"3225": 8.058,"3250": 6.949,"3275": 7.324,"3300": 6.684,"3325": 7.293,"3350": 6.809,"3375": 6.387,"3400": 6.668,"3425": 6.247,"3450": 6.669,"3475": 6.31,"3500": 5.638,"3525": 5.341,"3550": 5.404,"3575": 5.044,"3600": 4.685,"3625": 4.029,"3650": 3.795,"3675": 3.405,"3700": 3.326,"3725": 2.905,"3750": 3.015,"3775": 2.593,"3800": 2.077,"3825": 2.171,"3850": 1.734,"3875": 1.718,"3900": 1.125,"3925": 1.312,"3950": 0.812,"3975": 0.797,"4000": 0.812,"4025": 0.781,"4050": 0.531,"4075": 0.515,"4100": 0.375,"4125": 0.265,"4150": 0.453,"4175": 0.234,"4200": 0.172,"4225": 0.219,"4250": 0.125,"4275": 0.062,"4300": 0.047,"4325": 0.125,"4350": 0.062,"4375": 0.078,"4400": 0.031,"4450": 0.016}}}