{"type": "Feature","bbox": [47.7614,41.74,48.3128,42.0907],"geometry": {"type": "MultiPolygon","coordinates": [[[[47.7997,41.8776,1490.5309],[47.8719,41.8733,1207.8264],[47.9003,41.8457,1530.7568],[47.9133,41.8396,1617.0977],[47.9573,41.8485,1526.8932],[47.9792,41.8422,1092.8228],[48.0677,41.7671,771.3972],[48.0892,41.7589,717.5793],[48.1191,41.7597,477.3042],[48.1999,41.752,501.6336],[48.2657,41.74,222.0351],[48.2915,41.7775,176.21],[48.3128,41.7968,171.9712],[48.1892,41.8402,210.5867],[48.1473,41.867,271.7639],[48.1251,41.8869,272.648],[48.1322,41.8964,247.3581],[48.146,41.9009,294.6645],[48.17,41.8959,188.7625],[48.1875,41.8879,153.2696],[48.2023,41.8883,232.1749],[48.2163,41.898,143.2873],[48.2234,41.9075,120.3418],[48.1964,41.9384,209.0752],[48.1735,41.9567,432.9277],[48.1487,41.9829,468.3577],[48.1275,41.9945,606.2167],[48.108,41.9947,628.6844],[48.0822,41.9982,627.9175],[48.0695,42.0087,527.5569],[48.0743,42.0278,439.2209],[48.0731,42.0483,237.1158],[48.0653,42.0762,170.0183],[48.0479,42.089,152.4089],[48.0312,42.0907,261.6047],[48.0216,42.0835,314.2469],[48.0061,42.0613,259.4554],[47.9799,42.037,359.3416],[47.9623,42.0239,378.6782],[47.9418,42.0477,403.2175],[47.9432,42.0331,467.5867],[47.9216,41.9819,802.2992],[47.9076,41.9577,778.9571],[47.8805,41.9496,1143.0771],[47.8476,41.9463,1152.8265],[47.8179,41.9368,1084.3788],[47.7873,41.918,1405.6213],[47.7664,41.9073,1900.7542],[47.7614,41.8964,1773.8159],[47.7793,41.8841,1810.0547],[47.7997,41.8776,1490.5309]]]]}
,"properties": {"GID_2": "RUS.15.42_1","GID_0": "RUS","country": "Russia","GID_1": "RUS.15_1","province": "Dagestan","NL_NAME_1": "РеспубликаДагестан","county": "Tabasaranskiyrayon","VARNAME_2": "NA","NL_NAME_2": "Табасаранскийрайон","TYPE_2": "Raion","ENGTYPE_2": "District","CC_2": "R39003","HASC_2": "RU.DA.TB","name": "Tabasaranskiyrayon.county","area_km2": 730.7564,"hist_schema_id": "Elevation0-9000","hist_area_km2": {"100": 0.2529,"125": 2.7006,"150": 5.8239,"175": 12.5376,"200": 18.8075,"225": 25.8058,"250": 28.1868,"275": 30.8194,"300": 30.8962,"325": 29.267,"350": 25.9345,"375": 21.5734,"400": 19.5484,"425": 18.6655,"450": 19.155,"475": 17.8604,"500": 16.8492,"525": 15.7409,"550": 15.109,"575": 15.3605,"600": 15.6129,"625": 17.9153,"650": 17.7267,"675": 17.1596,"700": 15.7103,"725": 14.8922,"750": 12.1798,"775": 10.2241,"800": 9.4678,"825": 9.1531,"850": 8.5219,"875": 8.664,"900": 8.2378,"925": 8.3648,"950": 8.4284,"975": 8.333,"1000": 8.3179,"1025": 9.249,"1050": 9.1704,"1075": 9.7066,"1100": 8.586,"1125": 9.3122,"1150": 9.375,"1175": 8.4911,"1200": 8.0968,"1225": 7.6236,"1250": 6.7239,"1275": 6.4713,"1300": 5.8086,"1325": 5.1456,"1350": 4.7194,"1375": 4.4356,"1400": 3.8356,"1425": 3.2833,"1450": 2.652,"1475": 2.873,"1500": 2.7152,"1525": 3.1888,"1550": 3.0469,"1575": 3.1891,"1600": 3.0154,"1625": 2.9839,"1650": 2.7787,"1675": 2.8735,"1700": 2.6207,"1725": 2.5418,"1750": 1.7997,"1775": 1.1207,"1800": 0.8996,"1825": 0.7417,"1850": 0.6471,"1875": 0.6313,"1900": 0.2841,"1925": 0.2052,"1950": 0.0631,"1975": 0.0158,"2000": 0.0316}}}