{"type": "Feature","bbox": [42.4243,43.3594,42.8797,43.9841],"geometry": {"type": "MultiPolygon","coordinates": [[[[42.8797,43.7499,1351.7915],[42.825,43.7755,1479.8517],[42.8015,43.8176,1383.6431],[42.8001,43.8451,1196.1663],[42.8093,43.8769,1253.8591],[42.7801,43.9143,1267.5437],[42.75,43.9333,899.5885],[42.7333,43.97,1054.2354],[42.6839,43.9841,1129.5977],[42.6603,43.9829,1175.9109],[42.6499,43.9601,935.8215],[42.6731,43.929,793.9839],[42.6603,43.9099,926.7396],[42.6226,43.9097,1077.4553],[42.5783,43.9145,1038.7104],[42.5476,43.9393,949.2127],[42.5206,43.9655,998.4286],[42.4573,43.9788,1356.0065],[42.4377,43.9498,1178.4871],[42.4343,43.9213,1093.8527],[42.47,43.8865,1088.9114],[42.4937,43.8575,1536.2419],[42.5006,43.8245,1734.7081],[42.4975,43.7776,2090.0066],[42.4792,43.75,2166.8943],[42.4499,43.7347,2216.6865],[42.4243,43.7309,2025.2947],[42.4523,43.6825,2488.3076],[42.4453,43.6212,2235.0393],[42.4418,43.6048,2178.2395],[42.4705,43.5937,2239.9609],[42.5188,43.6091,2174.2061],[42.5365,43.6044,2283.7258],[42.5421,43.5685,2066.1929],[42.5291,43.5207,2110.6501],[42.5136,43.4173,2780.4893],[42.5228,43.3594,3525.4541],[42.5418,43.376,3259.1716],[42.592,43.4113,2831.0015],[42.6019,43.4392,2436.4092],[42.5797,43.5011,2189.5588],[42.5808,43.5267,1860.8307],[42.5858,43.5389,2046.7241],[42.6069,43.5574,1984.8505],[42.6528,43.5871,2106.6633],[42.7836,43.6243,2246.4038],[42.8246,43.643,1982.8533],[42.8528,43.6655,1810.436],[42.8607,43.704,1440.9663],[42.8505,43.7486,1309.99],[42.8797,43.7499,1351.7915]],
[[42.7685,43.8661,1034.6196],[42.7425,43.8541,1083.4288],[42.6822,43.8701,1122.1113],[42.6778,43.9505,934.1229],[42.7299,43.9657,1088.2012],[42.7248,43.9211,803.4359],[42.7685,43.8661,1034.6196]]]]}
,"properties": {"GID_2": "RUS.25.7_1","GID_0": "RUS","country": "Russia","GID_1": "RUS.25_1","province": "Karachay-Cherkess","NL_NAME_1": "Карачаево-ЧеркессияРеспублика","county": "Malokarachayevskiyrayon","VARNAME_2": "NA","NL_NAME_2": "Малокарачаевскийрайон","TYPE_2": "Raion","ENGTYPE_2": "District","CC_2": "R44010","HASC_2": "RU.KC.MA","name": "Malokarachayevskiyrayon.county","area_km2": 1180.9591,"hist_schema_id": "Elevation0-9000","hist_area_km2": {"725": 0.7175,"750": 1.0229,"775": 1.939,"800": 1.588,"825": 2.26,"850": 2.7946,"875": 2.7489,"900": 2.6573,"925": 4.26,"950": 7.039,"975": 8.6125,"1000": 12.1863,"1025": 13.0586,"1050": 14.3127,"1075": 16.6055,"1100": 16.8671,"1125": 16.6996,"1150": 19.0685,"1175": 18.7807,"1200": 16.2939,"1225": 16.1157,"1250": 16.239,"1275": 16.241,"1300": 16.9004,"1325": 16.2302,"1350": 16.6448,"1375": 18.4944,"1400": 17.4612,"1425": 16.3308,"1450": 17.2669,"1475": 17.4832,"1500": 18.8009,"1525": 19.0486,"1550": 19.2172,"1575": 20.0463,"1600": 21.4106,"1625": 20.4939,"1650": 20.221,"1675": 19.7935,"1700": 20.6377,"1725": 21.8788,"1750": 23.5649,"1775": 21.9119,"1800": 22.5425,"1825": 22.5595,"1850": 22.5913,"1875": 24.0496,"1900": 24.8333,"1925": 26.703,"1950": 27.1058,"1975": 27.4901,"2000": 27.9527,"2025": 26.9289,"2050": 27.0693,"2075": 28.4491,"2100": 28.3929,"2125": 22.6943,"2150": 20.4254,"2175": 19.6124,"2200": 18.8938,"2225": 16.1768,"2250": 15.5949,"2275": 13.9685,"2300": 13.2029,"2325": 13.0823,"2350": 8.7206,"2375": 7.0612,"2400": 4.8676,"2425": 3.778,"2450": 3.256,"2475": 3.3026,"2500": 2.5811,"2525": 3.1516,"2550": 2.783,"2575": 2.3992,"2600": 1.6931,"2625": 1.7702,"2650": 1.4011,"2675": 1.3858,"2700": 1.1702,"2725": 1.2934,"2750": 1.0317,"2775": 1.2626,"2800": 1.1395,"2825": 1.2011,"2850": 1.1703,"2875": 1.1241,"2900": 1.2012,"2925": 1.4477,"2950": 1.1089,"2975": 1.1397,"3000": 1.3246,"3025": 1.2784,"3050": 0.8934,"3075": 0.7701,"3100": 1.2016,"3125": 0.9089,"3150": 0.8781,"3175": 0.9551,"3200": 1.0938,"3225": 0.8782,"3250": 1.3867,"3275": 1.4021,"3300": 1.4023,"3325": 0.601,"3350": 0.1541,"3375": 0.2466,"3400": 0.1233,"3425": 0.2466,"3450": 0.1233,"3475": 0.1541,"3500": 0.1387,"3525": 0.0925}}}