{"type": "Feature","bbox": [40.1104,48.0026,40.1298,48.0176],"geometry": {"type": "MultiPolygon","coordinates": [[[[40.1242,48.0035,252.5768],[40.129,48.0071,245.1066],[40.1298,48.0119,234.356],[40.1276,48.0163,224.8675],[40.1213,48.0176,238.6539],[40.1108,48.0119,242.7983],[40.1104,48.0049,247.4524],[40.1183,48.0026,260.2712],[40.1242,48.0035,252.5768]]]]}
,"properties": {"GID_2": "RUS.58.60_1","GID_0": "RUS","country": "Russia","GID_1": "RUS.58_1","province": "Rostov","NL_NAME_1": "Ростовскаяобласть","county": "Zverevo","VARNAME_2": "NA","NL_NAME_2": "Зверево","TYPE_2": "Gorsovet","ENGTYPE_2": "District","CC_2": "NA","HASC_2": "RU.RO.ZV","name": "Zverevo.county","area_km2": 1.758861,"hist_schema_id": "Elevation0-9000","hist_area_km2": {"225": 0.170197,"250": 1.588664}}}