{"type": "Feature","bbox": [44.1619,52.4291,44.2569,52.4694],"geometry": {"type": "MultiPolygon","coordinates": [[[[44.2569,52.446,217.935],[44.2167,52.4694,208.906],[44.1619,52.4405,175.5198],[44.1902,52.4305,152.2894],[44.233,52.4291,161.0349],[44.2569,52.446,217.935]]]]}
,"properties": {"GID_2": "RUS.54.26_1","GID_0": "RUS","country": "Russia","GID_1": "RUS.54_1","province": "Penza","NL_NAME_1": "Пензенскаяобласть","county": "Serdobsk","VARNAME_2": "NA","NL_NAME_2": "Сердобск","TYPE_2": "Gorod","ENGTYPE_2": "City","CC_2": "NA","HASC_2": "RU.PZ.SG","name": "Serdobsk.county","area_km2": 16.20546,"hist_schema_id": "Elevation0-9000","hist_area_km2": {"150": 11.96768,"175": 1.1758,"200": 2.45468,"225": 0.6073}}}