{"type": "Feature","bbox": [35.7771,56.7697,36.0941,56.9104],"geometry": {"type": "MultiPolygon","coordinates": [[[[36.0941,56.7797,156.25],[35.9855,56.8739,135.4441],[35.8723,56.9104,143.1228],[35.8041,56.8486,137.1563],[35.7771,56.7956,132.5991],[35.9765,56.7953,143.411],[36.0858,56.7697,159.4802],[36.0941,56.7797,156.25]]]]}
,"properties": {"GID_2": "RUS.72.40_1","GID_0": "RUS","country": "Russia","GID_1": "RUS.72_1","province": "Tver'","NL_NAME_1": "Тверскаяобласть","county": "Tver'","VARNAME_2": "NA","NL_NAME_2": "Тверь","TYPE_2": "Gorsovet","ENGTYPE_2": "District","CC_2": "NA","HASC_2": "RU.TV.TV","name": "Tver'.county","area_km2": 151.4919,"hist_schema_id": "Elevation0-9000","hist_area_km2": {"125": 81.1973,"150": 67.6345,"175": 2.66}}}