{"type": "Feature","bbox": [46.3331,42.6416,46.8698,42.9041],"geometry": {"type": "MultiPolygon","coordinates": [[[[46.4045,42.8471,2380.6814],[46.3684,42.835,2467.2253],[46.3471,42.8208,2391.979],[46.3331,42.8076,2318.6997],[46.3704,42.7521,1972.8695],[46.3822,42.7397,1840.4561],[46.3736,42.7234,1551.5015],[46.3619,42.7126,1520.9736],[46.3492,42.7045,1398.46],[46.3704,42.6839,983.4194],[46.3966,42.6721,753.5901],[46.4238,42.6666,768.6254],[46.4482,42.6707,721.8257],[46.4783,42.6661,695.4022],[46.4997,42.6575,1198.1364],[46.5398,42.6524,1163.4115],[46.5588,42.6567,1054.4526],[46.5957,42.6601,1311.5773],[46.615,42.6548,1499.1273],[46.6306,42.6416,1595.3296],[46.6439,42.6438,1856.1068],[46.6752,42.6686,2011.6504],[46.6602,42.6793,1728.8988],[46.6462,42.6963,1466.2622],[46.6487,42.7098,1344.1836],[46.6717,42.7285,1658.4825],[46.7055,42.75,1759.7024],[46.7342,42.7618,844.9335],[46.7757,42.7563,1125.3367],[46.8099,42.7864,422.3704],[46.8555,42.8371,544.8112],[46.8698,42.8686,647.6207],[46.8464,42.8602,956.4623],[46.79,42.8317,1498.0448],[46.7577,42.8342,1266.3455],[46.7257,42.843,1428.567],[46.7077,42.8558,1935.4485],[46.6977,42.8582,2118.3713],[46.6614,42.8565,1766.1755],[46.6183,42.8594,1946.6921],[46.6149,42.8726,2088.0491],[46.5963,42.8951,2362.7148],[46.57,42.9041,1668.7937],[46.5293,42.8949,1755.7826],[46.4702,42.8518,2353.9275],[46.4486,42.8434,2178.4663],[46.4206,42.8417,2200.4165],[46.4045,42.8471,2380.6814]]]]}
,"properties": {"GID_2": "RUS.15.15_1","GID_0": "RUS","country": "Russia","GID_1": "RUS.15_1","province": "Dagestan","NL_NAME_1": "РеспубликаДагестан","county": "Gumbetovskiyrayon","VARNAME_2": "NA","NL_NAME_2": "Гумбетовскийрайон","TYPE_2": "Raion","ENGTYPE_2": "District","CC_2": "R39000","HASC_2": "RU.DA.GM","name": "Gumbetovskiyrayon.county","area_km2": 699.713,"hist_schema_id": "Elevation0-9000","hist_area_km2": {"325": 0.0156,"350": 2.2396,"375": 2.3957,"400": 2.4893,"425": 3.4854,"450": 3.548,"475": 5.0272,"500": 5.2141,"525": 5.5258,"550": 7.0522,"575": 7.4577,"600": 8.268,"625": 8.3142,"650": 9.1554,"675": 9.0456,"700": 8.9829,"725": 9.0921,"750": 9.4659,"775": 9.0927,"800": 9.0145,"825": 8.9527,"850": 9.8706,"875": 9.4036,"900": 9.3256,"925": 9.3419,"950": 9.8708,"975": 10.6648,"1000": 9.6216,"1025": 10.6956,"1050": 10.0253,"1075": 8.8118,"1100": 8.9514,"1125": 9.2477,"1150": 9.3414,"1175": 9.2166,"1200": 9.5742,"1225": 9.2159,"1250": 9.372,"1275": 9.2309,"1300": 9.3242,"1325": 10.3517,"1350": 10.0871,"1375": 9.7293,"1400": 9.9768,"1425": 9.4171,"1450": 8.8885,"1475": 9.3707,"1500": 7.8917,"1525": 8.1868,"1550": 7.7982,"1575": 7.3308,"1600": 7.8137,"1625": 7.1439,"1650": 8.0465,"1675": 8.2017,"1700": 8.2643,"1725": 8.2333,"1750": 7.9996,"1775": 8.7778,"1800": 8.7619,"1825": 8.4656,"1850": 8.1549,"1875": 8.1381,"1900": 7.9981,"1925": 8.2004,"1950": 7.6246,"1975": 7.997,"2000": 6.9078,"2025": 6.7214,"2050": 7.8724,"2075": 8.012,"2100": 7.3731,"2125": 7.7778,"2150": 7.1554,"2175": 7.3887,"2200": 7.9497,"2225": 8.5398,"2250": 7.9157,"2275": 6.7488,"2300": 6.6709,"2325": 6.2199,"2350": 6.5152,"2375": 5.5976,"2400": 5.6911,"2425": 5.691,"2450": 4.2297,"2475": 3.7323,"2500": 3.3123,"2525": 2.7216,"2550": 2.4571,"2575": 2.1772,"2600": 1.8973,"2625": 2.2237,"2650": 2.0993,"2675": 2.1305,"2700": 1.3685,"2725": 0.3889,"2750": 0.2645,"2775": 0.14,"2800": 0.0311}}}