{"type": "Feature","bbox": [46.886,42.4153,47.1919,42.6168],"geometry": {"type": "MultiPolygon","coordinates": [[[[47.0776,42.6168,1649.8511],[47.0421,42.6054,1568.401],[47.0136,42.6048,1299.2432],[46.9918,42.598,726.8118],[46.9782,42.5814,722.4832],[46.9602,42.5631,573.0652],[46.914,42.5697,1184.2853],[46.8989,42.5645,1118.0645],[46.886,42.5695,1200.0852],[46.9201,42.5421,666.9676],[46.9266,42.5137,1324.3687],[46.9289,42.4784,1289.6694],[46.961,42.4489,1378.9174],[46.9825,42.4269,858.5121],[47.007,42.4153,1463.564],[47.0392,42.4159,1057.5142],[47.0645,42.4221,1523.3474],[47.0897,42.4332,1480.0848],[47.114,42.4401,1280.6143],[47.1412,42.4576,882.6973],[47.1694,42.4885,2216.2148],[47.1919,42.5093,1620.4114],[47.1844,42.518,1738.4988],[47.1564,42.525,1462.3569],[47.131,42.5334,1460.5375],[47.1331,42.5516,1484.8406],[47.1223,42.5596,1637.3336],[47.094,42.5701,1707.6046],[47.0595,42.5937,1542.4103],[47.0776,42.6168,1649.8511]]]]}
,"properties": {"GID_2": "RUS.15.14_1","GID_0": "RUS","country": "Russia","GID_1": "RUS.15_1","province": "Dagestan","NL_NAME_1": "РеспубликаДагестан","county": "Gergebil'skiyrayon","VARNAME_2": "NA","NL_NAME_2": "Гергебильскийрайон","TYPE_2": "Raion","ENGTYPE_2": "District","CC_2": "R39000","HASC_2": "RU.DA.GE","name": "Gergebil'skiyrayon.county","area_km2": 309.9516,"hist_schema_id": "Elevation0-9000","hist_area_km2": {"550": 0.0781,"575": 2.7804,"600": 3.1087,"625": 2.5777,"650": 2.7966,"675": 4.2815,"700": 6.376,"725": 7.1579,"750": 7.4548,"775": 7.8775,"800": 7.5976,"825": 7.2058,"850": 6.6118,"875": 6.5341,"900": 6.6591,"925": 6.5343,"950": 6.5027,"975": 6.3623,"1000": 6.2994,"1025": 6.4085,"1050": 6.7523,"1075": 6.0804,"1100": 6.8778,"1125": 6.0801,"1150": 6.4396,"1175": 5.6893,"1200": 6.3461,"1225": 5.8455,"1250": 5.846,"1275": 5.7051,"1300": 6.112,"1325": 6.2993,"1350": 5.7209,"1375": 6.0959,"1400": 6.2836,"1425": 7.55,"1450": 6.9243,"1475": 7.0963,"1500": 7.0184,"1525": 7.3153,"1550": 6.9403,"1575": 6.3617,"1600": 6.7527,"1625": 6.0024,"1650": 5.7834,"1675": 4.5949,"1700": 3.625,"1725": 3.4689,"1750": 2.6877,"1775": 2.3281,"1800": 2.0622,"1825": 1.7966,"1850": 1.531,"1875": 1.5779,"1900": 1.7185,"1925": 1.4372,"1950": 1.4998,"1975": 1.1405,"2000": 1.3748,"2025": 1.203,"2050": 1.1718,"2075": 0.9689,"2100": 0.8907,"2125": 0.8752,"2150": 0.8752,"2175": 0.6877,"2200": 0.594,"2225": 0.3751,"2250": 0.1718,"2275": 0.0781,"2300": 0.0781,"2325": 0.0156}}}