{"type": "Feature","bbox": [47.4192,56.0616,47.4531,56.0809],"geometry": {"type": "MultiPolygon","coordinates": [[[[47.4466,56.0666,93.4218],[47.4531,56.0712,132.7837],[47.4504,56.0758,136.6034],[47.444,56.0793,82.4829],[47.434,56.0809,110.0891],[47.4192,56.0728,105.4486],[47.4255,56.0642,99.0561],[47.4356,56.0616,93.4743],[47.4466,56.0666,93.4218]]]]}
,"properties": {"GID_2": "RUS.13.16_1","GID_0": "RUS","country": "Russia","GID_1": "RUS.13_1","province": "Chuvash","NL_NAME_1": "ЧувашскаяРеспублика","county": "Novocheboksarsk","VARNAME_2": "NA","NL_NAME_2": "Новочебоксарск","TYPE_2": "Gorsovet","ENGTYPE_2": "District","CC_2": "NA","HASC_2": "RU.CV.NO","name": "Novocheboksarsk.county","area_km2": 2.852038,"hist_schema_id": "Elevation0-9000","hist_area_km2": {"75": 0.934942,"100": 1.325429,"125": 0.579834,"150": 0.011833}}}