{"type": "Feature","bbox": [39.038,44.1162,39.0685,44.1363],"geometry": {"type": "MultiPolygon","coordinates": [[[[39.0674,44.1179,46.7339],[39.0685,44.13,229.3984],[39.0553,44.1363,193.2131],[39.038,44.1272,124.9848],[39.0393,44.1162,86.9691],[39.0674,44.1179,46.7339]]]]}
,"properties": {"GID_2": "RUS.34.49_1","GID_0": "RUS","country": "Russia","GID_1": "RUS.34_1","province": "Krasnodar","NL_NAME_1": "Краснодарскийкрай","county": "Tuapse","VARNAME_2": "NA","NL_NAME_2": "Туапсе","TYPE_2": "Gorod","ENGTYPE_2": "City","CC_2": "NA","HASC_2": "RU.KD.TP","name": "Tuapse.county","area_km2": 4.00271,"hist_schema_id": "Elevation0-9000","hist_area_km2": {"50": 0.197871,"75": 0.334855,"100": 0.41095,"125": 0.654454,"150": 0.715303,"175": 0.760947,"200": 0.39569,"225": 0.319589,"250": 0.106526,"275": 0.106524}}}