{"type": "Feature","bbox": [42.5081,42.8895,44.5347,43.9494],"geometry": {"type": "MultiPolygon","coordinates": [[[[43.3006,42.9085,3470.0767],[43.3205,42.9015,3164.2974],[43.3295,42.8946,3663.3564],[43.3431,42.89,3512.8979],[43.3599,42.8895,3411.9099],[43.383,42.8951,3362.4861],[43.4176,42.8951,3301.2703],[43.416,42.8989,2960.5469],[43.4274,42.9011,2820.6921],[43.4562,42.9238,2794.3845],[43.4859,42.9383,2879.511],[43.5162,42.9371,3065.5156],[43.5403,42.9222,2654.7581],[43.5654,42.9022,2247.0266],[43.5927,42.9029,1814.0839],[43.6234,42.9122,2111.6812],[43.6566,42.9317,2729.0505],[43.6734,42.9628,2373.6938],[43.7519,43.0386,1867.0765],[43.7957,43.0753,1068.4561],[43.8519,43.1304,997.9662],[43.8822,43.1707,732.8123],[43.89,43.2091,675.5797],[43.9179,43.2564,794.7224],[43.933,43.2651,781.7064],[43.9624,43.2317,647.6374],[43.968,43.2151,676.3621],[43.9875,43.2032,642.1651],[44.002,43.2114,649.074],[44.0542,43.2275,638.684],[44.0916,43.1936,498.0219],[44.041,43.1879,573.5176],[44.0613,43.1634,511.9087],[44.1135,43.1562,470.1778],[44.1445,43.178,432.8789],[44.1665,43.2011,408.8687],[44.1742,43.2224,393.7569],[44.1709,43.243899999999996,464.8237],[44.1567,43.2661,643.5444],[44.1443,43.3072,505.2022],[44.1587,43.3234,338.0532],[44.1829,43.3405,306.3904],[44.2177,43.349,309.2086],[44.2345,43.3365,417.2613],[44.2456,43.3218,549.79],[44.2834,43.305,581.7135],[44.3124,43.3195,594.9765],[44.3462,43.3469,667.141],[44.3837,43.3561,639.6445],[44.427,43.3587,601.8806],[44.4755,43.3276,488.7717],[44.5053,43.347,544.4064],[44.5225,43.3697,601.1417],[44.4936,43.4212,650.3285],[44.5205,43.4555,531.6319],[44.5347,43.5012,361.7741],[44.5315,43.5211,324.7313],[44.5222,43.5423,419.1823],[44.5314,43.5742,323.8193],[44.5227,43.5968,229.4993],[44.5005,43.6159,192.5669],[44.4744,43.6313,194.0548],[44.4367,43.6374,182.1823],[44.4146,43.6535,188.9031],[44.4035,43.6733,184.0372],[44.4252,43.7039,149.9754],[44.4243,43.7304,157.029],[44.4192,43.7674,160.5913],[44.4271,43.8015,156.1636],[44.46,43.8351,164.5288],[44.5034,43.8669,173.644],[44.5261,43.8961,163.8669],[44.5269,43.9237,163.6179],[44.5212,43.9494,163.6196],[44.4844,43.9214,164.9354],[44.4382,43.8716,185.2523],[44.4097,43.8439,165.3722],[44.3953,43.8356,164.6651],[44.3441,43.8396,175.1407],[44.3007,43.8529,177.0098],[44.2742,43.8828,196.7858],[44.2519,43.8861,198.5224],[44.1978,43.8876,202.4145],[44.1652,43.8931,205.7463],[44.1169,43.9196,223.2733],[44.0732,43.9241,228.7282],[44.0124,43.8951,230.4497],[43.9685,43.8683,239.9232],[43.9447,43.8326,235.5539],[43.9302,43.8007,240.8858],[43.9255,43.7747,222.7194],[43.9108,43.7512,221.5295],[43.8842,43.7399,231.9284],[43.8335,43.7523,250.527],[43.8093,43.7626,272.541],[43.7428,43.7771,283.9767],[43.6733,43.7847,316.3171],[43.6079,43.7822,367.2017],[43.56,43.7735,394.2661],[43.5238,43.761,444.595],[43.4764,43.7418,484.4585],[43.4427,43.7689,480.3641],[43.4338,43.7837,502.7009],[43.4241,43.8202,630.2421],[43.419,43.8532,486.5965],[43.4035,43.8727,492.6908],[43.3741,43.8801,503.2754],[43.3402,43.8697,550.4837],[43.2982,43.8315,629.7413],[43.248,43.8315,680.0463],[43.2136,43.8261,700.3651],[43.1284,43.798,834.8376],[43.0919,43.804,1019.8465],[43.0659,43.806,1076.709],[43.0306,43.7921,1239.5763],[43.0043,43.7714,979.2429],[42.9572,43.7585,1253.4873],[42.8797,43.7499,1351.7915],[42.8505,43.7486,1309.99],[42.8607,43.704,1440.9663],[42.8528,43.6655,1810.436],[42.8246,43.643,1982.8533],[42.7836,43.6243,2246.4038],[42.6528,43.5871,2106.6633],[42.6069,43.5574,1984.8505],[42.5858,43.5389,2046.7241],[42.5808,43.5267,1860.8307],[42.5797,43.5011,2189.5588],[42.6019,43.4392,2436.4092],[42.592,43.4113,2831.0015],[42.5418,43.376,3259.1716],[42.5228,43.3594,3525.4541],[42.5385,43.3267,3430.7065],[42.5385,43.3029,3131.9282],[42.5278,43.2803,2923.2605],[42.5081,43.258,2168.988],[42.509,43.2356,2575.5854],[42.5256,43.2103,3651.0896],[42.5502,43.1849,3255.2329],[42.5772,43.1751,3359.6895],[42.5878,43.168,3721.2734],[42.5972,43.1644,3806.5769],[42.6251,43.1578,3853.8562],[42.6358,43.151,3682.7534],[42.6661,43.1403,3854.5369],[42.683,43.1371,4207.0928],[42.6861,43.1387,4110.4126],[42.6874,43.1428,3629.2515],[42.6861,43.1481,3468.6077],[42.6738,43.168,3831.6592],[42.6757,43.1728,3945.2041],[42.6801,43.174,3877.4028],[42.702,43.172,3742.854],[42.7145,43.1756,4016.4209],[42.7242,43.1764,3592.9399],[42.7654,43.1853,3493.5408],[42.7801,43.1856,3738.3599],[42.7914,43.184,3951.2886],[42.8099,43.1742,3485.5437],[42.8186,43.1733,4083.3379],[42.8408,43.1772,3800.5332],[42.863,43.1715,3573.1619],[42.8927,43.1701,3093.2925],[42.8956,43.166,3260.5747],[42.8965,43.1578,3548.7869],[42.8993,43.152,3553.1567],[42.9034,43.1491,3444.5352],[42.9234,43.1424,3423.7075],[42.9309,43.1383,3479.0786],[42.9318,43.1335,3369.1833],[42.9252,43.1154,3267.5825],[42.9487,43.1145,3301.6897],[42.9855,43.1099,3643.2227],[43.0386,43.0906,4096.1045],[43.0395,43.087,4025.0093],[43.0242,43.067,3928.2629],[43.0266,43.0499,4621.3589],[43.036,43.0384,4597.5664],[43.0425,43.0318,4724.6528],[43.0599,43.0196,4734.6948],[43.1132,42.9927,4453.2148],[43.1671,42.9567,3553.8062],[43.1775,42.9489,3779.8081],[43.1856,42.9386,4158.8374],[43.1921,42.9344,3688.2085],[43.2618,42.9219,3298.6016],[43.3006,42.9085,3470.0767]]]]}
,"properties": {"GID_1": "RUS.20_1","GID_0": "RUS","country": "Russia","province": "Kabardin-Balkar","VARNAME_1": "KabardinA.S.S.R.|Kabardino-Balk","NL_NAME_1": "Кабардино-БалкарскаяРеспублика","TYPE_1": "Respublika","ENGTYPE_1": "Republic","CC_1": "NA","HASC_1": "RU.KB","ISO_1": "NA","name": "Kabardin-Balkar.province","area_km2": 11716.311,"hist_schema_id": "Elevation0-9000","hist_area_km2": {"150": 97.078,"175": 445.211,"200": 429.562,"225": 451.87,"250": 320.643,"275": 332.199,"300": 342.287,"325": 310.334,"350": 258.059,"375": 219.256,"400": 190.78,"425": 161.011,"450": 140.461,"475": 128.413,"500": 132.514,"525": 131.29,"550": 130.145,"575": 124.837,"600": 121.686,"625": 117.28,"650": 116.732,"675": 117.652,"700": 110.368,"725": 119.256,"750": 132.928,"775": 130.206,"800": 117.836,"825": 107.117,"850": 102.549,"875": 94.879,"900": 93.024,"925": 92.871,"950": 93.749,"975": 94.4,"1000": 91.481,"1025": 88.904,"1050": 82.258,"1075": 81.116,"1100": 78.519,"1125": 73.198,"1150": 67.157,"1175": 66.92,"1200": 63.692,"1225": 61.678,"1250": 59.202,"1275": 58.244,"1300": 55.261,"1325": 53.455,"1350": 52.711,"1375": 54.1,"1400": 52.04,"1425": 48.412,"1450": 47.804,"1475": 48.159,"1500": 47.4,"1525": 45.935,"1550": 46.69,"1575": 47.526,"1600": 48.471,"1625": 48.067,"1650": 47.777,"1675": 49.168,"1700": 48.635,"1725": 46.8,"1750": 47.15,"1775": 45.273,"1800": 48.096,"1825": 46.568,"1850": 46.156,"1875": 46.837,"1900": 46.945,"1925": 47.961,"1950": 49.719,"1975": 49.83,"2000": 49.944,"2025": 51.27,"2050": 52.92,"2075": 54.495,"2100": 54.556,"2125": 54.093,"2150": 55.471,"2175": 55.702,"2200": 55.947,"2225": 56.071,"2250": 59.891,"2275": 61.537,"2300": 62.312,"2325": 60.588,"2350": 59.153,"2375": 59.007,"2400": 57.552,"2425": 56.001,"2450": 53.839,"2475": 53.875,"2500": 51.455,"2525": 51.862,"2550": 51.093,"2575": 50.948,"2600": 48.679,"2625": 49.718,"2650": 47.961,"2675": 47.904,"2700": 48.005,"2725": 47.792,"2750": 45.807,"2775": 47.2,"2800": 47.37,"2825": 47.126,"2850": 47.315,"2875": 46.144,"2900": 46.825,"2925": 47.368,"2950": 47.707,"2975": 47.387,"3000": 47.125,"3025": 47.654,"3050": 47.454,"3075": 45.32,"3100": 47.16,"3125": 44.764,"3150": 46.203,"3175": 45.34,"3200": 45.125,"3225": 43.777,"3250": 43.241,"3275": 41.819,"3300": 42.621,"3325": 40.585,"3350": 40.013,"3375": 37.571,"3400": 37.169,"3425": 35.346,"3450": 34.681,"3475": 34.603,"3500": 31.015,"3525": 29.763,"3550": 28.263,"3575": 26.964,"3600": 26.15,"3625": 23.797,"3650": 22.003,"3675": 20.381,"3700": 19.56,"3725": 18.336,"3750": 17.411,"3775": 15.413,"3800": 14.145,"3825": 12.69,"3850": 12.274,"3875": 12.166,"3900": 9.628,"3925": 8.653,"3950": 8.715,"3975": 7.307,"4000": 6.75,"4025": 6.008,"4050": 5.343,"4075": 4.972,"4100": 4.228,"4125": 4.151,"4150": 3.779,"4175": 3.578,"4200": 2.82,"4225": 2.851,"4250": 2.433,"4275": 2.309,"4300": 1.937,"4325": 2.046,"4350": 1.503,"4375": 1.426,"4400": 1.271,"4425": 1.271,"4450": 1.193,"4475": 0.961,"4500": 0.744,"4525": 0.945,"4550": 0.806,"4575": 0.666,"4600": 0.697,"4625": 0.542,"4650": 0.387,"4675": 0.403,"4700": 0.512,"4725": 0.403,"4750": 0.294,"4775": 0.434,"4800": 0.248,"4825": 0.48,"4850": 0.31,"4875": 0.232,"4900": 0.387,"4925": 0.325,"4950": 0.171,"4975": 0.232,"5000": 0.139,"5050": 0.14}}}