{"type": "Feature","bbox": [33.1005,57.1408,33.1404,57.1632],"geometry": {"type": "MultiPolygon","coordinates": [[[[33.134,57.1442,210.4139],[33.1404,57.1548,204.5],[33.1295,57.1629,204.5],[33.1092,57.1632,204.5],[33.1005,57.156,213.9482],[33.1017,57.1478,208.2933],[33.1218,57.1408,215.3562],[33.134,57.1442,210.4139]]]]}
,"properties": {"GID_2": "RUS.72.26_1","GID_0": "RUS","country": "Russia","GID_1": "RUS.72_1","province": "Tver'","NL_NAME_1": "Тверскаяобласть","county": "Ostashkov","VARNAME_2": "NA","NL_NAME_2": "Осташков","TYPE_2": "Gorod","ENGTYPE_2": "City","CC_2": "NA","HASC_2": "RU.TV.OG","name": "Ostashkov.county","area_km2": 4.358537,"hist_schema_id": "Elevation0-9000","hist_area_km2": {"200": 4.174511,"225": 0.184026}}}