{"type": "Feature","bbox": [42.9177,43.0262,43.9233,43.5709],"geometry": {"type": "MultiPolygon","coordinates": [[[[43.05,43.0262,4380.2529],[43.0973,43.0656,2903.6797],[43.1354,43.0927,2813.769],[43.2247,43.1314,3314.4346],[43.2315,43.145,2694.4846],[43.2366,43.1603,2142.4656],[43.246,43.1717,1746.5863],[43.2775,43.1866,2009.4402],[43.298,43.2014,2060.6389],[43.3199,43.2324,1409.2313],[43.3404,43.2705,2045.4216],[43.3651,43.3016,1373.9719],[43.3849,43.3192,1246.8535],[43.4087,43.3211,1423.1782],[43.4469,43.3182,1551.5475],[43.4952,43.3184,1137.5243],[43.5369,43.3277,1041.2568],[43.5691,43.3419,1034.5862],[43.6005,43.3326,1022.0784],[43.6153,43.3223,682.2292],[43.6393,43.293,844.4506],[43.6601,43.3001,820.7074],[43.6785,43.3288,618.3201],[43.701,43.3547,577.6748],[43.7116,43.3618,562.9498],[43.7417,43.3645,596.8568],[43.763,43.3809,549.1956],[43.7971,43.4005,571.6169],[43.8491,43.3971,526.0256],[43.8759,43.4122,405.6072],[43.8746,43.4302,399.6637],[43.8801,43.4591,371.3541],[43.8883,43.4897,340.7079],[43.8725,43.4993,335.7554],[43.8514,43.5043,342.7773],[43.8838,43.5336,303.0992],[43.9233,43.5498,269.4236],[43.8895,43.5575,277.3903],[43.8301,43.5618,291.2551],[43.786,43.5709,295.0522],[43.7572,43.5664,313.8116],[43.6983,43.5366,370.1725],[43.6781,43.5331,384.042],[43.6549,43.5411,392.3741],[43.6157,43.5346,431.9264],[43.5528,43.5112,542.5873],[43.5195,43.505,679.237],[43.4793,43.4868,808.7969],[43.418,43.4539,1115.2087],[43.3445,43.3905,1518.6753],[43.2544,43.3334,2891.3499],[43.2212,43.323,2563.9453],[43.1914,43.3196,2005.6178],[43.1608,43.3128,1573.9374],[43.1318,43.301,2059.1855],[43.0989,43.2802,2878.8306],[43.0544,43.2595,3246.9238],[43.0094,43.222,2531.6055],[42.9603,43.174,3540.8257],[42.9177,43.1441,3372.5122],[42.9309,43.1383,3479.0786],[42.9318,43.1335,3369.1833],[42.9252,43.1154,3267.5825],[42.9487,43.1145,3301.6897],[42.9855,43.1099,3643.2227],[43.0386,43.0906,4096.1045],[43.0395,43.087,4025.0093],[43.0242,43.067,3928.2629],[43.0248,43.0572,4182.248],[43.0266,43.0499,4621.3589],[43.036,43.0384,4597.5664],[43.05,43.0262,4380.2529]]]]}
,"properties": {"GID_2": "RUS.20.2_1","GID_0": "RUS","country": "Russia","GID_1": "RUS.20_1","province": "Kabardin-Balkar","NL_NAME_1": "Кабардино-БалкарскаяРеспублика","county": "Chegemskiyrayon","VARNAME_2": "NA","NL_NAME_2": "Чегемскийрайон","TYPE_2": "Raion","ENGTYPE_2": "District","CC_2": "R40000","HASC_2": "RU.KB.CG","name": "Chegemskiyrayon.county","area_km2": 1446.031,"hist_schema_id": "Elevation0-9000","hist_area_km2": {"275": 4.518,"300": 24.894,"325": 32.878,"350": 36.812,"375": 38.669,"400": 42.106,"425": 35.88,"450": 32.989,"475": 32.441,"500": 30.953,"525": 28.65,"550": 24.266,"575": 17.014,"600": 15.677,"625": 17.743,"650": 18.112,"675": 17.465,"700": 18.575,"725": 20.827,"750": 20.827,"775": 18.963,"800": 18.131,"825": 17.269,"850": 16.669,"875": 15.559,"900": 15.114,"925": 15.222,"950": 14.422,"975": 14.901,"1000": 15.209,"1025": 14.177,"1050": 13.637,"1075": 12.758,"1100": 11.587,"1125": 9.969,"1150": 7.982,"1175": 6.934,"1200": 5.316,"1225": 4.823,"1250": 4.376,"1275": 3.745,"1300": 3.915,"1325": 4.131,"1350": 4.548,"1375": 4.996,"1400": 5.844,"1425": 5.845,"1450": 5.414,"1475": 5.939,"1500": 6.001,"1525": 5.524,"1550": 5.324,"1575": 5.802,"1600": 7.007,"1625": 7.192,"1650": 6.42,"1675": 6.374,"1700": 6.652,"1725": 5.649,"1750": 6.761,"1775": 6.375,"1800": 6.469,"1825": 6.948,"1850": 6.377,"1875": 7.272,"1900": 7.273,"1925": 7.427,"1950": 7.767,"1975": 8.307,"2000": 7.165,"2025": 8.015,"2050": 7.984,"2075": 8.448,"2100": 8.881,"2125": 8.31,"2150": 8.681,"2175": 7.831,"2200": 7.908,"2225": 7.785,"2250": 8.217,"2275": 8.419,"2300": 9.067,"2325": 8.187,"2350": 8.08,"2375": 8.59,"2400": 8.188,"2425": 8.312,"2450": 8.328,"2475": 8.466,"2500": 8.096,"2525": 7.865,"2550": 7.803,"2575": 8.175,"2600": 7.973,"2625": 7.881,"2650": 7.711,"2675": 7.449,"2700": 7.265,"2725": 8.239,"2750": 7.234,"2775": 8.022,"2800": 7.93,"2825": 7.482,"2850": 8.085,"2875": 7.435,"2900": 7.715,"2925": 7.884,"2950": 7.606,"2975": 6.678,"3000": 7.018,"3025": 7.204,"3050": 6.37,"3075": 6.957,"3100": 6.432,"3125": 6.2,"3150": 6.401,"3175": 6.231,"3200": 6.773,"3225": 6.107,"3250": 5.938,"3275": 6.062,"3300": 5.784,"3325": 5.568,"3350": 5.073,"3375": 5.135,"3400": 4.826,"3425": 4.857,"3450": 5.074,"3475": 4.269,"3500": 4.099,"3525": 4.625,"3550": 3.883,"3575": 3.775,"3600": 4.209,"3625": 3.327,"3650": 3.637,"3675": 3.776,"3700": 3.157,"3725": 2.971,"3750": 2.863,"3775": 2.817,"3800": 2.801,"3825": 1.981,"3850": 2.09,"3875": 2.074,"3900": 1.47,"3925": 1.486,"3950": 1.238,"3975": 0.975,"4000": 1.022,"4025": 0.913,"4050": 0.759,"4075": 0.712,"4100": 0.697,"4125": 0.774,"4150": 0.635,"4175": 0.511,"4200": 0.48,"4225": 0.48,"4250": 0.372,"4275": 0.186,"4300": 0.232,"4325": 0.186,"4350": 0.263,"4375": 0.17,"4400": 0.186,"4425": 0.139,"4450": 0.108,"4475": 0.139,"4500": 0.077,"4525": 0.108,"4550": 0.139,"4575": 0.077,"4600": 0.077,"4625": 0.031,"4650": 0.015}}}