{"type": "Feature","bbox": [42.5081,43.1371,43.0967,43.3967],"geometry": {"type": "MultiPolygon","coordinates": [[[[42.9177,43.1441,3372.5122],[42.9603,43.174,3540.8257],[43.0094,43.222,2531.6055],[43.0544,43.2595,3246.9238],[43.0694,43.2665,2703.3394],[43.0967,43.3967,1920.6562],[42.8892,43.3897,2074.9944],[42.8905,43.3875,2042.1758],[42.8767,43.3667,1346.8225],[42.8444,43.3342,1845.2756],[42.8119,43.3342,1591.7539],[42.7905,43.3251,1485.1128],[42.7624,43.3088,1520.2181],[42.6674,43.294,2267.5339],[42.5278,43.2803,2923.2605],[42.5081,43.258,2168.988],[42.509,43.2356,2575.5854],[42.5256,43.2103,3651.0896],[42.5502,43.1849,3255.2329],[42.5772,43.1751,3359.6895],[42.5878,43.168,3721.2734],[42.5972,43.1644,3806.5769],[42.6251,43.1578,3853.8562],[42.6358,43.151,3682.7534],[42.6661,43.1403,3854.5369],[42.683,43.1371,4207.0928],[42.6861,43.1387,4110.4126],[42.6874,43.1428,3629.2515],[42.6861,43.1481,3468.6077],[42.6738,43.168,3831.6592],[42.6757,43.1728,3945.2041],[42.6801,43.174,3877.4028],[42.702,43.172,3742.854],[42.7145,43.1756,4016.4209],[42.7242,43.1764,3592.9399],[42.7654,43.1853,3493.5408],[42.7801,43.1856,3738.3599],[42.7914,43.184,3951.2886],[42.8099,43.1742,3485.5437],[42.8186,43.1733,4083.3379],[42.8408,43.1772,3800.5332],[42.863,43.1715,3573.1619],[42.8927,43.1701,3093.2925],[42.8956,43.166,3260.5747],[42.8965,43.1578,3548.7869],[42.8993,43.152,3553.1567],[42.9034,43.1491,3444.5352],[42.9177,43.1441,3372.5122]]]]}
,"properties": {"GID_2": "RUS.20.4_1","GID_0": "RUS","country": "Russia","GID_1": "RUS.20_1","province": "Kabardin-Balkar","NL_NAME_1": "Кабардино-БалкарскаяРеспублика","county": "El'brusskiyrayon","VARNAME_2": "Tyrnyauz","NL_NAME_2": "Эльбрусскийрайон","TYPE_2": "Raion","ENGTYPE_2": "District","CC_2": "R40000","HASC_2": "RU.KB.TY","name": "El'brusskiyrayon.county","area_km2": 785.7792,"hist_schema_id": "Elevation0-9000","hist_area_km2": {"1275": 0.5701,"1300": 0.8168,"1325": 0.6781,"1350": 0.6627,"1375": 0.5394,"1400": 0.5394,"1425": 0.5394,"1450": 1.5572,"1475": 1.5572,"1500": 1.6651,"1525": 2.2204,"1550": 2.2512,"1575": 2.2821,"1600": 2.4667,"1625": 2.467,"1650": 2.2506,"1675": 2.9601,"1700": 2.8987,"1725": 3.2695,"1750": 4.1952,"1775": 3.887,"1800": 4.9516,"1825": 3.9947,"1850": 4.2567,"1875": 4.5811,"1900": 4.7663,"1925": 4.7969,"1950": 5.4756,"1975": 5.0136,"2000": 5.7386,"2025": 5.7077,"2050": 5.8935,"2075": 6.6039,"2100": 6.1567,"2125": 6.913,"2150": 6.3881,"2175": 7.0981,"2200": 7.4685,"2225": 6.9749,"2250": 7.9626,"2275": 7.4073,"2300": 8.1493,"2325": 8.5969,"2350": 8.3808,"2375": 8.6584,"2400": 9.1224,"2425": 9.447,"2450": 8.9373,"2475": 9.648,"2500": 8.5213,"2525": 9.4013,"2550": 8.969,"2575": 9.1551,"2600": 8.8778,"2625": 9.6652,"2650": 8.9398,"2675": 9.0481,"2700": 9.6352,"2725": 9.4959,"2750": 9.4651,"2775": 9.913,"2800": 9.6974,"2825": 10.3149,"2850": 10.2382,"2875": 9.9448,"2900": 10.2075,"2925": 10.5937,"2950": 10.9339,"2975": 11.5982,"3000": 11.2268,"3025": 11.6293,"3050": 12.278,"3075": 11.1826,"3100": 12.4638,"3125": 11.9391,"3150": 12.9119,"3175": 12.372,"3200": 11.7536,"3225": 12.0318,"3250": 11.5376,"3275": 11.3681,"3300": 12.171,"3325": 11.9084,"3350": 11.6615,"3375": 10.9664,"3400": 10.9041,"3425": 10.4876,"3450": 10.287,"3475": 11.3986,"3500": 10.21,"3525": 9.9784,"3550": 9.9635,"3575": 9.2059,"3600": 8.6348,"3625": 7.7234,"3650": 7.4144,"3675": 6.1631,"3700": 6.1016,"3725": 6.225,"3750": 5.6999,"3775": 5.3141,"3800": 4.5726,"3825": 4.4951,"3850": 3.9234,"3875": 3.9701,"3900": 2.9348,"3925": 2.5797,"3950": 2.873,"3975": 2.286,"4000": 1.9771,"4025": 1.5602,"4050": 1.2667,"4075": 0.9114,"4100": 0.7415,"4125": 0.7107,"4150": 0.6026,"4175": 0.6335,"4200": 0.2318,"4225": 0.1391,"4250": 0.1236,"4275": 0.0618,"4300": 0.0464,"4325": 0.0464}}}