{"type": "Feature","bbox": [42.6778,43.8541,42.7685,43.9657],"geometry": {"type": "MultiPolygon","coordinates": [[[[42.7685,43.8661,1034.6196],[42.7248,43.9211,803.4359],[42.7299,43.9657,1088.2012],[42.6778,43.9505,934.1229],[42.6822,43.8701,1122.1113],[42.7425,43.8541,1083.4288],[42.7685,43.8661,1034.6196]]]]}
,"properties": {"GID_2": "RUS.25.6_1","GID_0": "RUS","country": "Russia","GID_1": "RUS.25_1","province": "Karachay-Cherkess","NL_NAME_1": "Карачаево-ЧеркессияРеспублика","county": "Kislovodsk","VARNAME_2": "NA","NL_NAME_2": "Кисловодск","TYPE_2": "Gorsovet","ENGTYPE_2": "District","CC_2": "NA","HASC_2": "RU.ST.KS","name": "Kislovodsk.county","area_km2": 51.72534,"hist_schema_id": "Elevation0-9000","hist_area_km2": {"725": 0.12213,"750": 2.13754,"775": 4.36699,"800": 3.81776,"825": 4.1847,"850": 3.72688,"875": 3.10098,"900": 3.3304,"925": 3.3305,"950": 3.49865,"975": 3.52947,"1000": 3.30069,"1025": 3.39245,"1050": 3.17877,"1075": 1.92551,"1100": 1.43612,"1125": 1.28335,"1150": 1.14597,"1175": 0.71801,"1200": 0.19847}}}