{"type": "Feature","bbox": [36.9302,56.1267,36.9783,56.1668],"geometry": {"type": "MultiPolygon","coordinates": [[[[36.9783,56.1496,193.0893],[36.9663,56.1625,184.5247],[36.9317,56.1668,175.7691],[36.9302,56.1317,186.0433],[36.9622,56.1267,174.9011],[36.9783,56.1496,193.0893]]]]}
,"properties": {"GID_2": "RUS.44.68_1","GID_0": "RUS","country": "Russia","GID_1": "RUS.44_1","province": "Moskva","NL_NAME_1": "Московскаяобласть","county": "Solnechnogorsk","VARNAME_2": "NA","NL_NAME_2": "Солнечногорск","TYPE_2": "Gorod","ENGTYPE_2": "City","CC_2": "NA","HASC_2": "RU.MS.SS","name": "Solnechnogorsk.county","area_km2": 9.826733,"hist_schema_id": "Elevation0-9000","hist_area_km2": {"175": 6.413259,"200": 3.047398,"225": 0.366076}}}