{"type": "Feature","bbox": [37.5814,55.7772,37.6217,55.7939],"geometry": {"type": "MultiPolygon","coordinates": [[[[37.6138,55.7939,166.6256],[37.5904,55.7908,169.0806],[37.5814,55.793,168.897],[37.5976,55.779,163.8869],[37.6038,55.7772,164.7257],[37.6217,55.7779,146.2099],[37.6173,55.781,155.2615],[37.6167,55.7872,162.3307],[37.6138,55.7939,166.6256]]]]}
,"properties": {"GID_3": "RUS.43.5.3_1","GID_0": "RUS","country": "Russia","GID_1": "RUS.43_1","province": "MoscowCity","NL_NAME_1": "NA","GID_2": "RUS.43.5_1","county": "Northern","NL_NAME_2": "NA","city": "131","VARNAME_3": "NA","NL_NAME_3": "NA","TYPE_3": "Raion","ENGTYPE_3": "NA","CC_3": "NA","HASC_3": "NA","name": "131.city","area_km2": 2.670493,"hist_schema_id": "Elevation0-9000","hist_area_km2": {"150": 0.941876,"175": 1.728617}}}