{"type": "Feature","bbox": [42.0288,44.2204,42.1629,44.3533],"geometry": {"type": "MultiPolygon","coordinates": [[[[42.1629,44.3195,693.0369],[42.1087,44.3507,691.5112],[42.0714,44.3533,608.4432],[42.0288,44.2244,517.3442],[42.0397,44.2204,524.066],[42.1629,44.3195,693.0369]]]]}
,"properties": {"GID_2": "RUS.25.2_1","GID_0": "RUS","country": "Russia","GID_1": "RUS.25_1","province": "Karachay-Cherkess","NL_NAME_1": "Карачаево-ЧеркессияРеспублика","county": "Cherkessk","VARNAME_2": "NA","NL_NAME_2": "Черкесск","TYPE_2": "Gorod","ENGTYPE_2": "City","CC_2": "NA","HASC_2": "RU.KC.CH","name": "Cherkessk.county","area_km2": 69.98672,"hist_schema_id": "Elevation0-9000","hist_area_km2": {"450": 0.75857,"475": 3.96083,"500": 12.63142,"525": 9.673,"550": 3.52013,"575": 15.355,"600": 10.25634,"625": 5.21744,"650": 3.53369,"675": 3.44251,"700": 1.60746,"725": 0.03033}}}