{"type": "Feature","bbox": [40.5604,56.8124,40.5852,56.8252],"geometry": {"type": "MultiPolygon","coordinates": [[[[40.5793,56.8129,143.5797],[40.5852,56.8168,149.0472],[40.5846,56.8198,138.0738],[40.5802,56.8237,131.9676],[40.5705,56.8252,136.4102],[40.5634,56.8228,135.4288],[40.5604,56.8186,132.674],[40.564,56.8142,146.3275],[40.57,56.8124,135.7938],[40.5793,56.8129,143.5797]]]]}
,"properties": {"GID_2": "RUS.19.21_1","GID_0": "RUS","country": "Russia","GID_1": "RUS.19_1","province": "Ivanovo","NL_NAME_1": "Ивановскаяобласть","county": "Teykovo","VARNAME_2": "NA","NL_NAME_2": "Тейково","TYPE_2": "Gorod","ENGTYPE_2": "City","CC_2": "NA","HASC_2": "RU.IV.TG","name": "Teykovo.county","area_km2": 1.566512,"hist_schema_id": "Elevation0-9000","hist_area_km2": {"125": 1.218372,"150": 0.34814}}}