{"type": "Feature","bbox": [54.866,55.473,54.8951,55.4906],"geometry": {"type": "MultiPolygon","coordinates": [[[[54.8951,55.4787,113.6636],[54.8848,55.4906,66.2182],[54.866,55.4877,106.9951],[54.8721,55.473,144.6425],[54.8951,55.4787,113.6636]]]]}
,"properties": {"GID_2": "RUS.6.28_1","GID_0": "RUS","country": "Russia","GID_1": "RUS.6_1","province": "Bashkortostan","NL_NAME_1": "РеспубликаБашкортостан","county": "Dyurtyuli","VARNAME_2": "NA","NL_NAME_2": "Дюртюли","TYPE_2": "Gorod","ENGTYPE_2": "City","CC_2": "NA","HASC_2": "RU.BK.DT","name": "Dyurtyuli.county","area_km2": 2.18664,"hist_schema_id": "Elevation0-9000","hist_area_km2": {"75": 0.492546,"100": 0.49257,"125": 1.141441,"150": 0.060083}}}