{"type": "Feature","bbox": [47.073,53.6196,47.0962,53.6343],"geometry": {"type": "MultiPolygon","coordinates": [[[[47.0919,53.6211,247.1719],[47.0962,53.6257,231.0771],[47.0945,53.6308,223.3487],[47.0867,53.6343,224.3818],[47.0781,53.6333,196.5777],[47.073,53.6262,226.5474],[47.0773,53.6216,234.0686],[47.0842,53.6196,232.1028],[47.0919,53.6211,247.1719]]]]}
,"properties": {"GID_2": "RUS.75.1_1","GID_0": "RUS","country": "Russia","GID_1": "RUS.75_1","province": "Ul'yanovsk","NL_NAME_1": "Ульяновскаяобласть","county": "Barysh","VARNAME_2": "NA","NL_NAME_2": "Барыш","TYPE_2": "Gorod","ENGTYPE_2": "City","CC_2": "NA","HASC_2": "RU.UL.BG","name": "Barysh.county","area_km2": 1.760329,"hist_schema_id": "Elevation0-9000","hist_area_km2": {"200": 0.17602,"225": 1.383109,"250": 0.201199}}}