{"type": "Feature","bbox": [41.8397,52.6093,41.9714,52.6905],"geometry": {"type": "MultiPolygon","coordinates": [[[[41.9714,52.6698,166.3381],[41.9444,52.6905,171.908],[41.8397,52.632,151.3079],[41.9075,52.6093,171.4382],[41.9714,52.6698,166.3381]]]]}
,"properties": {"GID_2": "RUS.67.17_1","GID_0": "RUS","country": "Russia","GID_1": "RUS.67_1","province": "Tambov","NL_NAME_1": "Тамбовскаяобласть","county": "Rasskazovo","VARNAME_2": "NA","NL_NAME_2": "Рассказово","TYPE_2": "Gorod","ENGTYPE_2": "City","CC_2": "NA","HASC_2": "RU.TB.RG","name": "Rasskazovo.county","area_km2": 34.87323,"hist_schema_id": "Elevation0-9000","hist_area_km2": {"150": 15.51392,"175": 19.35931}}}