{"type": "Feature","bbox": [44.5839,43.289,45.0081,43.5749],"geometry": {"type": "MultiPolygon","coordinates": [[[[44.9282,43.5359,329.4281],[44.9092,43.5332,356.9519],[44.8928,43.5435,427.8795],[44.886,43.5604,387.0363],[44.8766,43.5728,371.5573],[44.8292,43.5749,302.2773],[44.8166,43.5581,477.7058],[44.8268,43.5309,470.6764],[44.826,43.5074,365.0174],[44.8182,43.4867,327.5946],[44.7907,43.4766,319.1661],[44.7582,43.4759,317.5843],[44.735,43.4835,323.03],[44.7235,43.5017,347.137],[44.7273,43.5252,423.9694],[44.7102,43.5384,515.2079],[44.6738,43.5369,492.136],[44.6451,43.5414,533.0296],[44.6123,43.5349,522.4703],[44.5979,43.5271,460.8257],[44.5963,43.5076,357.5379],[44.5974,43.4778,407.1305],[44.6022,43.4557,529.6855],[44.5944,43.4248,713.894],[44.5839,43.3984,689.335],[44.5959,43.3758,607.0156],[44.6121,43.3621,568.228],[44.675,43.3419,490.8896],[44.7038,43.3065,587.902],[44.7196,43.2956,636.4507],[44.7362,43.29,669.3309],[44.7491,43.289,736.5938],[44.7604,43.2966,729.1284],[44.7719,43.3118,583.7299],[44.7948,43.3303,530.3377],[44.8234,43.347,523.8009],[44.8449,43.3545,576.1949],[44.8696,43.3561,591.9236],[44.8937,43.3608,663.1278],[44.9138,43.3666,484.4987],[44.9311,43.3809,397.0867],[44.9505,43.4055,358.6311],[44.9631,43.4372,286.6927],[44.9711,43.4759,327.1812],[45.0081,43.5105,409.8298],[44.9808,43.5086,374.0166],[44.9603,43.5118,420.532],[44.9282,43.5359,329.4281]]]]}
,"properties": {"GID_2": "RUS.17.1_1","GID_0": "RUS","country": "Russia","GID_1": "RUS.17_1","province": "Ingush","NL_NAME_1": "Респу́бликаИнгуше́тия","county": "Malgobekskiyrayon","VARNAME_2": "NA","NL_NAME_2": "Малгобекскийрайон","TYPE_2": "Raion","ENGTYPE_2": "District","CC_2": "R42010","HASC_2": "RU.IN.MR","name": "Malgobekskiyrayon.county","area_km2": 612.8454,"hist_schema_id": "Elevation0-9000","hist_area_km2": {"275": 0.9544,"300": 34.0118,"325": 84.6342,"350": 74.564,"375": 53.4854,"400": 43.6262,"425": 39.5841,"450": 37.0224,"475": 39.6392,"500": 40.9147,"525": 35.5278,"550": 31.6343,"575": 23.8539,"600": 18.1531,"625": 14.0217,"650": 12.9593,"675": 10.2011,"700": 7.5352,"725": 5.2545,"750": 3.0656,"775": 1.6479,"800": 0.5236,"825": 0.0308}}}