{"type": "Feature","bbox": [54.2506,56.0878,54.2793,56.1073],"geometry": {"type": "MultiPolygon","coordinates": [[[[54.2755,56.0908,97.9906],[54.2793,56.0962,102.6919],[54.2792,56.1008,104.2337],[54.2709,56.1054,110.1394],[54.2648,56.1073,107.1856],[54.2506,56.101,99.0838],[54.2558,56.0894,108.7699],[54.2666,56.0878,104.7592],[54.2755,56.0908,97.9906]]]]}
,"properties": {"GID_2": "RUS.6.51_1","GID_0": "RUS","country": "Russia","GID_1": "RUS.6_1","province": "Bashkortostan","NL_NAME_1": "РеспубликаБашкортостан","county": "Neftekamsk","VARNAME_2": "NA","NL_NAME_2": "Нефтекамск","TYPE_2": "Gorsovet","ENGTYPE_2": "District","CC_2": "NA","HASC_2": "RU.BK.NE","name": "Neftekamsk.county","area_km2": 2.731864,"hist_schema_id": "Elevation0-9000","hist_area_km2": {"100": 2.708216,"125": 0.023648}}}