{"type": "Feature","bbox": [41.8989,44.5615,42.0165,44.6917],"geometry": {"type": "MultiPolygon","coordinates": [[[[42.0165,44.5894,403.831],[41.9922,44.6528,330.6553],[41.9204,44.6917,309.5232],[41.8989,44.6425,314.5988],[41.9131,44.5693,354.7867],[41.9379,44.5615,341.546],[42.0165,44.5894,403.831]]]]}
,"properties": {"GID_2": "RUS.65.23_1","GID_0": "RUS","country": "Russia","GID_1": "RUS.65_1","province": "Stavropol'","NL_NAME_1": "Ставропольскийкрай","county": "Nevinnomyssk","VARNAME_2": "NA","NL_NAME_2": "Невинномысск","TYPE_2": "Gorod","ENGTYPE_2": "City","CC_2": "NA","HASC_2": "RU.ST.NV","name": "Nevinnomyssk.county","area_km2": 86.66789,"hist_schema_id": "Elevation0-9000","hist_area_km2": {"300": 2.98591,"325": 51.1923,"350": 16.30463,"375": 5.57063,"400": 3.50256,"425": 2.7326,"450": 1.4949,"475": 0.86076,"500": 0.55875,"525": 0.77019,"550": 0.61916,"575": 0.07551}}}