{"type": "Feature","bbox": [47.8726,41.5251,48.3626,41.7968],"geometry": {"type": "MultiPolygon","coordinates": [[[[48.3128,41.7968,171.9712],[48.2915,41.7775,176.21],[48.2657,41.74,222.0351],[48.1999,41.752,501.6336],[48.1191,41.7597,477.3042],[48.1232,41.7325,633.8923],[48.101,41.7143,610.1885],[48.0686,41.7034,864.5807],[48.0405,41.7007,836.2058],[48.0216,41.692,853.0723],[48.0222,41.6821,838.5081],[48.0256,41.6694,755.0417],[48.022,41.6529,969.0836],[48.0111,41.6461,978.0991],[47.9964,41.6521,1073.0892],[47.9749,41.6666,1084.3785],[47.9504,41.6738,1120.6068],[47.9346,41.6683,1326.4153],[47.8937,41.6457,1486.1714],[47.8805,41.6555,1642.5315],[47.8795,41.6392,1675.3185],[47.8726,41.6281,2104.563],[47.8734,41.6152,2127.541],[47.8865,41.5987,1884.9465],[47.907,41.5902,1756.6277],[47.9338,41.5934,1311.9023],[47.9521,41.6038,1221.2994],[47.982,41.6168,1231.8411],[47.9891,41.6123,1097.3926],[47.9915,41.589,1283.2695],[47.9886,41.5747,1367.1091],[47.9892,41.5607,1366.0908],[47.9864,41.5484,963.1866],[48.0097,41.5345,1281.2012],[48.0207,41.5251,1387.1874],[48.0338,41.5273,1347.26],[48.0546,41.5396,1346.7822],[48.0837,41.5683,1060.9888],[48.1294,41.6018,779.5619],[48.1405,41.618899999999996,683.26],[48.1325,41.6392,649.2471],[48.1447,41.6456,526.3099],[48.1638,41.648,613.4437],[48.1848,41.6553,461.8131],[48.1998,41.663,388.2432],[48.2125,41.6788,405.0202],[48.2303,41.6963,395.4043],[48.2488,41.6997,434.3287],[48.3004,41.6991,278.9084],[48.3277,41.7057,286.5019],[48.3447,41.7205,221.3526],[48.3593,41.7434,184.2733],[48.3626,41.7755,163.7456],[48.3128,41.7968,171.9712]]]]}
,"properties": {"GID_2": "RUS.15.41_1","GID_0": "RUS","country": "Russia","GID_1": "RUS.15_1","province": "Dagestan","NL_NAME_1": "РеспубликаДагестан","county": "Suleyman-Stal'skiyrayon","VARNAME_2": "NA","NL_NAME_2": "Сулейманстальскийрайон","TYPE_2": "Raion","ENGTYPE_2": "District","CC_2": "R39002","HASC_2": "RU.DA.SU","name": "Suleyman-Stal'skiyrayon.county","area_km2": 413.9042,"hist_schema_id": "Elevation0-9000","hist_area_km2": {"125": 0.0158,"150": 1.7074,"175": 8.6494,"200": 16.148,"225": 13.0672,"250": 8.7345,"275": 6.5987,"300": 4.5259,"325": 3.7033,"350": 3.719,"375": 4.6838,"400": 8.1988,"425": 11.8411,"450": 14.1521,"475": 17.2694,"500": 15.37,"525": 11.6508,"550": 10.5438,"575": 10.3703,"600": 9.6108,"625": 8.8364,"650": 8.8217,"675": 8.2841,"700": 8.1103,"725": 8.0316,"750": 7.6522,"775": 7.8268,"800": 8.3032,"825": 8.0182,"850": 7.9081,"875": 7.8764,"900": 9.6852,"925": 11.3201,"950": 10.3213,"975": 8.466,"1000": 7.3244,"1025": 6.976,"1050": 6.7699,"1075": 7.1978,"1100": 6.1357,"1125": 5.3264,"1150": 5.3898,"1175": 4.5655,"1200": 4.2646,"1225": 4.2488,"1250": 4.0583,"1275": 3.5671,"1300": 2.822,"1325": 2.8695,"1350": 2.5206,"1375": 2.1242,"1400": 1.9337,"1425": 1.5689,"1450": 1.8859,"1475": 1.5689,"1500": 1.458,"1525": 1.1094,"1550": 0.9668,"1575": 0.6498,"1600": 0.8242,"1625": 0.7767,"1650": 0.8243,"1675": 0.856,"1700": 0.9352,"1725": 0.6658,"1750": 0.745,"1775": 0.856,"1800": 0.8877,"1825": 0.9194,"1850": 0.9987,"1875": 0.8719,"1900": 0.967,"1925": 1.0462,"1950": 0.7133,"1975": 0.7926,"2000": 0.6974,"2025": 0.5389,"2050": 0.5072,"2075": 0.3487,"2100": 0.2377,"2125": 0.2536,"2150": 0.1743,"2175": 0.0792,"2200": 0.0634}}}