{"type": "Feature","bbox": [46.936,41.8735,47.2543,42.3527],"geometry": {"type": "MultiPolygon","coordinates": [[[[47.1747,42.2801,1572.0044],[47.1713,42.2655,1554.2758],[47.14,42.288,1154.2885],[47.1101,42.3138,1433.8633],[47.0842,42.3527,1804.553],[47.0759,42.3318,1946.5083],[47.0638,42.3131,2072.8979],[47.0519,42.2996,2218.1289],[47.003,42.2811,1414.4048],[46.9878,42.2675,1727.223],[46.9691,42.2446,1891.9707],[46.9591,42.2167,2227.6499],[46.936,42.1964,2752.1213],[46.9467,42.1765,2741.8442],[46.9458,42.1303,2972.7075],[46.9408,42.1091,2987.5586],[46.9363,42.0972,2734.3088],[46.9489,42.0939,2874.1587],[46.9702,42.0995,3235.5029],[46.9964,42.1017,2828.2627],[47.0107,42.0953,2557.4504],[47.0073,42.0755,2810.9941],[46.9654,42.0455,3131.6289],[46.9565,42.0261,3256.6504],[46.9574,41.9933,3273.9954],[46.9669,41.9418,3350.7036],[46.9938,41.9104,3344.2012],[47.0602,41.8791,3067.0049],[47.0936,41.8735,3427.0962],[47.1023,41.8875,3408.28],[47.1079,41.9082,3176.0811],[47.1182,41.931,3326.6482],[47.1258,41.9614,2823.2661],[47.1362,41.9841,2864.8755],[47.1385,42.0038,2291.282],[47.1234,42.022,2488.8574],[47.0942,42.0509,2601.2075],[47.0907,42.0746,2227.0513],[47.0997,42.0939,2028.1379],[47.1185,42.1146,1718.9061],[47.1746,42.1188,1589.2417],[47.1823,42.1297,1728.507],[47.1915,42.1484,1621.8927],[47.2063,42.1617,1952.1881],[47.2318,42.164,2266.4016],[47.2543,42.1613,2111.5073],[47.2262,42.1916,2111.3716],[47.1966,42.2448,1843.6869],[47.1747,42.2801,1572.0044]]]]}
,"properties": {"GID_2": "RUS.15.32_1","GID_0": "RUS","country": "Russia","GID_1": "RUS.15_1","province": "Dagestan","NL_NAME_1": "РеспубликаДагестан","county": "Lakskiyrayon","VARNAME_2": "NA","NL_NAME_2": "Лакскийрайон","TYPE_2": "Raion","ENGTYPE_2": "District","CC_2": "R39002","HASC_2": "RU.DA.LA","name": "Lakskiyrayon.county","area_km2": 701.4723,"hist_schema_id": "Elevation0-9000","hist_area_km2": {"1150": 0.2353,"1175": 0.5177,"1200": 0.9414,"1225": 1.4123,"1250": 1.5849,"1275": 2.4166,"1300": 2.307,"1325": 3.1705,"1350": 3.4379,"1375": 4.207,"1400": 4.8512,"1425": 6.3434,"1450": 6.5953,"1475": 7.5691,"1500": 7.6481,"1525": 8.5444,"1550": 9.7692,"1575": 9.6437,"1600": 10.6803,"1625": 11.1675,"1650": 11.4191,"1675": 12.2835,"1700": 12.3299,"1725": 11.6543,"1750": 11.482,"1775": 11.6864,"1800": 10.8692,"1825": 10.8698,"1850": 11.1363,"1875": 11.4339,"1900": 10.9157,"1925": 10.9463,"1950": 11.9987,"1975": 11.0876,"2000": 12.7371,"2025": 11.6856,"2050": 11.5287,"2075": 11.4036,"2100": 11.3252,"2125": 10.0688,"2150": 10.3214,"2175": 9.6469,"2200": 9.71,"2225": 9.099,"2250": 8.5346,"2275": 8.9597,"2300": 8.2703,"2325": 7.014,"2350": 7.2351,"2375": 6.6074,"2400": 7.0478,"2425": 6.3724,"2450": 7.0495,"2475": 7.0189,"2500": 6.6097,"2525": 6.8626,"2550": 6.706,"2575": 6.5963,"2600": 6.5177,"2625": 6.314,"2650": 6.7552,"2675": 7.0864,"2700": 6.6766,"2725": 6.7401,"2750": 6.3466,"2775": 6.3942,"2800": 7.1817,"2825": 7.1818,"2850": 6.8831,"2875": 7.1508,"2900": 6.0171,"2925": 6.332,"2950": 5.6713,"2975": 5.4983,"3000": 5.6406,"3025": 5.168,"3050": 5.547,"3075": 4.901,"3100": 4.6651,"3125": 5.1379,"3150": 4.8072,"3175": 5.2176,"3200": 4.9658,"3225": 5.0922,"3250": 5.4551,"3275": 5.0297,"3300": 5.1088,"3325": 4.857,"3350": 4.4154,"3375": 4.4158,"3400": 4.1634,"3425": 4.4793,"3450": 3.9431,"3475": 4.1482,"3500": 3.7699,"3525": 3.2494,"3550": 3.2181,"3575": 2.6186,"3600": 2.5082,"3625": 2.3504,"3650": 1.893,"3675": 1.9719,"3700": 1.6091,"3725": 1.2935,"3750": 0.9781,"3775": 0.8677,"3800": 0.5995,"3825": 0.4102,"3850": 0.2366,"3875": 0.2367,"3900": 0.1104,"3925": 0.0158,"3950": 0.0473,"3975": 0.0158}}}