{"type": "Feature","bbox": [37.6134,55.803,37.6369,55.821],"geometry": {"type": "MultiPolygon","coordinates": [[[[37.6369,55.803,164.5224],[37.6331,55.8173,164.05],[37.6257,55.821,157.235],[37.6134,55.8187,165.4265],[37.6342,55.8047,169.9058],[37.6369,55.803,164.5224]]]]}
,"properties": {"GID_3": "RUS.43.3.4_1","GID_0": "RUS","country": "Russia","GID_1": "RUS.43_1","province": "MoscowCity","NL_NAME_1": "NA","GID_2": "RUS.43.3_1","county": "North-Eastern","NL_NAME_2": "NA","city": "174","VARNAME_3": "NA","NL_NAME_3": "NA","TYPE_3": "Raion","ENGTYPE_3": "NA","CC_3": "NA","HASC_3": "NA","name": "174.city","area_km2": 1.1674864,"hist_schema_id": "Elevation0-9000","hist_area_km2": {"150": 0.5718348,"175": 0.5956515}}}