{"type": "Feature","bbox": [35.2178,51.5566,35.2934,51.6272],"geometry": {"type": "MultiPolygon","coordinates": [[[[35.2934,51.5959,193.6467],[35.2353,51.6272,160.0457],[35.2178,51.5928,206.152],[35.2297,51.5657,182.9789],[35.2547,51.5566,212.7754],[35.2934,51.5959,193.6467]]]]}
,"properties": {"GID_2": "RUS.37.16_1","GID_0": "RUS","country": "Russia","GID_1": "RUS.37_1","province": "Kursk","NL_NAME_1": "Курскаяобласть","county": "L'gov","VARNAME_2": "Lgov","NL_NAME_2": "Льгов","TYPE_2": "Gorod","ENGTYPE_2": "City","CC_2": "NA","HASC_2": "RU.KS.LG","name": "L'gov.county","area_km2": 22.9594,"hist_schema_id": "Elevation0-9000","hist_area_km2": {"150": 2.93675,"175": 10.85337,"200": 8.53664,"225": 0.63264}}}