{"type": "Feature","bbox": [46.5155,42.8565,46.8881,43.1343],"geometry": {"type": "MultiPolygon","coordinates": [[[[46.5293,42.8949,1755.7826],[46.57,42.9041,1668.7937],[46.5963,42.8951,2362.7148],[46.6149,42.8726,2088.0491],[46.6183,42.8594,1946.6921],[46.6614,42.8565,1766.1755],[46.6977,42.8582,2118.3713],[46.7161,42.8658,2516.4946],[46.7276,42.8929,1911.5579],[46.759,42.9299,1300.202],[46.7708,42.9523,1400.7482],[46.7881,42.9587,1281.4707],[46.8011,42.9487,986.4972],[46.815,42.9426,763.8808],[46.8279,42.9544,876.679],[46.8382,42.969,754.9532],[46.8353,42.9784,782.9524],[46.821,42.9942,825.2288],[46.8231,43.0081,215.07],[46.8666,43.0442,697.3816],[46.8852,43.0639,406.1616],[46.8881,43.0802,381.6122],[46.878,43.0936,212.6586],[46.8487,43.1015,101.4409],[46.8193,43.0868,182.0851],[46.8002,43.085,335.9578],[46.7852,43.0948,223.0693],[46.7666,43.1036,271.6501],[46.7515,43.1031,296.4338],[46.7294,43.105,348.7057],[46.7265,43.1153,492.0737],[46.7369,43.1343,568.9536],[46.6987,43.1328,615.6149],[46.6354,43.1232,491.4157],[46.6063,43.1238,374.3934],[46.6001,43.1044,508.602],[46.5857,43.0818,639.2503],[46.5795,43.0634,644.1963],[46.56,43.0569,618.1491],[46.5157,43.0481,725.1523],[46.5314,43.0463,801.3889],[46.5393,43.0311,733.8663],[46.5276,43.0164,896.1481],[46.5155,42.9893,849.3843],[46.517,42.9618,1212.3369],[46.5433,42.9355,2050.0767],[46.5545,42.922,1608.2637],[46.5293,42.8949,1755.7826]]]]}
,"properties": {"GID_2": "RUS.15.22_1","GID_0": "RUS","country": "Russia","GID_1": "RUS.15_1","province": "Dagestan","NL_NAME_1": "РеспубликаДагестан","county": "Kazbekovskiyrayon","VARNAME_2": "NA","NL_NAME_2": "Казбековскийрайон","TYPE_2": "Raion","ENGTYPE_2": "District","CC_2": "R39001","HASC_2": "RU.DA.KZ","name": "Kazbekovskiyrayon.county","area_km2": 585.6344,"hist_schema_id": "Elevation0-9000","hist_area_km2": {"100": 2.2143,"125": 2.3846,"150": 4.8944,"175": 2.6178,"200": 3.2528,"225": 4.3367,"250": 5.3741,"275": 4.5379,"300": 4.1196,"325": 4.0888,"350": 4.5224,"375": 5.3432,"400": 5.4359,"425": 6.21,"450": 6.4112,"475": 6.8137,"500": 6.9526,"525": 8.2376,"550": 8.5318,"575": 9.3688,"600": 9.8181,"625": 10.5465,"650": 11.5387,"675": 10.2697,"700": 11.4637,"725": 11.8828,"750": 11.0936,"775": 10.4902,"800": 11.5916,"825": 12.0573,"850": 13.6081,"875": 12.3383,"900": 11.7967,"925": 12.1695,"950": 12.7593,"975": 11.5045,"1000": 11.3035,"1025": 11.4437,"1050": 11.3047,"1075": 11.7546,"1100": 11.7243,"1125": 11.6159,"1150": 11.4614,"1175": 11.1832,"1200": 10.5012,"1225": 10.0979,"1250": 9.0285,"1275": 7.0127,"1300": 6.7802,"1325": 6.5789,"1350": 5.8503,"1375": 5.8662,"1400": 6.5802,"1425": 5.6182,"1450": 5.6339,"1475": 5.4633,"1500": 5.6033,"1525": 4.9361,"1550": 4.2533,"1575": 4.0517,"1600": 3.3687,"1625": 3.6949,"1650": 3.0585,"1675": 3.4,"1700": 3.1362,"1725": 3.0429,"1750": 2.7017,"1775": 2.7793,"1800": 2.6085,"1825": 2.8726,"1850": 2.9039,"1875": 2.7485,"1900": 2.3137,"1925": 2.2983,"1950": 2.3295,"1975": 2.4227,"2000": 2.5626,"2025": 2.547,"2050": 2.78,"2075": 2.5316,"2100": 2.8578,"2125": 2.5006,"2150": 2.4696,"2175": 2.4697,"2200": 2.3921,"2225": 2.0348,"2250": 2.2058,"2275": 2.0349,"2300": 1.6776,"2325": 2.0194,"2350": 2.0195,"2375": 1.8952,"2400": 2.1438,"2425": 2.1904,"2450": 1.9419,"2475": 1.5691,"2500": 1.7711,"2525": 1.6469,"2550": 1.476,"2575": 1.3362,"2600": 1.2119,"2625": 0.6681,"2650": 0.4195,"2675": 0.2797,"2700": 0.0777}}}