{"type": "Feature","bbox": [40.4358,52.8434,40.5553,52.9888],"geometry": {"type": "MultiPolygon","coordinates": [[[[40.5553,52.8916,125.9224],[40.5071,52.9888,148.9666],[40.4359,52.9662,161.1047],[40.4358,52.8437,119.085],[40.5343,52.8434,134.6568],[40.5553,52.8916,125.9224]]]]}
,"properties": {"GID_2": "RUS.67.7_1","GID_0": "RUS","country": "Russia","GID_1": "RUS.67_1","province": "Tambov","NL_NAME_1": "Тамбовскаяобласть","county": "Michurinsk","VARNAME_2": "NA","NL_NAME_2": "Мичуринск","TYPE_2": "Gorod","ENGTYPE_2": "City","CC_2": "NA","HASC_2": "RU.TB.MG","name": "Michurinsk.county","area_km2": 102.07933,"hist_schema_id": "Elevation0-9000","hist_area_km2": {"125": 39.4778,"150": 57.73305,"175": 4.86847}}}