{"type": "Feature","bbox": [44.2196,42.9685,44.5965,43.1952],"geometry": {"type": "MultiPolygon","coordinates": [[[[44.5715,42.9963,723.0405],[44.5512,43.0282,658.1512],[44.5569,43.0412,638.4722],[44.5779,43.064,602.5816],[44.5965,43.0966,585.8511],[44.5882,43.1114,567.9433],[44.5638,43.109,557.4934],[44.5266,43.1115,537.0288],[44.4947,43.1259,506.9901],[44.4687,43.1457,478.6907],[44.4418,43.163,455.1576],[44.4199,43.1609,447.45],[44.3788,43.1613,426.053],[44.3404,43.1797,403.7217],[44.3337,43.1952,391.5088],[44.3161,43.1599,426.9302],[44.2754,43.1244,480.8701],[44.2257,43.0755,558.2024],[44.2196,43.0581,585.17],[44.2248,43.045,607.9787],[44.2477,43.0382,619.8521],[44.2642,43.037,629.9118],[44.2743,43.0299,656.7928],[44.2624,42.9951,971.7507],[44.2615,42.9813,846.7133],[44.2991,42.9685,990.7394],[44.3277,42.9985,1215.2003],[44.3642,42.9996,849.8003],[44.3933,42.9789,844.9598],[44.4558,42.9782,800.5793],[44.5021,42.9795,761.0786],[44.5511,42.988,799.9595],[44.5715,42.9963,723.0405]]]]}
,"properties": {"GID_2": "RUS.48.2_1","GID_0": "RUS","country": "Russia","GID_1": "RUS.48_1","province": "NorthOssetia","NL_NAME_1": "РеспубликаСевернаяОсетия-Алани","county": "Ardonskiyrayon","VARNAME_2": "NA","NL_NAME_2": "Ардонскийрайон","TYPE_2": "Raion","ENGTYPE_2": "District","CC_2": "R41000","HASC_2": "RU.NO.AR","name": "Ardonskiyrayon.county","area_km2": 468.2591,"hist_schema_id": "Elevation0-9000","hist_area_km2": {"400": 3.3088,"425": 15.5132,"450": 29.1933,"475": 37.0317,"500": 40.9122,"525": 45.0265,"550": 53.8491,"575": 57.7166,"600": 40.8269,"625": 23.8659,"650": 15.4067,"675": 12.0448,"700": 11.4261,"725": 11.7685,"750": 12.4671,"775": 13.1189,"800": 9.2114,"825": 6.2027,"850": 4.5124,"875": 4.1402,"900": 3.5664,"925": 3.1323,"950": 2.4189,"975": 2.0003,"1000": 1.9382,"1025": 1.5041,"1050": 1.3025,"1075": 1.349,"1100": 1.1009,"1125": 0.8528,"1150": 0.5582,"1175": 0.4807,"1200": 0.3877,"1225": 0.1241}}}