{"type": "Feature","bbox": [48.4417,53.1522,48.4737,53.1682],"geometry": {"type": "MultiPolygon","coordinates": [[[[48.4737,53.1534,36.5284],[48.4665,53.1682,59.562],[48.4417,53.166,63.783],[48.4439,53.1522,46.2118],[48.4737,53.1534,36.5284]]]]}
,"properties": {"GID_2": "RUS.62.30_1","GID_0": "RUS","country": "Russia","GID_1": "RUS.62_1","province": "Samara","NL_NAME_1": "Самарскаяобласть","county": "Syzran'","VARNAME_2": "NA","NL_NAME_2": "Сызрань","TYPE_2": "Gorsovet","ENGTYPE_2": "District","CC_2": "NA","HASC_2": "RU.SA.SG","name": "Syzran'.county","area_km2": 2.936598,"hist_schema_id": "Elevation0-9000","hist_area_km2": {"25": 0.508519,"50": 2.288255,"75": 0.139823}}}