{"type": "Feature","bbox": [42.8987,44.129,43.1249,44.217],"geometry": {"type": "MultiPolygon","coordinates": [[[[43.0323,44.2045,403.1326],[42.9477,44.217,350.7152],[42.8987,44.1863,432.0253],[42.9241,44.166,591.009],[42.9684,44.1853,676.9655],[42.9895,44.1409,478.4785],[43.0433,44.129,576.1403],[43.1249,44.1432,338.2595],[43.0323,44.2045,403.1326]]]]}
,"properties": {"GID_2": "RUS.65.35_1","GID_0": "RUS","country": "Russia","GID_1": "RUS.65_1","province": "Stavropol'","NL_NAME_1": "Ставропольскийкрай","county": "Zheleznovodsk","VARNAME_2": "NA","NL_NAME_2": "Железноводск","TYPE_2": "Gorsovet","ENGTYPE_2": "District","CC_2": "NA","HASC_2": "RU.ST.ZH","name": "Zheleznovodsk.county","area_km2": 86.45242,"hist_schema_id": "Elevation0-9000","hist_area_km2": {"325": 0.01521,"350": 2.82828,"375": 8.28588,"400": 11.41774,"425": 16.17757,"450": 13.38253,"475": 8.71469,"500": 7.7418,"525": 4.79137,"550": 3.43777,"575": 2.73817,"600": 2.06887,"625": 1.64293,"650": 1.1409,"675": 0.63888,"700": 0.42588,"725": 0.34986,"750": 0.18253,"775": 0.21296,"800": 0.10647,"825": 0.07607,"850": 0.03042,"875": 0.01521,"900": 0.03042}}}