{"type": "Feature","bbox": [40.1544,48.1911,40.3573,48.3284],"geometry": {"type": "MultiPolygon","coordinates": [[[[40.2625,48.2066,185.0764],[40.3295,48.2364,122.1106],[40.3573,48.2941,20.5],[40.215,48.3284,24.1915],[40.1544,48.2601,143.3251],[40.2276,48.1911,214.7245],[40.2625,48.2066,185.0764]]]]}
,"properties": {"GID_2": "RUS.58.15_1","GID_0": "RUS","country": "Russia","GID_1": "RUS.58_1","province": "Rostov","NL_NAME_1": "Ростовскаяобласть","county": "Kamensk-Shakhtinskiy","VARNAME_2": "NA","NL_NAME_2": "Каменск-Шахтинский","TYPE_2": "Gorsovet","ENGTYPE_2": "District","CC_2": "NA","HASC_2": "RU.RO.KG","name": "Kamensk-Shakhtinskiy.county","area_km2": 135.385,"hist_schema_id": "Elevation0-9000","hist_area_km2": {"25": 3.484,"50": 8.463,"75": 19.3825,"100": 22.0833,"125": 26.4626,"150": 26.8222,"175": 17.2999,"200": 9.3382,"225": 2.0491}}}