{"type": "Feature","bbox": [34.1756,55.104,34.3101,55.1816],"geometry": {"type": "MultiPolygon","coordinates": [[[[34.3101,55.1353,229.951],[34.2843,55.1816,219.3367],[34.2499,55.1809,255.9617],[34.2168,55.1762,258.7679],[34.1756,55.1314,291.6312],[34.2469,55.104,276.8283],[34.3101,55.1353,229.951]]]]}
,"properties": {"GID_2": "RUS.64.29_1","GID_0": "RUS","country": "Russia","GID_1": "RUS.64_1","province": "Smolensk","NL_NAME_1": "Смоленскаяобласть","county": "Vyaz'ma","VARNAME_2": "V'az'ma","NL_NAME_2": "Вязьма","TYPE_2": "Gorod","ENGTYPE_2": "City","CC_2": "NA","HASC_2": "RU.SM.VG","name": "Vyaz'ma.county","area_km2": 46.74788,"hist_schema_id": "Elevation0-9000","hist_area_km2": {"225": 3.71866,"250": 11.47348,"275": 21.09896,"300": 10.44467,"325": 0.01212}}}