{"type": "Feature","bbox": [55.0206,51.6043,55.3712,51.8482],"geometry": {"type": "MultiPolygon","coordinates": [[[[55.1363,51.6064,156.8979],[55.3712,51.8206,137.877],[55.2505,51.8482,166.1739],[55.1206,51.8291,112.723],[55.0894,51.8222,107.8052],[55.0206,51.7356,90.3802],[55.0815,51.6043,151.414],[55.1363,51.6064,156.8979]]]]}
,"properties": {"GID_2": "RUS.53.29_1","GID_0": "RUS","country": "Russia","GID_1": "RUS.53_1","province": "Orenburg","NL_NAME_1": "Оренбургскаяобласть","county": "Orenburg","VARNAME_2": "NA","NL_NAME_2": "Оренбург","TYPE_2": "Gorsovet","ENGTYPE_2": "District","CC_2": "NA","HASC_2": "RU.OB.OG","name": "Orenburg.county","area_km2": 363.0993,"hist_schema_id": "Elevation0-9000","hist_area_km2": {"75": 2.3368,"100": 183.3905,"125": 105.2012,"150": 45.3197,"175": 23.2606,"200": 3.5904}}}