{"type": "Feature","bbox": [41.4969,43.1849,42.5502,43.8815],"geometry": {"type": "MultiPolygon","coordinates": [[[[42.1551,43.2189,3302.2886],[42.1556,43.22,3302.2886],[42.1813,43.2171,3544.9338],[42.1876,43.2181,3580.5701],[42.2131,43.2299,3276.1467],[42.2213,43.23,3252.1382],[42.241,43.226,3311.3394],[42.264,43.2101,3259.2095],[42.2885,43.2084,3235.6221],[42.2969,43.2114,3398.26],[42.318,43.2264,3042.8362],[42.3406,43.2247,3367.5491],[42.3462,43.2259,3436.9893],[42.3552,43.239,3261.7649],[42.3589,43.2408,3163.5933],[42.394,43.2442,3225.3628],[42.4052,43.2465,3204.1128],[42.4261,43.254,3259.9238],[42.4365,43.2542,3219.2573],[42.4563,43.2456,3374.7769],[42.4647,43.2402,3260.6626],[42.4663,43.2354,3058.0811],[42.4548,43.2289,3234.0771],[42.4508,43.2238,3176.2617],[42.4496,43.2197,3357.4346],[42.4511,43.2154,3067.2817],[42.4543,43.2129,3106.2544],[42.4759,43.21,3055.71],[42.5163,43.1991,4134.2148],[42.5502,43.1849,3255.2329],[42.5256,43.2103,3651.0896],[42.509,43.2356,2575.5854],[42.5081,43.258,2168.988],[42.5278,43.2803,2923.2605],[42.5385,43.3029,3131.9282],[42.5385,43.3267,3430.7065],[42.5228,43.3594,3525.4541],[42.5136,43.4173,2780.4893],[42.5291,43.5207,2110.6501],[42.5421,43.5685,2066.1929],[42.5365,43.6044,2283.7258],[42.5188,43.6091,2174.2061],[42.4705,43.5937,2239.9609],[42.4418,43.6048,2178.2395],[42.4453,43.6212,2235.0393],[42.4523,43.6825,2488.3076],[42.4243,43.7309,2025.2947],[42.3466,43.7432,2398.7124],[42.27,43.7589,2007.8462],[42.2112,43.7746,1975.1663],[42.1927,43.7877,2095.3025],[42.2018,43.8057,2023.8643],[42.1969,43.8199,1960.1382],[42.1823,43.8277,1998.4321],[42.0866,43.836,1743.0884],[42.0313,43.8449,1845.1927],[41.9802,43.8611,1463.1646],[41.9559,43.8815,1311.147],[41.9405,43.8686,1059.2374],[41.9241,43.8377,941.3129],[41.8988,43.7964,1016.9131],[41.8839,43.7485,912.0858],[41.8788,43.7103,1159.828],[41.8849,43.6371,1222.6432],[41.8751,43.6185,1143.2833],[41.8448,43.6286,1742.6194],[41.8224,43.6292,1813.5385],[41.8046,43.6149,1964.9457],[41.7988,43.5778,1501.4393],[41.762,43.5343,1824.8433],[41.7425,43.5064,1385.6805],[41.7268,43.5053,1812.2965],[41.6993,43.5175,2561.5728],[41.6847,43.5163,2742.4678],[41.655,43.4953,2802.5676],[41.6407,43.4702,2628.6968],[41.6321,43.4284,2700.7632],[41.5987,43.38,2721.5918],[41.5412,43.3208,2993.1533],[41.4969,43.2819,3395.8918],[41.5453,43.2608,3044.9248],[41.5507,43.2559,3224.613],[41.5543,43.2488,3202.9839],[41.5733,43.2435,3265.5039],[41.5825,43.2354,3501.959],[41.5991,43.2333,3329.1975],[41.6229,43.2245,3181.6841],[41.6307,43.2229,3294.5315],[41.6407,43.2239,3282.8887],[41.6499,43.2295,3202.6294],[41.6575,43.2301,3026.6113],[41.6919,43.2167,3012.0413],[41.7073,43.2151,2530.7681],[41.7156,43.2183,2824.2339],[41.7224,43.2239,2870.6243],[41.7274,43.2314,2690.5781],[41.736,43.2328,2430.9165],[41.748,43.227,2417.9556],[41.7629,43.2156,2743.47],[41.7817,43.2117,2509.8984],[41.7937,43.2109,3072.8521],[41.8147,43.2038,2979.4368],[41.8307,43.2056,2653.4585],[41.8523,43.2109,3479.5884],[41.8633,43.2157,3067.5061],[41.8679,43.2229,2734.3921],[41.8621,43.2323,3110.5464],[41.8609,43.2371,2802.9482],[41.8663,43.2457,2765.0403],[41.8719,43.2469,2887.2917],[41.8782,43.2461,3239.6819],[41.8906,43.2368,2749.7512],[41.917,43.2283,2712.188],[41.9427,43.2253,3425.769],[41.9543,43.2125,2801.1824],[41.9593,43.2097,2803.6095999999998],[41.967,43.2102,2918.7227],[41.9799,43.2149,3059.5347],[42.0008,43.2158,2785.1396],[42.0177,43.2145,3167.6997],[42.0301,43.2063,3350.3501],[42.0387,43.1969,3212.333],[42.0483,43.1947,3058.5959],[42.0577,43.1941,3137.1538],[42.0811,43.2045,3881.7251],[42.1039,43.2054,3370.145],[42.1129,43.2075,3113.7156],[42.1368,43.2207,3240.1003],[42.1454,43.2212,3230.9805],[42.1551,43.2189,3302.2886]],
[[42.0077,43.7622,1360.7832],[41.9626,43.7168,1471.8325],[41.9436,43.7203,1182.0802],[41.952,43.753,1468.0245],[42.0077,43.7622,1360.7832]]]]}
,"properties": {"GID_2": "RUS.25.4_1","GID_0": "RUS","country": "Russia","GID_1": "RUS.25_1","province": "Karachay-Cherkess","NL_NAME_1": "Карачаево-ЧеркессияРеспублика","county": "Karachayevskiyrayon","VARNAME_2": "NA","NL_NAME_2": "Карачаевскийрайон","TYPE_2": "Raion","ENGTYPE_2": "District","CC_2": "R44010","HASC_2": "RU.KC.KR","name": "Karachayevskiyrayon.county","area_km2": 4051.93,"hist_schema_id": "Elevation0-9000","hist_area_km2": {"825": 0.704,"850": 4.194,"875": 4.302,"900": 4.012,"925": 5.192,"950": 5.958,"975": 6.204,"1000": 7.951,"1025": 8.057,"1050": 9.176,"1075": 10.112,"1100": 11.063,"1125": 13.456,"1150": 15.51,"1175": 17.937,"1200": 19.457,"1225": 21.362,"1250": 23.233,"1275": 25.91,"1300": 29.12,"1325": 31.6,"1350": 30.934,"1375": 33.256,"1400": 34.376,"1425": 36.587,"1450": 38.279,"1475": 41.924,"1500": 39.375,"1525": 41.926,"1550": 41.295,"1575": 41.159,"1600": 41.131,"1625": 44.633,"1650": 44.56,"1675": 47.465,"1700": 47.205,"1725": 47.418,"1750": 50.186,"1775": 51.307,"1800": 51.045,"1825": 51.205,"1850": 51.316,"1875": 54.233,"1900": 58.002,"1925": 57.167,"1950": 58.158,"1975": 58.099,"2000": 57.746,"2025": 61.267,"2050": 60.717,"2075": 61.871,"2100": 60.029,"2125": 60.112,"2150": 59.626,"2175": 60.681,"2200": 58.164,"2225": 58.738,"2250": 57.885,"2275": 51.163,"2300": 45.778,"2325": 44.204,"2350": 40.888,"2375": 40.398,"2400": 36.853,"2425": 35.778,"2450": 35.55,"2475": 35.891,"2500": 35.772,"2525": 35.621,"2550": 37.33,"2575": 36.87,"2600": 37.979,"2625": 39.275,"2650": 39.722,"2675": 40.819,"2700": 41.883,"2725": 41.436,"2750": 41.978,"2775": 42.533,"2800": 42.827,"2825": 43.213,"2850": 45.081,"2875": 44.973,"2900": 44.758,"2925": 45.591,"2950": 46.165,"2975": 45.317,"3000": 43.992,"3025": 42.159,"3050": 43.069,"3075": 40.804,"3100": 40.572,"3125": 39.404,"3150": 35.163,"3175": 34.27,"3200": 33.747,"3225": 31.188,"3250": 29.184,"3275": 28.197,"3300": 25.206,"3325": 22.585,"3350": 20.779,"3375": 19.328,"3400": 16.644,"3425": 14.176,"3450": 13.205,"3475": 10.69,"3500": 10.181,"3525": 9.162,"3550": 7.682,"3575": 7.251,"3600": 6.741,"3625": 6.016,"3650": 5.322,"3675": 4.628,"3700": 4.489,"3725": 4.257,"3750": 4.38,"3775": 4.179,"3800": 3.439,"3825": 2.837,"3850": 2.807,"3875": 2.884,"3900": 2.606,"3925": 2.545,"3950": 2.498,"3975": 2.051,"4000": 2.082,"4025": 1.758,"4050": 1.696,"4075": 1.665,"4100": 1.357,"4125": 1.496,"4150": 1.527,"4175": 1.218,"4200": 1.172,"4225": 1.388,"4250": 1.311,"4275": 1.156,"4300": 1.187,"4325": 1.141,"4350": 1.141,"4375": 1.064,"4400": 1.156,"4425": 0.987,"4450": 1.048,"4475": 1.11,"4500": 1.018,"4525": 0.863,"4550": 1.187,"4575": 1.033,"4600": 0.848,"4625": 0.863,"4650": 1.033,"4675": 0.725,"4700": 0.802,"4725": 0.817,"4750": 0.833,"4775": 0.755,"4800": 0.694,"4825": 0.709,"4850": 0.725,"4875": 0.663,"4900": 0.756,"4925": 0.586,"4950": 0.817,"4975": 0.57,"5000": 0.617,"5025": 0.555,"5050": 0.601,"5075": 0.678,"5100": 0.601,"5125": 0.555,"5150": 0.416,"5175": 0.432,"5200": 0.463,"5225": 0.324,"5250": 0.324,"5275": 0.355,"5300": 0.339,"5325": 0.339,"5350": 0.293,"5375": 0.401,"5400": 0.216,"5425": 0.308,"5450": 0.262,"5475": 0.293,"5500": 0.262,"5525": 0.2,"5550": 0.154,"5575": 0.293,"5600": 0.139}}}