{"type": "Feature","bbox": [39.9941,47.7232,40.167,47.9263],"geometry": {"type": "MultiPolygon","coordinates": [[[[40.0701,47.7258,67.5739],[40.0712,47.7232,82.7855],[40.113,47.7465,102.4475],[40.0666,47.8487,188.011],[40.167,47.857,222.4679],[40.1557,47.9263,170.0785],[40.0036,47.9249,136.6422],[39.9941,47.8199,209.4232],[40.0236,47.8211,214.5068],[40.0283,47.8102,198.5012],[40.0195,47.7556,163.733],[40.0567,47.7559,150.9351],[40.0701,47.7258,67.5739]]]]}
,"properties": {"GID_2": "RUS.58.20_1","GID_0": "RUS","country": "Russia","GID_1": "RUS.58_1","province": "Rostov","NL_NAME_1": "Ростовскаяобласть","county": "KrasnyySulin","VARNAME_2": "NA","NL_NAME_2": "КрасныйСулин","TYPE_2": "Gorsovet","ENGTYPE_2": "District","CC_2": "NA","HASC_2": "RU.RO.KS","name": "Krasnyy_Sulin.county","area_km2": 164.5338,"hist_schema_id": "Elevation0-9000","hist_area_km2": {"50": 0.0428,"75": 2.039,"100": 11.9726,"125": 29.7751,"150": 39.0488,"175": 48.14,"200": 26.6696,"225": 6.8459}}}