{"type": "Feature","bbox": [37.3644,44.8557,37.4724,44.931399999999996],"geometry": {"type": "MultiPolygon","coordinates": [[[[37.4724,44.9159,56.7974],[37.3877,44.931399999999996,19.0955],[37.3644,44.9086,7.786],[37.3925,44.9012,19.9379],[37.4079,44.8919,49.4814],[37.4222,44.8761,57.6119],[37.4316,44.8557,162.9484],[37.4724,44.9159,56.7974]]]]}
,"properties": {"GID_2": "RUS.34.2_1","GID_0": "RUS","country": "Russia","GID_1": "RUS.34_1","province": "Krasnodar","NL_NAME_1": "Краснодарскийкрай","county": "Anapa","VARNAME_2": "NA","NL_NAME_2": "Ана́па","TYPE_2": "Gorsovet","ENGTYPE_2": "District","CC_2": "NA","HASC_2": "RU.KD.AG","name": "Anapa.county","area_km2": 30.77091,"hist_schema_id": "Elevation0-9000","hist_area_km2": {"0": 9.92553,"25": 9.44589,"50": 7.28422,"75": 3.79966,"100": 0.28554,"125": 0.03006}}}