{"type": "Feature","bbox": [37.1012,54.4578,37.1156,54.4653],"geometry": {"type": "MultiPolygon","coordinates": [[[[37.1138,54.4595,185.3122],[37.1156,54.4645,188.1209],[37.1012,54.4653,187.6566],[37.104,54.4578,186.9835],[37.1138,54.4595,185.3122]]]]}
,"properties": {"GID_2": "RUS.70.1_1","GID_0": "RUS","country": "Russia","GID_1": "RUS.70_1","province": "Tula","NL_NAME_1": "Тульскаяобласть","county": "Aleksin","VARNAME_2": "NA","NL_NAME_2": "Але́ксин","TYPE_2": "Gorod","ENGTYPE_2": "City","CC_2": "NA","HASC_2": "RU.TL.AG","name": "Aleksin.county","area_km2": 0.5175936,"hist_schema_id": "Elevation0-9000","hist_area_km2": {"175": 0.3450629,"200": 0.1725307}}}