{"type": "Feature","bbox": [37.5635,55.666,37.6206,55.6992],"geometry": {"type": "MultiPolygon","coordinates": [[[[37.6104,55.6992,144.7677],[37.5927,55.6953,158.0604],[37.5635,55.6743,189.5811],[37.582,55.666,168.2566],[37.5952,55.6767,173.9478],[37.6206,55.6915,139.7977],[37.6104,55.6992,144.7677]]]]}
,"properties": {"GID_3": "RUS.43.7.12_1","GID_0": "RUS","country": "Russia","GID_1": "RUS.43_1","province": "MoscowCity","NL_NAME_1": "NA","GID_2": "RUS.43.7_1","county": "South-Western","NL_NAME_2": "NA","city": "89","VARNAME_3": "NA","NL_NAME_3": "NA","TYPE_3": "Raion","ENGTYPE_3": "NA","CC_3": "NA","HASC_3": "NA","name": "89.city","area_km2": 5.57012,"hist_schema_id": "Elevation0-9000","hist_area_km2": {"125": 0.083653,"150": 1.732865,"175": 3.502517,"200": 0.251085}}}